{
  "type": "FeatureCollection",
  "features": [
    {
      "type": "Feature",
      "properties": {
        "id": "amsterdam-ride-d7562980-59ef-11f1-8ad1-a40dbc8fa83a",
        "title": "Amsterdam ride",
        "source": "Amsterdam ride-d7562980-59ef-11f1-8ad1-a40dbc8fa83a.fit"
      },
      "geometry": {
        "type": "LineString",
        "coordinates": [
          [
            4.863351,
            52.357941
          ],
          [
            4.863351,
            52.357941
          ],
          [
            4.863341,
            52.357952
          ],
          [
            4.863341,
            52.357952
          ],
          [
            4.863387,
            52.357956
          ],
          [
            4.863387,
            52.357956
          ],
          [
            4.863411,
            52.357948
          ],
          [
            4.863423,
            52.357941
          ],
          [
            4.863441,
            52.357937
          ],
          [
            4.863454,
            52.357918
          ],
          [
            4.863444,
            52.357895
          ],
          [
            4.863416,
            52.357876
          ],
          [
            4.863379,
            52.357876
          ],
          [
            4.863346,
            52.357887
          ],
          [
            4.863332,
            52.357902
          ],
          [
            4.863327,
            52.357914
          ],
          [
            4.863327,
            52.357914
          ],
          [
            4.863349,
            52.357941
          ],
          [
            4.863365,
            52.357948
          ],
          [
            4.863391,
            52.357952
          ],
          [
            4.863425,
            52.357941
          ],
          [
            4.863455,
            52.357925
          ],
          [
            4.863495,
            52.357922
          ],
          [
            4.863529,
            52.357925
          ],
          [
            4.863549,
            52.357941
          ],
          [
            4.863577,
            52.357948
          ],
          [
            4.863622,
            52.357952
          ],
          [
            4.863651,
            52.357937
          ],
          [
            4.863655,
            52.357918
          ],
          [
            4.863654,
            52.357891
          ],
          [
            4.863675,
            52.357872
          ],
          [
            4.86371,
            52.357857
          ],
          [
            4.86375,
            52.357845
          ],
          [
            4.863786,
            52.357834
          ],
          [
            4.863824,
            52.357826
          ],
          [
            4.863861,
            52.357811
          ],
          [
            4.863894,
            52.357807
          ],
          [
            4.863925,
            52.3578
          ],
          [
            4.863946,
            52.357784
          ],
          [
            4.863961,
            52.357765
          ],
          [
            4.863972,
            52.357742
          ],
          [
            4.863986,
            52.357716
          ],
          [
            4.86402,
            52.3577
          ],
          [
            4.864054,
            52.357685
          ],
          [
            4.864093,
            52.35767
          ],
          [
            4.864134,
            52.357662
          ],
          [
            4.864165,
            52.357647
          ],
          [
            4.864183,
            52.357636
          ],
          [
            4.864211,
            52.357628
          ],
          [
            4.864242,
            52.357628
          ],
          [
            4.864268,
            52.357643
          ],
          [
            4.864273,
            52.357666
          ],
          [
            4.864261,
            52.357689
          ],
          [
            4.86426,
            52.357712
          ],
          [
            4.864268,
            52.357731
          ],
          [
            4.864262,
            52.357761
          ],
          [
            4.864274,
            52.35778
          ],
          [
            4.864311,
            52.357796
          ],
          [
            4.864358,
            52.357807
          ],
          [
            4.864404,
            52.357811
          ],
          [
            4.864462,
            52.357807
          ],
          [
            4.864518,
            52.357796
          ],
          [
            4.864583,
            52.357773
          ],
          [
            4.864649,
            52.357758
          ],
          [
            4.864716,
            52.357742
          ],
          [
            4.864788,
            52.357723
          ],
          [
            4.864864,
            52.357708
          ],
          [
            4.864948,
            52.357697
          ],
          [
            4.865031,
            52.357681
          ],
          [
            4.865117,
            52.357674
          ],
          [
            4.865234,
            52.357666
          ],
          [
            4.865324,
            52.357666
          ],
          [
            4.865447,
            52.357674
          ],
          [
            4.865518,
            52.357681
          ],
          [
            4.865652,
            52.357697
          ],
          [
            4.865752,
            52.357708
          ],
          [
            4.865849,
            52.357727
          ],
          [
            4.865942,
            52.35775
          ],
          [
            4.866026,
            52.357777
          ],
          [
            4.866113,
            52.357807
          ],
          [
            4.86619,
            52.357834
          ],
          [
            4.866256,
            52.357861
          ],
          [
            4.866339,
            52.357899
          ],
          [
            4.8664,
            52.357929
          ],
          [
            4.866463,
            52.357964
          ],
          [
            4.866529,
            52.357994
          ],
          [
            4.866588,
            52.358017
          ],
          [
            4.866653,
            52.358047
          ],
          [
            4.866715,
            52.35807
          ],
          [
            4.866779,
            52.358089
          ],
          [
            4.866826,
            52.358112
          ],
          [
            4.866843,
            52.358139
          ],
          [
            4.866836,
            52.35817
          ],
          [
            4.866802,
            52.358208
          ],
          [
            4.866755,
            52.35825
          ],
          [
            4.866698,
            52.358288
          ],
          [
            4.866639,
            52.358322
          ],
          [
            4.866569,
            52.358356
          ],
          [
            4.866509,
            52.358387
          ],
          [
            4.866447,
            52.358421
          ],
          [
            4.866381,
            52.358463
          ],
          [
            4.866323,
            52.358505
          ],
          [
            4.866265,
            52.358551
          ],
          [
            4.866201,
            52.358601
          ],
          [
            4.866128,
            52.358639
          ],
          [
            4.866049,
            52.358677
          ],
          [
            4.865972,
            52.358707
          ],
          [
            4.865891,
            52.35873
          ],
          [
            4.865808,
            52.358753
          ],
          [
            4.865725,
            52.35878
          ],
          [
            4.865647,
            52.35881
          ],
          [
            4.865582,
            52.358852
          ],
          [
            4.865536,
            52.358891
          ],
          [
            4.86551,
            52.358932
          ],
          [
            4.865496,
            52.358982
          ],
          [
            4.865471,
            52.359024
          ],
          [
            4.86544,
            52.359058
          ],
          [
            4.865396,
            52.359089
          ],
          [
            4.865351,
            52.359138
          ],
          [
            4.865305,
            52.359184
          ],
          [
            4.865262,
            52.35923
          ],
          [
            4.865226,
            52.359283
          ],
          [
            4.865199,
            52.359337
          ],
          [
            4.865164,
            52.35939
          ],
          [
            4.865123,
            52.359444
          ],
          [
            4.865096,
            52.359493
          ],
          [
            4.865072,
            52.359535
          ],
          [
            4.865045,
            52.359573
          ],
          [
            4.865007,
            52.359623
          ],
          [
            4.86499,
            52.359669
          ],
          [
            4.864956,
            52.359699
          ],
          [
            4.864939,
            52.359737
          ],
          [
            4.864906,
            52.359787
          ],
          [
            4.864884,
            52.359825
          ],
          [
            4.864856,
            52.359859
          ],
          [
            4.864835,
            52.359894
          ],
          [
            4.864814,
            52.359921
          ],
          [
            4.8648,
            52.359943
          ],
          [
            4.8648,
            52.359943
          ],
          [
            4.864762,
            52.359997
          ],
          [
            4.864765,
            52.360004
          ],
          [
            4.864772,
            52.360016
          ],
          [
            4.864811,
            52.360024
          ],
          [
            4.864853,
            52.360035
          ],
          [
            4.864903,
            52.360046
          ],
          [
            4.864961,
            52.360058
          ],
          [
            4.865021,
            52.360073
          ],
          [
            4.865088,
            52.360088
          ],
          [
            4.865151,
            52.3601
          ],
          [
            4.865225,
            52.360111
          ],
          [
            4.865298,
            52.360126
          ],
          [
            4.865372,
            52.360138
          ],
          [
            4.865455,
            52.360153
          ],
          [
            4.865534,
            52.360168
          ],
          [
            4.86561,
            52.360188
          ],
          [
            4.865688,
            52.360207
          ],
          [
            4.865765,
            52.360222
          ],
          [
            4.865858,
            52.360245
          ],
          [
            4.865946,
            52.360268
          ],
          [
            4.866035,
            52.360287
          ],
          [
            4.866092,
            52.360302
          ],
          [
            4.866204,
            52.360329
          ],
          [
            4.866294,
            52.360348
          ],
          [
            4.866389,
            52.360371
          ],
          [
            4.866446,
            52.360382
          ],
          [
            4.866559,
            52.360409
          ],
          [
            4.866643,
            52.360432
          ],
          [
            4.866724,
            52.360451
          ],
          [
            4.866808,
            52.36047
          ],
          [
            4.866901,
            52.360493
          ],
          [
            4.866993,
            52.360516
          ],
          [
            4.867085,
            52.360539
          ],
          [
            4.867177,
            52.360558
          ],
          [
            4.867251,
            52.360573
          ],
          [
            4.867357,
            52.3606
          ],
          [
            4.867454,
            52.360622
          ],
          [
            4.867544,
            52.360645
          ],
          [
            4.867614,
            52.360661
          ],
          [
            4.867721,
            52.360687
          ],
          [
            4.86781,
            52.360706
          ],
          [
            4.867896,
            52.360729
          ],
          [
            4.867966,
            52.360748
          ],
          [
            4.868071,
            52.360775
          ],
          [
            4.86817,
            52.360794
          ],
          [
            4.868264,
            52.360817
          ],
          [
            4.868358,
            52.36084
          ],
          [
            4.868405,
            52.360851
          ],
          [
            4.86853,
            52.360882
          ],
          [
            4.868636,
            52.360908
          ],
          [
            4.868733,
            52.360935
          ],
          [
            4.868816,
            52.360958
          ],
          [
            4.86892,
            52.360985
          ],
          [
            4.869009,
            52.361008
          ],
          [
            4.869104,
            52.361034
          ],
          [
            4.869199,
            52.361061
          ],
          [
            4.869287,
            52.361084
          ],
          [
            4.869389,
            52.361115
          ],
          [
            4.869482,
            52.361141
          ],
          [
            4.869566,
            52.361164
          ],
          [
            4.869661,
            52.361191
          ],
          [
            4.869738,
            52.361214
          ],
          [
            4.869848,
            52.36124
          ],
          [
            4.869945,
            52.361267
          ],
          [
            4.870037,
            52.36129
          ],
          [
            4.870118,
            52.361313
          ],
          [
            4.870167,
            52.361324
          ],
          [
            4.870293,
            52.361355
          ],
          [
            4.870398,
            52.361385
          ],
          [
            4.870497,
            52.361416
          ],
          [
            4.870591,
            52.361439
          ],
          [
            4.870644,
            52.361454
          ],
          [
            4.870763,
            52.361484
          ],
          [
            4.870865,
            52.361511
          ],
          [
            4.87096,
            52.361534
          ],
          [
            4.871052,
            52.361557
          ],
          [
            4.871149,
            52.361584
          ],
          [
            4.871239,
            52.361607
          ],
          [
            4.871323,
            52.361626
          ],
          [
            4.871416,
            52.361652
          ],
          [
            4.871506,
            52.361675
          ],
          [
            4.871605,
            52.361702
          ],
          [
            4.871697,
            52.361729
          ],
          [
            4.871789,
            52.361755
          ],
          [
            4.87188,
            52.361778
          ],
          [
            4.871959,
            52.361797
          ],
          [
            4.872059,
            52.361824
          ],
          [
            4.872154,
            52.361847
          ],
          [
            4.872246,
            52.36187
          ],
          [
            4.872335,
            52.361893
          ],
          [
            4.872426,
            52.361919
          ],
          [
            4.872511,
            52.361942
          ],
          [
            4.872599,
            52.361965
          ],
          [
            4.872687,
            52.361988
          ],
          [
            4.872777,
            52.362015
          ],
          [
            4.872862,
            52.362034
          ],
          [
            4.872922,
            52.362049
          ],
          [
            4.873026,
            52.362072
          ],
          [
            4.873106,
            52.362095
          ],
          [
            4.873185,
            52.362114
          ],
          [
            4.87326,
            52.362133
          ],
          [
            4.873327,
            52.362148
          ],
          [
            4.873392,
            52.362167
          ],
          [
            4.873452,
            52.362179
          ],
          [
            4.873515,
            52.362198
          ],
          [
            4.873576,
            52.362213
          ],
          [
            4.873638,
            52.362225
          ],
          [
            4.873706,
            52.362244
          ],
          [
            4.873742,
            52.362251
          ],
          [
            4.873841,
            52.362274
          ],
          [
            4.873919,
            52.362293
          ],
          [
            4.87395,
            52.362301
          ],
          [
            4.874066,
            52.362328
          ],
          [
            4.874153,
            52.362347
          ],
          [
            4.874232,
            52.362366
          ],
          [
            4.874316,
            52.362385
          ],
          [
            4.874402,
            52.362404
          ],
          [
            4.874479,
            52.362427
          ],
          [
            4.87456,
            52.36245
          ],
          [
            4.874639,
            52.362469
          ],
          [
            4.874725,
            52.362492
          ],
          [
            4.874806,
            52.362514
          ],
          [
            4.874883,
            52.362537
          ],
          [
            4.874966,
            52.36256
          ],
          [
            4.875041,
            52.362583
          ],
          [
            4.875111,
            52.362602
          ],
          [
            4.875187,
            52.362621
          ],
          [
            4.87526,
            52.36264
          ],
          [
            4.875326,
            52.362656
          ],
          [
            4.875392,
            52.362675
          ],
          [
            4.875448,
            52.36269
          ],
          [
            4.875517,
            52.362709
          ],
          [
            4.875582,
            52.362724
          ],
          [
            4.87565,
            52.362743
          ],
          [
            4.875713,
            52.362759
          ],
          [
            4.875779,
            52.362774
          ],
          [
            4.875833,
            52.362789
          ],
          [
            4.875899,
            52.362808
          ],
          [
            4.875969,
            52.362827
          ],
          [
            4.876036,
            52.362843
          ],
          [
            4.876104,
            52.362862
          ],
          [
            4.876163,
            52.362877
          ],
          [
            4.876235,
            52.362896
          ],
          [
            4.8763,
            52.362919
          ],
          [
            4.876366,
            52.362938
          ],
          [
            4.876421,
            52.362953
          ],
          [
            4.876484,
            52.362972
          ],
          [
            4.876552,
            52.362995
          ],
          [
            4.876615,
            52.36301
          ],
          [
            4.87668,
            52.363029
          ],
          [
            4.876738,
            52.363049
          ],
          [
            4.876799,
            52.363064
          ],
          [
            4.876854,
            52.363083
          ],
          [
            4.876906,
            52.363102
          ],
          [
            4.876965,
            52.363121
          ],
          [
            4.877026,
            52.36314
          ],
          [
            4.877082,
            52.363159
          ],
          [
            4.877142,
            52.363178
          ],
          [
            4.8772,
            52.363201
          ],
          [
            4.877262,
            52.36322
          ],
          [
            4.877323,
            52.363239
          ],
          [
            4.877387,
            52.363258
          ],
          [
            4.877443,
            52.363274
          ],
          [
            4.877512,
            52.363293
          ],
          [
            4.877583,
            52.363316
          ],
          [
            4.877643,
            52.363331
          ],
          [
            4.877715,
            52.363354
          ],
          [
            4.877781,
            52.363373
          ],
          [
            4.877839,
            52.363388
          ],
          [
            4.877904,
            52.363407
          ],
          [
            4.877961,
            52.363426
          ],
          [
            4.878024,
            52.363445
          ],
          [
            4.878072,
            52.363461
          ],
          [
            4.878109,
            52.36348
          ],
          [
            4.878153,
            52.363499
          ],
          [
            4.878194,
            52.363514
          ],
          [
            4.878239,
            52.363537
          ],
          [
            4.878286,
            52.36356
          ],
          [
            4.878342,
            52.363583
          ],
          [
            4.878398,
            52.363598
          ],
          [
            4.878459,
            52.363617
          ],
          [
            4.878517,
            52.363628
          ],
          [
            4.878581,
            52.363632
          ],
          [
            4.878642,
            52.36364
          ],
          [
            4.878707,
            52.36364
          ],
          [
            4.878768,
            52.363632
          ],
          [
            4.878829,
            52.363621
          ],
          [
            4.878885,
            52.363602
          ],
          [
            4.87894,
            52.363583
          ],
          [
            4.878983,
            52.363564
          ],
          [
            4.879038,
            52.363533
          ],
          [
            4.879087,
            52.363506
          ],
          [
            4.879133,
            52.36348
          ],
          [
            4.87917,
            52.363457
          ],
          [
            4.879206,
            52.36343
          ],
          [
            4.879242,
            52.3634
          ],
          [
            4.879272,
            52.363369
          ],
          [
            4.879302,
            52.363342
          ],
          [
            4.879336,
            52.363308
          ],
          [
            4.879368,
            52.363281
          ],
          [
            4.879405,
            52.363251
          ],
          [
            4.879437,
            52.363224
          ],
          [
            4.879475,
            52.363193
          ],
          [
            4.87951,
            52.363163
          ],
          [
            4.879552,
            52.363125
          ],
          [
            4.879589,
            52.363098
          ],
          [
            4.879619,
            52.363068
          ],
          [
            4.879657,
            52.363037
          ],
          [
            4.879697,
            52.36301
          ],
          [
            4.879742,
            52.362976
          ],
          [
            4.879784,
            52.362946
          ],
          [
            4.879832,
            52.362911
          ],
          [
            4.879878,
            52.362881
          ],
          [
            4.879916,
            52.362854
          ],
          [
            4.879967,
            52.362824
          ],
          [
            4.880019,
            52.362793
          ],
          [
            4.880053,
            52.36277
          ],
          [
            4.880091,
            52.362751
          ],
          [
            4.880125,
            52.362724
          ],
          [
            4.880125,
            52.362724
          ],
          [
            4.8802,
            52.362678
          ],
          [
            4.8802,
            52.362678
          ],
          [
            4.8802,
            52.362678
          ],
          [
            4.8802,
            52.362678
          ],
          [
            4.8802,
            52.362678
          ],
          [
            4.880303,
            52.362663
          ],
          [
            4.880304,
            52.362659
          ],
          [
            4.88031,
            52.362671
          ],
          [
            4.880329,
            52.362675
          ],
          [
            4.88035,
            52.362682
          ],
          [
            4.880382,
            52.362694
          ],
          [
            4.880417,
            52.362705
          ],
          [
            4.880461,
            52.362724
          ],
          [
            4.880496,
            52.362736
          ],
          [
            4.880538,
            52.362743
          ],
          [
            4.880589,
            52.362751
          ],
          [
            4.880636,
            52.362759
          ],
          [
            4.880678,
            52.362762
          ],
          [
            4.880745,
            52.36277
          ],
          [
            4.880801,
            52.362774
          ],
          [
            4.880849,
            52.362778
          ],
          [
            4.880902,
            52.362782
          ],
          [
            4.880955,
            52.362785
          ],
          [
            4.881003,
            52.362797
          ],
          [
            4.881037,
            52.362804
          ],
          [
            4.881066,
            52.36282
          ],
          [
            4.881091,
            52.362835
          ],
          [
            4.881112,
            52.362854
          ],
          [
            4.881119,
            52.362885
          ],
          [
            4.881127,
            52.362915
          ],
          [
            4.881133,
            52.362957
          ],
          [
            4.881143,
            52.362991
          ],
          [
            4.881158,
            52.363033
          ],
          [
            4.881182,
            52.363071
          ],
          [
            4.881218,
            52.36311
          ],
          [
            4.881257,
            52.36314
          ],
          [
            4.881299,
            52.363167
          ],
          [
            4.881342,
            52.36319
          ],
          [
            4.88139,
            52.363216
          ],
          [
            4.881437,
            52.363239
          ],
          [
            4.881489,
            52.363266
          ],
          [
            4.881542,
            52.363289
          ],
          [
            4.881601,
            52.363316
          ],
          [
            4.88165,
            52.363342
          ],
          [
            4.881706,
            52.363369
          ],
          [
            4.881773,
            52.363403
          ],
          [
            4.881832,
            52.363434
          ],
          [
            4.881901,
            52.363464
          ],
          [
            4.88196,
            52.363491
          ],
          [
            4.882011,
            52.363518
          ],
          [
            4.882073,
            52.363548
          ],
          [
            4.882131,
            52.363575
          ],
          [
            4.882189,
            52.363602
          ],
          [
            4.882243,
            52.363628
          ],
          [
            4.8823,
            52.363651
          ],
          [
            4.882356,
            52.36367
          ],
          [
            4.882413,
            52.363686
          ],
          [
            4.882474,
            52.363689
          ],
          [
            4.882525,
            52.363693
          ],
          [
            4.882584,
            52.363686
          ],
          [
            4.88264,
            52.363674
          ],
          [
            4.882698,
            52.363663
          ],
          [
            4.882744,
            52.363644
          ],
          [
            4.882793,
            52.363625
          ],
          [
            4.882838,
            52.363606
          ],
          [
            4.88288,
            52.36359
          ],
          [
            4.882917,
            52.363579
          ],
          [
            4.882945,
            52.363575
          ],
          [
            4.88298,
            52.363583
          ],
          [
            4.882998,
            52.363594
          ],
          [
            4.883007,
            52.363606
          ],
          [
            4.88299,
            52.363632
          ],
          [
            4.882959,
            52.363659
          ],
          [
            4.882933,
            52.363682
          ],
          [
            4.88289,
            52.363708
          ],
          [
            4.882847,
            52.363728
          ],
          [
            4.882791,
            52.363747
          ],
          [
            4.88273,
            52.363758
          ],
          [
            4.88266,
            52.36377
          ],
          [
            4.882588,
            52.363781
          ],
          [
            4.882516,
            52.363792
          ],
          [
            4.882435,
            52.3638
          ],
          [
            4.882382,
            52.363804
          ],
          [
            4.882277,
            52.363819
          ],
          [
            4.882198,
            52.363831
          ],
          [
            4.882126,
            52.363846
          ],
          [
            4.882047,
            52.363865
          ],
          [
            4.881978,
            52.363888
          ],
          [
            4.881903,
            52.363922
          ],
          [
            4.88184,
            52.363956
          ],
          [
            4.881777,
            52.363995
          ],
          [
            4.881718,
            52.364037
          ],
          [
            4.881661,
            52.364082
          ],
          [
            4.88159,
            52.364136
          ],
          [
            4.881522,
            52.364185
          ],
          [
            4.881453,
            52.364235
          ],
          [
            4.88138,
            52.364281
          ],
          [
            4.881303,
            52.364326
          ],
          [
            4.88124,
            52.364365
          ],
          [
            4.881168,
            52.364407
          ],
          [
            4.881095,
            52.364449
          ],
          [
            4.881024,
            52.364494
          ],
          [
            4.880951,
            52.36454
          ],
          [
            4.880883,
            52.364586
          ],
          [
            4.880816,
            52.364628
          ],
          [
            4.880758,
            52.36467
          ],
          [
            4.880693,
            52.364716
          ],
          [
            4.880627,
            52.364765
          ],
          [
            4.880572,
            52.364811
          ],
          [
            4.880519,
            52.364861
          ],
          [
            4.880475,
            52.364906
          ],
          [
            4.880442,
            52.364956
          ],
          [
            4.880398,
            52.364998
          ],
          [
            4.880364,
            52.365051
          ],
          [
            4.880345,
            52.365101
          ],
          [
            4.880318,
            52.365147
          ],
          [
            4.880288,
            52.365196
          ],
          [
            4.880262,
            52.365253
          ],
          [
            4.880245,
            52.365295
          ],
          [
            4.880245,
            52.365337
          ],
          [
            4.88026,
            52.365376
          ],
          [
            4.880306,
            52.36541
          ],
          [
            4.880364,
            52.365444
          ],
          [
            4.880431,
            52.365475
          ],
          [
            4.880513,
            52.365505
          ],
          [
            4.880595,
            52.365536
          ],
          [
            4.880677,
            52.365562
          ],
          [
            4.880757,
            52.365585
          ],
          [
            4.880839,
            52.365612
          ],
          [
            4.880924,
            52.365639
          ],
          [
            4.881004,
            52.365665
          ],
          [
            4.881057,
            52.365681
          ],
          [
            4.881123,
            52.365704
          ],
          [
            4.881264,
            52.365749
          ],
          [
            4.881363,
            52.365784
          ],
          [
            4.881463,
            52.365818
          ],
          [
            4.881555,
            52.365852
          ],
          [
            4.881637,
            52.365883
          ],
          [
            4.881732,
            52.365917
          ],
          [
            4.881821,
            52.365952
          ],
          [
            4.881905,
            52.365986
          ],
          [
            4.881991,
            52.366013
          ],
          [
            4.882085,
            52.366043
          ],
          [
            4.882163,
            52.36607
          ],
          [
            4.882239,
            52.366093
          ],
          [
            4.882316,
            52.366119
          ],
          [
            4.882371,
            52.366138
          ],
          [
            4.882427,
            52.366161
          ],
          [
            4.882488,
            52.366184
          ],
          [
            4.88255,
            52.366211
          ],
          [
            4.882613,
            52.366238
          ],
          [
            4.88267,
            52.366261
          ],
          [
            4.882726,
            52.366283
          ],
          [
            4.882789,
            52.36631
          ],
          [
            4.882823,
            52.366325
          ],
          [
            4.882931,
            52.36636
          ],
          [
            4.883019,
            52.366386
          ],
          [
            4.883111,
            52.366417
          ],
          [
            4.883199,
            52.366447
          ],
          [
            4.883219,
            52.366451
          ],
          [
            4.883379,
            52.366512
          ],
          [
            4.883372,
            52.366505
          ],
          [
            4.883401,
            52.366516
          ],
          [
            4.88345,
            52.366535
          ],
          [
            4.883522,
            52.366562
          ],
          [
            4.883602,
            52.366592
          ],
          [
            4.883691,
            52.366623
          ],
          [
            4.88377,
            52.366653
          ],
          [
            4.883962,
            52.366714
          ],
          [
            4.884117,
            52.366772
          ],
          [
            4.884214,
            52.366806
          ],
          [
            4.884299,
            52.366833
          ],
          [
            4.88438,
            52.366859
          ],
          [
            4.884449,
            52.366882
          ],
          [
            4.884521,
            52.366909
          ],
          [
            4.884593,
            52.366936
          ],
          [
            4.884653,
            52.366959
          ],
          [
            4.884722,
            52.366985
          ],
          [
            4.884789,
            52.367008
          ],
          [
            4.884858,
            52.367031
          ],
          [
            4.884928,
            52.367058
          ],
          [
            4.884994,
            52.367081
          ],
          [
            4.885068,
            52.367104
          ],
          [
            4.885141,
            52.36713
          ],
          [
            4.885219,
            52.367157
          ],
          [
            4.885276,
            52.367176
          ],
          [
            4.885379,
            52.36721
          ],
          [
            4.885468,
            52.367241
          ],
          [
            4.885549,
            52.367271
          ],
          [
            4.885638,
            52.367302
          ],
          [
            4.885728,
            52.367332
          ],
          [
            4.885817,
            52.367363
          ],
          [
            4.885902,
            52.367393
          ],
          [
            4.885988,
            52.367428
          ],
          [
            4.886071,
            52.367455
          ],
          [
            4.886154,
            52.367481
          ],
          [
            4.886222,
            52.367504
          ],
          [
            4.886277,
            52.367535
          ],
          [
            4.886328,
            52.367565
          ],
          [
            4.886373,
            52.3676
          ],
          [
            4.886391,
            52.367638
          ],
          [
            4.886407,
            52.36768
          ],
          [
            4.886423,
            52.367729
          ],
          [
            4.886433,
            52.367783
          ],
          [
            4.886441,
            52.367836
          ],
          [
            4.886451,
            52.367901
          ],
          [
            4.886459,
            52.367962
          ],
          [
            4.886463,
            52.368023
          ],
          [
            4.886471,
            52.368088
          ],
          [
            4.886466,
            52.368153
          ],
          [
            4.886478,
            52.368206
          ],
          [
            4.886474,
            52.368267
          ],
          [
            4.886478,
            52.368332
          ],
          [
            4.886479,
            52.368389
          ],
          [
            4.886491,
            52.36845
          ],
          [
            4.88649,
            52.368507
          ],
          [
            4.886502,
            52.368565
          ],
          [
            4.886519,
            52.368626
          ],
          [
            4.886535,
            52.368679
          ],
          [
            4.886569,
            52.368721
          ],
          [
            4.886609,
            52.368748
          ],
          [
            4.886657,
            52.368767
          ],
          [
            4.886705,
            52.368778
          ],
          [
            4.88676,
            52.368782
          ],
          [
            4.88681,
            52.368782
          ],
          [
            4.886865,
            52.368786
          ],
          [
            4.88692,
            52.368782
          ],
          [
            4.886973,
            52.368782
          ],
          [
            4.887032,
            52.368782
          ],
          [
            4.887079,
            52.368778
          ],
          [
            4.88713,
            52.368778
          ],
          [
            4.887184,
            52.368778
          ],
          [
            4.887234,
            52.368778
          ],
          [
            4.887284,
            52.368778
          ],
          [
            4.887344,
            52.368774
          ],
          [
            4.887405,
            52.368774
          ],
          [
            4.887471,
            52.368774
          ],
          [
            4.887536,
            52.368774
          ],
          [
            4.887602,
            52.368774
          ],
          [
            4.887665,
            52.368771
          ],
          [
            4.887729,
            52.368771
          ],
          [
            4.887788,
            52.368774
          ],
          [
            4.887851,
            52.368778
          ],
          [
            4.887916,
            52.368782
          ],
          [
            4.887966,
            52.36879
          ],
          [
            4.888012,
            52.368805
          ],
          [
            4.88805,
            52.368824
          ],
          [
            4.888085,
            52.368851
          ],
          [
            4.888112,
            52.368877
          ],
          [
            4.888134,
            52.368919
          ],
          [
            4.888146,
            52.368965
          ],
          [
            4.88816,
            52.369007
          ],
          [
            4.888176,
            52.369053
          ],
          [
            4.888183,
            52.369106
          ],
          [
            4.888197,
            52.36916
          ],
          [
            4.888212,
            52.369221
          ],
          [
            4.888221,
            52.369274
          ],
          [
            4.888229,
            52.369331
          ],
          [
            4.88824,
            52.369381
          ],
          [
            4.888249,
            52.369431
          ],
          [
            4.888265,
            52.36948
          ],
          [
            4.888272,
            52.369541
          ],
          [
            4.888282,
            52.369602
          ],
          [
            4.888294,
            52.369656
          ],
          [
            4.888306,
            52.369713
          ],
          [
            4.888325,
            52.369762
          ],
          [
            4.888335,
            52.369812
          ],
          [
            4.888352,
            52.369862
          ],
          [
            4.888364,
            52.369919
          ],
          [
            4.888376,
            52.369976
          ],
          [
            4.888384,
            52.370029
          ],
          [
            4.888399,
            52.370071
          ],
          [
            4.888402,
            52.370121
          ],
          [
            4.888408,
            52.370174
          ],
          [
            4.88841,
            52.370216
          ],
          [
            4.888422,
            52.370266
          ],
          [
            4.888434,
            52.370331
          ],
          [
            4.888449,
            52.370396
          ],
          [
            4.888466,
            52.370468
          ],
          [
            4.88847,
            52.37051
          ],
          [
            4.888488,
            52.370583
          ],
          [
            4.888503,
            52.370678
          ],
          [
            4.888518,
            52.370758
          ],
          [
            4.888531,
            52.370831
          ],
          [
            4.888547,
            52.370903
          ],
          [
            4.888555,
            52.370968
          ],
          [
            4.888575,
            52.37104
          ],
          [
            4.888583,
            52.371105
          ],
          [
            4.888594,
            52.371159
          ],
          [
            4.888604,
            52.37122
          ],
          [
            4.888617,
            52.371304
          ],
          [
            4.888631,
            52.371368
          ],
          [
            4.888644,
            52.371433
          ],
          [
            4.888659,
            52.371502
          ],
          [
            4.888671,
            52.371559
          ],
          [
            4.888684,
            52.371616
          ],
          [
            4.888695,
            52.371666
          ],
          [
            4.888706,
            52.371716
          ],
          [
            4.888722,
            52.371777
          ],
          [
            4.888729,
            52.371807
          ],
          [
            4.88874,
            52.371864
          ],
          [
            4.888755,
            52.371914
          ],
          [
            4.888764,
            52.371963
          ],
          [
            4.888773,
            52.372002
          ],
          [
            4.88879,
            52.372051
          ],
          [
            4.888806,
            52.372093
          ],
          [
            4.888834,
            52.372131
          ],
          [
            4.888863,
            52.372158
          ],
          [
            4.888928,
            52.372185
          ],
          [
            4.888957,
            52.3722
          ],
          [
            4.889052,
            52.372215
          ],
          [
            4.889125,
            52.372231
          ],
          [
            4.889204,
            52.372238
          ],
          [
            4.889277,
            52.37225
          ],
          [
            4.88933,
            52.372257
          ],
          [
            4.889377,
            52.372269
          ],
          [
            4.889377,
            52.372269
          ],
          [
            4.889453,
            52.372284
          ],
          [
            4.889481,
            52.372288
          ],
          [
            4.889502,
            52.372292
          ],
          [
            4.889519,
            52.372299
          ],
          [
            4.889569,
            52.372311
          ],
          [
            4.889614,
            52.372314
          ],
          [
            4.889664,
            52.37233
          ],
          [
            4.889713,
            52.372341
          ],
          [
            4.88977,
            52.372356
          ],
          [
            4.889826,
            52.372372
          ],
          [
            4.889888,
            52.372387
          ],
          [
            4.889945,
            52.372402
          ],
          [
            4.890002,
            52.372417
          ],
          [
            4.890069,
            52.372444
          ],
          [
            4.890135,
            52.372463
          ],
          [
            4.8902,
            52.37249
          ],
          [
            4.890257,
            52.372505
          ],
          [
            4.890315,
            52.372524
          ],
          [
            4.890365,
            52.37254
          ],
          [
            4.890418,
            52.372555
          ],
          [
            4.890464,
            52.37257
          ],
          [
            4.890521,
            52.372581
          ],
          [
            4.890569,
            52.372589
          ],
          [
            4.890614,
            52.372597
          ],
          [
            4.890675,
            52.372608
          ],
          [
            4.890724,
            52.37262
          ],
          [
            4.890781,
            52.372627
          ],
          [
            4.890842,
            52.372639
          ],
          [
            4.890907,
            52.372646
          ],
          [
            4.890972,
            52.372658
          ],
          [
            4.891041,
            52.372665
          ],
          [
            4.891101,
            52.372673
          ],
          [
            4.891175,
            52.372684
          ],
          [
            4.891244,
            52.372692
          ],
          [
            4.891306,
            52.3727
          ],
          [
            4.891384,
            52.372707
          ],
          [
            4.891457,
            52.372711
          ],
          [
            4.891527,
            52.372719
          ],
          [
            4.891592,
            52.372723
          ],
          [
            4.891657,
            52.37273
          ],
          [
            4.89172,
            52.372734
          ],
          [
            4.89178,
            52.372738
          ],
          [
            4.891832,
            52.372749
          ],
          [
            4.891881,
            52.372757
          ],
          [
            4.891927,
            52.372768
          ],
          [
            4.891971,
            52.372787
          ],
          [
            4.892007,
            52.372814
          ],
          [
            4.892044,
            52.372845
          ],
          [
            4.892066,
            52.372871
          ],
          [
            4.892083,
            52.372898
          ],
          [
            4.892091,
            52.372932
          ],
          [
            4.89209,
            52.372963
          ],
          [
            4.892082,
            52.372997
          ],
          [
            4.892079,
            52.373032
          ],
          [
            4.892078,
            52.373077
          ],
          [
            4.892078,
            52.373108
          ],
          [
            4.89208,
            52.373146
          ],
          [
            4.892087,
            52.373177
          ],
          [
            4.892098,
            52.373215
          ],
          [
            4.89211,
            52.373253
          ],
          [
            4.892117,
            52.373283
          ],
          [
            4.892123,
            52.373318
          ],
          [
            4.892135,
            52.373348
          ],
          [
            4.892144,
            52.373379
          ],
          [
            4.892166,
            52.373405
          ],
          [
            4.892191,
            52.373425
          ],
          [
            4.892222,
            52.373436
          ],
          [
            4.892255,
            52.37344
          ],
          [
            4.892277,
            52.373436
          ],
          [
            4.892277,
            52.373436
          ],
          [
            4.892294,
            52.373405
          ],
          [
            4.892294,
            52.373405
          ],
          [
            4.892285,
            52.373371
          ],
          [
            4.892285,
            52.373371
          ],
          [
            4.892305,
            52.373352
          ],
          [
            4.892305,
            52.373352
          ],
          [
            4.892355,
            52.373375
          ],
          [
            4.892372,
            52.373386
          ],
          [
            4.892387,
            52.373402
          ],
          [
            4.892399,
            52.373417
          ],
          [
            4.892406,
            52.37344
          ],
          [
            4.892402,
            52.373463
          ],
          [
            4.892391,
            52.373497
          ],
          [
            4.892364,
            52.373524
          ],
          [
            4.892329,
            52.373554
          ],
          [
            4.89229,
            52.373573
          ],
          [
            4.892261,
            52.3736
          ],
          [
            4.892235,
            52.373623
          ],
          [
            4.892221,
            52.373653
          ],
          [
            4.892222,
            52.37368
          ],
          [
            4.892244,
            52.373703
          ],
          [
            4.892272,
            52.37373
          ],
          [
            4.892306,
            52.373749
          ],
          [
            4.892343,
            52.373768
          ],
          [
            4.892381,
            52.373783
          ],
          [
            4.892417,
            52.373806
          ],
          [
            4.892443,
            52.373825
          ],
          [
            4.892432,
            52.373848
          ],
          [
            4.892438,
            52.373875
          ],
          [
            4.892448,
            52.373905
          ],
          [
            4.892463,
            52.373932
          ],
          [
            4.892487,
            52.373966
          ],
          [
            4.892499,
            52.373997
          ],
          [
            4.8925,
            52.374027
          ],
          [
            4.892474,
            52.374077
          ],
          [
            4.892501,
            52.374111
          ],
          [
            4.8925,
            52.374142
          ],
          [
            4.892509,
            52.374157
          ],
          [
            4.892492,
            52.374184
          ],
          [
            4.892474,
            52.374203
          ],
          [
            4.892467,
            52.37421
          ],
          [
            4.892471,
            52.374226
          ],
          [
            4.892474,
            52.374218
          ],
          [
            4.892485,
            52.374233
          ],
          [
            4.892548,
            52.374252
          ],
          [
            4.892582,
            52.374264
          ],
          [
            4.892607,
            52.374268
          ],
          [
            4.892628,
            52.374271
          ],
          [
            4.892658,
            52.374275
          ],
          [
            4.892658,
            52.374275
          ],
          [
            4.892732,
            52.374287
          ],
          [
            4.892749,
            52.374294
          ],
          [
            4.892763,
            52.374294
          ],
          [
            4.89278,
            52.374294
          ],
          [
            4.892804,
            52.374298
          ],
          [
            4.892835,
            52.374302
          ],
          [
            4.892863,
            52.374306
          ],
          [
            4.892897,
            52.37431
          ],
          [
            4.89293,
            52.374313
          ],
          [
            4.892958,
            52.374313
          ],
          [
            4.892998,
            52.37431
          ],
          [
            4.89304,
            52.37429
          ],
          [
            4.893073,
            52.374283
          ],
          [
            4.893094,
            52.374279
          ],
          [
            4.893125,
            52.374275
          ],
          [
            4.893153,
            52.374271
          ],
          [
            4.893153,
            52.374271
          ],
          [
            4.893233,
            52.374268
          ],
          [
            4.893252,
            52.374275
          ],
          [
            4.89327,
            52.374271
          ],
          [
            4.893289,
            52.374268
          ],
          [
            4.893302,
            52.374275
          ],
          [
            4.893314,
            52.374279
          ],
          [
            4.89338,
            52.37426
          ],
          [
            4.893425,
            52.374245
          ],
          [
            4.89347,
            52.374233
          ],
          [
            4.893508,
            52.374226
          ],
          [
            4.893537,
            52.374222
          ],
          [
            4.893568,
            52.374207
          ],
          [
            4.893605,
            52.374203
          ],
          [
            4.893635,
            52.374199
          ],
          [
            4.893662,
            52.374195
          ],
          [
            4.893686,
            52.374191
          ],
          [
            4.893717,
            52.374187
          ],
          [
            4.893753,
            52.374184
          ],
          [
            4.893783,
            52.37418
          ],
          [
            4.893805,
            52.374168
          ],
          [
            4.893831,
            52.374172
          ],
          [
            4.89385,
            52.374168
          ],
          [
            4.89385,
            52.374168
          ],
          [
            4.893904,
            52.374168
          ],
          [
            4.89393,
            52.374168
          ],
          [
            4.893955,
            52.374168
          ],
          [
            4.893981,
            52.374172
          ],
          [
            4.894009,
            52.374172
          ],
          [
            4.894009,
            52.374172
          ],
          [
            4.894086,
            52.374149
          ],
          [
            4.894112,
            52.374146
          ],
          [
            4.894102,
            52.374149
          ],
          [
            4.894098,
            52.374153
          ],
          [
            4.894098,
            52.374153
          ],
          [
            4.894098,
            52.374153
          ],
          [
            4.894098,
            52.374153
          ],
          [
            4.894098,
            52.374153
          ],
          [
            4.894098,
            52.374153
          ],
          [
            4.894098,
            52.374153
          ],
          [
            4.894262,
            52.374096
          ],
          [
            4.894273,
            52.3741
          ],
          [
            4.894288,
            52.374107
          ],
          [
            4.894306,
            52.374119
          ],
          [
            4.894326,
            52.374134
          ],
          [
            4.89435,
            52.374149
          ],
          [
            4.894379,
            52.374165
          ],
          [
            4.894403,
            52.374184
          ],
          [
            4.894431,
            52.374199
          ],
          [
            4.894455,
            52.374218
          ],
          [
            4.894474,
            52.374229
          ],
          [
            4.894501,
            52.374252
          ],
          [
            4.894522,
            52.374275
          ],
          [
            4.894537,
            52.37429
          ],
          [
            4.894563,
            52.374317
          ],
          [
            4.894583,
            52.37434
          ],
          [
            4.894602,
            52.374363
          ],
          [
            4.894611,
            52.374382
          ],
          [
            4.894611,
            52.374382
          ],
          [
            4.894646,
            52.374428
          ],
          [
            4.894653,
            52.374435
          ],
          [
            4.894666,
            52.374439
          ],
          [
            4.89469,
            52.374451
          ],
          [
            4.894713,
            52.374466
          ],
          [
            4.894749,
            52.374485
          ],
          [
            4.894784,
            52.374512
          ],
          [
            4.894816,
            52.374538
          ],
          [
            4.894845,
            52.374565
          ],
          [
            4.894874,
            52.374588
          ],
          [
            4.894902,
            52.374619
          ],
          [
            4.894935,
            52.374645
          ],
          [
            4.894956,
            52.374664
          ],
          [
            4.894979,
            52.374691
          ],
          [
            4.894979,
            52.374691
          ],
          [
            4.894979,
            52.374691
          ],
          [
            4.894979,
            52.374691
          ],
          [
            4.895007,
            52.374744
          ],
          [
            4.895007,
            52.374744
          ],
          [
            4.895007,
            52.374744
          ],
          [
            4.895007,
            52.374744
          ],
          [
            4.895001,
            52.374767
          ],
          [
            4.895007,
            52.374767
          ],
          [
            4.89501,
            52.374775
          ],
          [
            4.895018,
            52.374783
          ],
          [
            4.895018,
            52.374783
          ],
          [
            4.895059,
            52.374809
          ],
          [
            4.895059,
            52.374809
          ],
          [
            4.89508,
            52.374832
          ],
          [
            4.89508,
            52.374832
          ],
          [
            4.895111,
            52.374847
          ],
          [
            4.895111,
            52.374847
          ],
          [
            4.895136,
            52.374859
          ],
          [
            4.895136,
            52.374859
          ],
          [
            4.895136,
            52.374859
          ],
          [
            4.895156,
            52.374897
          ],
          [
            4.895156,
            52.374897
          ],
          [
            4.895173,
            52.374908
          ],
          [
            4.895173,
            52.374908
          ],
          [
            4.895185,
            52.374912
          ],
          [
            4.895185,
            52.374912
          ],
          [
            4.895185,
            52.374912
          ],
          [
            4.895185,
            52.374912
          ],
          [
            4.895264,
            52.374893
          ],
          [
            4.895264,
            52.374893
          ],
          [
            4.895277,
            52.374897
          ],
          [
            4.895288,
            52.374897
          ],
          [
            4.895299,
            52.374901
          ],
          [
            4.895319,
            52.374901
          ],
          [
            4.895342,
            52.374912
          ],
          [
            4.895371,
            52.374924
          ],
          [
            4.895398,
            52.374931
          ],
          [
            4.895431,
            52.374947
          ],
          [
            4.895472,
            52.374966
          ],
          [
            4.895515,
            52.374989
          ],
          [
            4.895565,
            52.375011
          ],
          [
            4.895613,
            52.375034
          ],
          [
            4.895665,
            52.375057
          ],
          [
            4.895714,
            52.375084
          ],
          [
            4.895755,
            52.375111
          ],
          [
            4.89581,
            52.375145
          ],
          [
            4.895854,
            52.375175
          ],
          [
            4.895905,
            52.375214
          ],
          [
            4.895949,
            52.375248
          ],
          [
            4.896001,
            52.375286
          ],
          [
            4.896047,
            52.375328
          ],
          [
            4.896096,
            52.375366
          ],
          [
            4.896141,
            52.375397
          ],
          [
            4.896189,
            52.375435
          ],
          [
            4.896234,
            52.375469
          ],
          [
            4.896276,
            52.375504
          ],
          [
            4.89631,
            52.375534
          ],
          [
            4.896344,
            52.375565
          ],
          [
            4.896373,
            52.375587
          ],
          [
            4.896387,
            52.37561
          ],
          [
            4.896393,
            52.375633
          ],
          [
            4.896387,
            52.375652
          ],
          [
            4.896377,
            52.375668
          ],
          [
            4.896361,
            52.375679
          ],
          [
            4.896352,
            52.375687
          ],
          [
            4.896352,
            52.375687
          ],
          [
            4.896352,
            52.375687
          ],
          [
            4.89632,
            52.375721
          ],
          [
            4.896315,
            52.375725
          ],
          [
            4.896315,
            52.375725
          ],
          [
            4.896317,
            52.375736
          ],
          [
            4.896316,
            52.375748
          ],
          [
            4.896316,
            52.375748
          ],
          [
            4.896317,
            52.375767
          ],
          [
            4.896317,
            52.375767
          ],
          [
            4.896294,
            52.375793
          ]
        ]
      }
    }
  ]
}