{
  "type": "FeatureCollection",
  "features": [
    {
      "type": "Feature",
      "properties": {
        "id": "amsterdam-ride-22b50b80-59e1-11f1-8ad1-a40dbc8fa83a",
        "title": "Amsterdam ride",
        "source": "Amsterdam ride-22b50b80-59e1-11f1-8ad1-a40dbc8fa83a.fit"
      },
      "geometry": {
        "type": "LineString",
        "coordinates": [
          [
            4.788426,
            52.35004
          ],
          [
            4.788426,
            52.35004
          ],
          [
            4.788426,
            52.35004
          ],
          [
            4.788416,
            52.350033
          ],
          [
            4.788416,
            52.350033
          ],
          [
            4.788416,
            52.350033
          ],
          [
            4.788368,
            52.350006
          ],
          [
            4.788368,
            52.350006
          ],
          [
            4.788312,
            52.350014
          ],
          [
            4.788296,
            52.350006
          ],
          [
            4.788283,
            52.350002
          ],
          [
            4.788259,
            52.349995
          ],
          [
            4.788224,
            52.349991
          ],
          [
            4.788199,
            52.349979
          ],
          [
            4.788162,
            52.349976
          ],
          [
            4.788133,
            52.349972
          ],
          [
            4.788086,
            52.349964
          ],
          [
            4.788043,
            52.349957
          ],
          [
            4.788006,
            52.349953
          ],
          [
            4.787982,
            52.349949
          ],
          [
            4.787935,
            52.349945
          ],
          [
            4.787909,
            52.349937
          ],
          [
            4.787843,
            52.349922
          ],
          [
            4.787802,
            52.349915
          ],
          [
            4.787774,
            52.349918
          ],
          [
            4.787755,
            52.349918
          ],
          [
            4.787739,
            52.34993
          ],
          [
            4.787728,
            52.349941
          ],
          [
            4.787728,
            52.349941
          ],
          [
            4.787728,
            52.349941
          ],
          [
            4.787728,
            52.349941
          ],
          [
            4.787728,
            52.349941
          ],
          [
            4.787791,
            52.350056
          ],
          [
            4.78779,
            52.350056
          ],
          [
            4.78779,
            52.350056
          ],
          [
            4.787774,
            52.350052
          ],
          [
            4.78777,
            52.35004
          ],
          [
            4.787767,
            52.350037
          ],
          [
            4.787761,
            52.350033
          ],
          [
            4.787763,
            52.350018
          ],
          [
            4.787765,
            52.349991
          ],
          [
            4.787765,
            52.349991
          ],
          [
            4.787765,
            52.349991
          ],
          [
            4.787765,
            52.349991
          ],
          [
            4.787782,
            52.349888
          ],
          [
            4.787782,
            52.349888
          ],
          [
            4.787789,
            52.349873
          ],
          [
            4.787796,
            52.349869
          ],
          [
            4.787794,
            52.349861
          ],
          [
            4.787794,
            52.349861
          ],
          [
            4.787803,
            52.349827
          ],
          [
            4.78781,
            52.349812
          ],
          [
            4.787812,
            52.349808
          ],
          [
            4.787812,
            52.349808
          ],
          [
            4.787812,
            52.349808
          ],
          [
            4.787812,
            52.349808
          ],
          [
            4.787837,
            52.349781
          ],
          [
            4.787837,
            52.349781
          ],
          [
            4.787863,
            52.349758
          ],
          [
            4.787863,
            52.349758
          ],
          [
            4.787863,
            52.349758
          ],
          [
            4.787863,
            52.349758
          ],
          [
            4.78787,
            52.349754
          ],
          [
            4.787879,
            52.349743
          ],
          [
            4.787883,
            52.349731
          ],
          [
            4.787889,
            52.349712
          ],
          [
            4.7879,
            52.349682
          ],
          [
            4.787909,
            52.349659
          ],
          [
            4.787918,
            52.349632
          ],
          [
            4.787924,
            52.349598
          ],
          [
            4.78794,
            52.349564
          ],
          [
            4.787964,
            52.349552
          ],
          [
            4.788009,
            52.349545
          ],
          [
            4.788063,
            52.349545
          ],
          [
            4.788123,
            52.349552
          ],
          [
            4.788191,
            52.349564
          ],
          [
            4.78826,
            52.349583
          ],
          [
            4.788332,
            52.349602
          ],
          [
            4.788402,
            52.349613
          ],
          [
            4.788482,
            52.349628
          ],
          [
            4.788562,
            52.349644
          ],
          [
            4.788629,
            52.349659
          ],
          [
            4.788733,
            52.349678
          ],
          [
            4.78883,
            52.349697
          ],
          [
            4.788932,
            52.349716
          ],
          [
            4.789001,
            52.349735
          ],
          [
            4.789102,
            52.349758
          ],
          [
            4.789187,
            52.34977
          ],
          [
            4.789259,
            52.349785
          ],
          [
            4.789317,
            52.349796
          ],
          [
            4.789362,
            52.349808
          ],
          [
            4.789362,
            52.349808
          ],
          [
            4.789362,
            52.349808
          ],
          [
            4.789414,
            52.349819
          ],
          [
            4.789414,
            52.349819
          ],
          [
            4.789453,
            52.349834
          ],
          [
            4.789487,
            52.349842
          ],
          [
            4.789537,
            52.349846
          ],
          [
            4.789599,
            52.349857
          ],
          [
            4.789676,
            52.349873
          ],
          [
            4.789754,
            52.349888
          ],
          [
            4.789833,
            52.349903
          ],
          [
            4.789936,
            52.349926
          ],
          [
            4.790034,
            52.349945
          ],
          [
            4.790132,
            52.349964
          ],
          [
            4.790222,
            52.349983
          ],
          [
            4.790327,
            52.350002
          ],
          [
            4.790418,
            52.350021
          ],
          [
            4.790516,
            52.35004
          ],
          [
            4.790616,
            52.35006
          ],
          [
            4.790698,
            52.350075
          ],
          [
            4.79081,
            52.350101
          ],
          [
            4.790902,
            52.350124
          ],
          [
            4.791001,
            52.35014
          ],
          [
            4.791099,
            52.350159
          ],
          [
            4.791184,
            52.350174
          ],
          [
            4.791288,
            52.350193
          ],
          [
            4.791378,
            52.350212
          ],
          [
            4.791461,
            52.350231
          ],
          [
            4.791548,
            52.35025
          ],
          [
            4.791631,
            52.350269
          ],
          [
            4.791705,
            52.350288
          ],
          [
            4.791787,
            52.350307
          ],
          [
            4.791869,
            52.350323
          ],
          [
            4.791971,
            52.350342
          ],
          [
            4.792067,
            52.350357
          ],
          [
            4.792172,
            52.350372
          ],
          [
            4.792233,
            52.35038
          ],
          [
            4.792389,
            52.350395
          ],
          [
            4.792482,
            52.350407
          ],
          [
            4.792593,
            52.350426
          ],
          [
            4.792692,
            52.350441
          ],
          [
            4.792781,
            52.35046
          ],
          [
            4.792851,
            52.350475
          ],
          [
            4.79298,
            52.350506
          ],
          [
            4.793072,
            52.350521
          ],
          [
            4.793163,
            52.350536
          ],
          [
            4.793262,
            52.350559
          ],
          [
            4.793363,
            52.350578
          ],
          [
            4.793453,
            52.350594
          ],
          [
            4.793545,
            52.350613
          ],
          [
            4.793599,
            52.350624
          ],
          [
            4.793724,
            52.350651
          ],
          [
            4.793807,
            52.350666
          ],
          [
            4.79389,
            52.350674
          ],
          [
            4.793966,
            52.350681
          ],
          [
            4.794031,
            52.350689
          ],
          [
            4.794081,
            52.3507
          ],
          [
            4.794126,
            52.350716
          ],
          [
            4.794184,
            52.350742
          ],
          [
            4.794253,
            52.350769
          ],
          [
            4.794331,
            52.350788
          ],
          [
            4.794415,
            52.350811
          ],
          [
            4.794505,
            52.35083
          ],
          [
            4.794598,
            52.350849
          ],
          [
            4.794665,
            52.350864
          ],
          [
            4.794764,
            52.35088
          ],
          [
            4.794858,
            52.350895
          ],
          [
            4.794947,
            52.350914
          ],
          [
            4.794992,
            52.350922
          ],
          [
            4.795054,
            52.350933
          ],
          [
            4.795128,
            52.350948
          ],
          [
            4.795177,
            52.350956
          ],
          [
            4.795244,
            52.350971
          ],
          [
            4.795349,
            52.35099
          ],
          [
            4.79541,
            52.351006
          ],
          [
            4.795594,
            52.351036
          ],
          [
            4.795725,
            52.351059
          ],
          [
            4.795848,
            52.351082
          ],
          [
            4.795965,
            52.351105
          ],
          [
            4.796071,
            52.351128
          ],
          [
            4.796104,
            52.351135
          ],
          [
            4.79621,
            52.351154
          ],
          [
            4.796313,
            52.351173
          ],
          [
            4.796377,
            52.351185
          ],
          [
            4.796433,
            52.351196
          ],
          [
            4.796443,
            52.351196
          ],
          [
            4.79656,
            52.351223
          ],
          [
            4.796657,
            52.351238
          ],
          [
            4.796754,
            52.351261
          ],
          [
            4.796876,
            52.351288
          ],
          [
            4.796965,
            52.351307
          ],
          [
            4.797122,
            52.351341
          ],
          [
            4.797268,
            52.351372
          ],
          [
            4.797398,
            52.351395
          ],
          [
            4.797505,
            52.351421
          ],
          [
            4.797587,
            52.351437
          ],
          [
            4.797673,
            52.351456
          ],
          [
            4.797752,
            52.351471
          ],
          [
            4.797825,
            52.351482
          ],
          [
            4.79786,
            52.35149
          ],
          [
            4.797951,
            52.351513
          ],
          [
            4.798038,
            52.351528
          ],
          [
            4.798124,
            52.351547
          ],
          [
            4.798188,
            52.351563
          ],
          [
            4.798245,
            52.351574
          ],
          [
            4.79839,
            52.351604
          ],
          [
            4.798513,
            52.351635
          ],
          [
            4.798641,
            52.351662
          ],
          [
            4.798713,
            52.351677
          ],
          [
            4.798872,
            52.351719
          ],
          [
            4.799017,
            52.351753
          ],
          [
            4.799154,
            52.351791
          ],
          [
            4.799287,
            52.351818
          ],
          [
            4.79941,
            52.351845
          ],
          [
            4.799501,
            52.351868
          ],
          [
            4.799628,
            52.351898
          ],
          [
            4.799721,
            52.351925
          ],
          [
            4.799806,
            52.35194
          ],
          [
            4.799862,
            52.351955
          ],
          [
            4.799955,
            52.351974
          ],
          [
            4.800002,
            52.351982
          ],
          [
            4.80004,
            52.351986
          ],
          [
            4.800091,
            52.351994
          ],
          [
            4.800153,
            52.352005
          ],
          [
            4.800225,
            52.352013
          ],
          [
            4.800301,
            52.352024
          ],
          [
            4.800343,
            52.352035
          ],
          [
            4.800463,
            52.352058
          ],
          [
            4.800545,
            52.352081
          ],
          [
            4.800632,
            52.352097
          ],
          [
            4.800726,
            52.352116
          ],
          [
            4.800815,
            52.352139
          ],
          [
            4.800909,
            52.352154
          ],
          [
            4.801,
            52.352169
          ],
          [
            4.801096,
            52.352196
          ],
          [
            4.801189,
            52.352211
          ],
          [
            4.801288,
            52.352226
          ],
          [
            4.801382,
            52.352242
          ],
          [
            4.801474,
            52.352261
          ],
          [
            4.801562,
            52.35228
          ],
          [
            4.801651,
            52.352295
          ],
          [
            4.801736,
            52.352314
          ],
          [
            4.80182,
            52.352333
          ],
          [
            4.801902,
            52.352352
          ],
          [
            4.801985,
            52.352371
          ],
          [
            4.802047,
            52.352386
          ],
          [
            4.802151,
            52.352406
          ],
          [
            4.802233,
            52.352421
          ],
          [
            4.80232,
            52.352432
          ],
          [
            4.802411,
            52.352451
          ],
          [
            4.802501,
            52.352467
          ],
          [
            4.802594,
            52.352482
          ],
          [
            4.802675,
            52.352505
          ],
          [
            4.802794,
            52.35252
          ],
          [
            4.802891,
            52.352543
          ],
          [
            4.802972,
            52.352558
          ],
          [
            4.803101,
            52.352581
          ],
          [
            4.803177,
            52.352592
          ],
          [
            4.803312,
            52.352615
          ],
          [
            4.80337,
            52.352627
          ],
          [
            4.803518,
            52.352661
          ],
          [
            4.803611,
            52.352695
          ],
          [
            4.803711,
            52.352718
          ],
          [
            4.803807,
            52.352741
          ],
          [
            4.803902,
            52.35276
          ],
          [
            4.803979,
            52.352776
          ],
          [
            4.804097,
            52.352802
          ],
          [
            4.804194,
            52.352821
          ],
          [
            4.804286,
            52.35284
          ],
          [
            4.80439,
            52.352856
          ],
          [
            4.804477,
            52.352875
          ],
          [
            4.804583,
            52.352894
          ],
          [
            4.804679,
            52.352917
          ],
          [
            4.804775,
            52.352936
          ],
          [
            4.804873,
            52.352951
          ],
          [
            4.804966,
            52.352978
          ],
          [
            4.805067,
            52.352993
          ],
          [
            4.805162,
            52.353012
          ],
          [
            4.805251,
            52.353035
          ],
          [
            4.805347,
            52.353054
          ],
          [
            4.805428,
            52.353073
          ],
          [
            4.805542,
            52.353092
          ],
          [
            4.805642,
            52.353111
          ],
          [
            4.805738,
            52.353127
          ],
          [
            4.805831,
            52.353146
          ],
          [
            4.805926,
            52.353168
          ],
          [
            4.806024,
            52.353191
          ],
          [
            4.806118,
            52.35321
          ],
          [
            4.806216,
            52.353226
          ],
          [
            4.806311,
            52.353241
          ],
          [
            4.806387,
            52.353268
          ],
          [
            4.806509,
            52.353291
          ],
          [
            4.806606,
            52.35331
          ],
          [
            4.806699,
            52.353329
          ],
          [
            4.806791,
            52.353344
          ],
          [
            4.806885,
            52.353363
          ],
          [
            4.806974,
            52.353382
          ],
          [
            4.807074,
            52.353405
          ],
          [
            4.807171,
            52.353424
          ],
          [
            4.807247,
            52.353439
          ],
          [
            4.807369,
            52.353462
          ],
          [
            4.807461,
            52.353481
          ],
          [
            4.807556,
            52.3535
          ],
          [
            4.807652,
            52.353523
          ],
          [
            4.807743,
            52.35355
          ],
          [
            4.807839,
            52.353577
          ],
          [
            4.80793,
            52.353603
          ],
          [
            4.808023,
            52.353622
          ],
          [
            4.808114,
            52.353645
          ],
          [
            4.808196,
            52.353664
          ],
          [
            4.808307,
            52.353695
          ],
          [
            4.808403,
            52.353718
          ],
          [
            4.808501,
            52.353737
          ],
          [
            4.808596,
            52.353756
          ],
          [
            4.808679,
            52.353767
          ],
          [
            4.808785,
            52.353786
          ],
          [
            4.808871,
            52.353806
          ],
          [
            4.808922,
            52.353813
          ],
          [
            4.809051,
            52.353836
          ],
          [
            4.809129,
            52.353851
          ],
          [
            4.809197,
            52.353867
          ],
          [
            4.809255,
            52.353878
          ],
          [
            4.809306,
            52.353882
          ],
          [
            4.809344,
            52.353893
          ],
          [
            4.809356,
            52.353897
          ],
          [
            4.809356,
            52.353897
          ],
          [
            4.809356,
            52.353897
          ],
          [
            4.809356,
            52.353897
          ],
          [
            4.809356,
            52.353897
          ],
          [
            4.809356,
            52.353897
          ],
          [
            4.809443,
            52.353889
          ],
          [
            4.809479,
            52.353897
          ],
          [
            4.809526,
            52.353909
          ],
          [
            4.809581,
            52.353924
          ],
          [
            4.809649,
            52.353935
          ],
          [
            4.809732,
            52.353951
          ],
          [
            4.809786,
            52.353962
          ],
          [
            4.809894,
            52.353985
          ],
          [
            4.809978,
            52.354004
          ],
          [
            4.810064,
            52.354023
          ],
          [
            4.810154,
            52.354046
          ],
          [
            4.810242,
            52.354069
          ],
          [
            4.810335,
            52.354084
          ],
          [
            4.810426,
            52.354107
          ],
          [
            4.810517,
            52.35413
          ],
          [
            4.810606,
            52.354149
          ],
          [
            4.810703,
            52.354172
          ],
          [
            4.810794,
            52.354191
          ],
          [
            4.810858,
            52.354202
          ],
          [
            4.810988,
            52.354233
          ],
          [
            4.811088,
            52.354256
          ],
          [
            4.811184,
            52.354279
          ],
          [
            4.811281,
            52.354294
          ],
          [
            4.811357,
            52.354309
          ],
          [
            4.811475,
            52.354336
          ],
          [
            4.811571,
            52.354362
          ],
          [
            4.811662,
            52.354389
          ],
          [
            4.811753,
            52.354416
          ],
          [
            4.811837,
            52.354435
          ],
          [
            4.811949,
            52.354458
          ],
          [
            4.812048,
            52.354477
          ],
          [
            4.81214,
            52.354492
          ],
          [
            4.812238,
            52.354507
          ],
          [
            4.812331,
            52.35453
          ],
          [
            4.812428,
            52.354546
          ],
          [
            4.812518,
            52.354569
          ],
          [
            4.812613,
            52.354588
          ],
          [
            4.812702,
            52.354607
          ],
          [
            4.812802,
            52.35463
          ],
          [
            4.812897,
            52.354645
          ],
          [
            4.812996,
            52.354668
          ],
          [
            4.813071,
            52.354687
          ],
          [
            4.813184,
            52.354706
          ],
          [
            4.813276,
            52.354725
          ],
          [
            4.813388,
            52.354744
          ],
          [
            4.813486,
            52.354763
          ],
          [
            4.813581,
            52.354786
          ],
          [
            4.813675,
            52.354801
          ],
          [
            4.813752,
            52.354824
          ],
          [
            4.813868,
            52.354847
          ],
          [
            4.813968,
            52.354866
          ],
          [
            4.814064,
            52.354881
          ],
          [
            4.814158,
            52.354904
          ],
          [
            4.814239,
            52.354919
          ],
          [
            4.814349,
            52.354942
          ],
          [
            4.814447,
            52.354965
          ],
          [
            4.814547,
            52.354984
          ],
          [
            4.814643,
            52.355003
          ],
          [
            4.814715,
            52.355015
          ],
          [
            4.814828,
            52.355038
          ],
          [
            4.81493,
            52.355057
          ],
          [
            4.815016,
            52.355076
          ],
          [
            4.815094,
            52.355091
          ],
          [
            4.815202,
            52.355114
          ],
          [
            4.815306,
            52.355141
          ],
          [
            4.815396,
            52.355156
          ],
          [
            4.815508,
            52.355179
          ],
          [
            4.81559,
            52.355194
          ],
          [
            4.815702,
            52.355217
          ],
          [
            4.815791,
            52.355232
          ],
          [
            4.815868,
            52.355248
          ],
          [
            4.815965,
            52.35527
          ],
          [
            4.816029,
            52.355286
          ],
          [
            4.816132,
            52.355305
          ],
          [
            4.816231,
            52.355324
          ],
          [
            4.816323,
            52.355343
          ],
          [
            4.816436,
            52.355362
          ],
          [
            4.816548,
            52.355385
          ],
          [
            4.816659,
            52.355408
          ],
          [
            4.816746,
            52.355427
          ],
          [
            4.816844,
            52.355446
          ],
          [
            4.816948,
            52.355469
          ],
          [
            4.817038,
            52.355492
          ],
          [
            4.817145,
            52.355507
          ],
          [
            4.817243,
            52.355526
          ],
          [
            4.817337,
            52.355549
          ],
          [
            4.817431,
            52.355564
          ],
          [
            4.817517,
            52.355583
          ],
          [
            4.817623,
            52.355602
          ],
          [
            4.817718,
            52.355617
          ],
          [
            4.817813,
            52.355633
          ],
          [
            4.817904,
            52.355652
          ],
          [
            4.817996,
            52.355671
          ],
          [
            4.818087,
            52.355686
          ],
          [
            4.818178,
            52.355701
          ],
          [
            4.818264,
            52.355717
          ],
          [
            4.818347,
            52.355732
          ],
          [
            4.818425,
            52.355747
          ],
          [
            4.818498,
            52.355763
          ],
          [
            4.818576,
            52.355778
          ],
          [
            4.818648,
            52.355789
          ],
          [
            4.818728,
            52.355801
          ],
          [
            4.818802,
            52.355812
          ],
          [
            4.818878,
            52.355824
          ],
          [
            4.818946,
            52.355831
          ],
          [
            4.819002,
            52.355824
          ],
          [
            4.819045,
            52.355808
          ],
          [
            4.819055,
            52.35577
          ],
          [
            4.819059,
            52.355732
          ],
          [
            4.819046,
            52.355686
          ],
          [
            4.819037,
            52.35564
          ],
          [
            4.819035,
            52.355595
          ],
          [
            4.81904,
            52.355545
          ],
          [
            4.819031,
            52.355492
          ],
          [
            4.819028,
            52.355438
          ],
          [
            4.81903,
            52.355377
          ],
          [
            4.819036,
            52.35532
          ],
          [
            4.819038,
            52.355255
          ],
          [
            4.81904,
            52.355194
          ],
          [
            4.819051,
            52.355133
          ],
          [
            4.819077,
            52.355072
          ],
          [
            4.819107,
            52.355011
          ],
          [
            4.819139,
            52.354954
          ],
          [
            4.819173,
            52.354893
          ],
          [
            4.819205,
            52.354836
          ],
          [
            4.819233,
            52.354774
          ],
          [
            4.819271,
            52.354717
          ],
          [
            4.819298,
            52.354664
          ],
          [
            4.819327,
            52.354603
          ],
          [
            4.819358,
            52.354542
          ],
          [
            4.819396,
            52.354481
          ],
          [
            4.819428,
            52.35442
          ],
          [
            4.819458,
            52.354359
          ],
          [
            4.819487,
            52.354305
          ],
          [
            4.819516,
            52.354244
          ],
          [
            4.819551,
            52.354183
          ],
          [
            4.819583,
            52.354126
          ],
          [
            4.819622,
            52.354069
          ],
          [
            4.819654,
            52.354008
          ],
          [
            4.819684,
            52.353951
          ],
          [
            4.819716,
            52.353893
          ],
          [
            4.819749,
            52.353828
          ],
          [
            4.819784,
            52.353771
          ],
          [
            4.819814,
            52.353714
          ],
          [
            4.819842,
            52.353653
          ],
          [
            4.819872,
            52.353588
          ],
          [
            4.819899,
            52.353527
          ],
          [
            4.819927,
            52.35347
          ],
          [
            4.819961,
            52.353409
          ],
          [
            4.819991,
            52.353348
          ],
          [
            4.820018,
            52.353287
          ],
          [
            4.820057,
            52.353226
          ],
          [
            4.820091,
            52.353172
          ],
          [
            4.820128,
            52.353111
          ],
          [
            4.820163,
            52.35305
          ],
          [
            4.820193,
            52.352993
          ],
          [
            4.820225,
            52.352932
          ],
          [
            4.820249,
            52.352882
          ],
          [
            4.820285,
            52.352829
          ],
          [
            4.820313,
            52.352768
          ],
          [
            4.820343,
            52.352711
          ],
          [
            4.820374,
            52.35265
          ],
          [
            4.820406,
            52.352596
          ],
          [
            4.820441,
            52.352535
          ],
          [
            4.820481,
            52.352478
          ],
          [
            4.820517,
            52.352417
          ],
          [
            4.820559,
            52.352364
          ],
          [
            4.820604,
            52.352314
          ],
          [
            4.820652,
            52.352257
          ],
          [
            4.820704,
            52.352196
          ],
          [
            4.820755,
            52.352139
          ],
          [
            4.820801,
            52.352089
          ],
          [
            4.820834,
            52.352035
          ],
          [
            4.820859,
            52.351982
          ],
          [
            4.820866,
            52.351921
          ],
          [
            4.82086,
            52.351868
          ],
          [
            4.820857,
            52.351814
          ],
          [
            4.820858,
            52.351761
          ],
          [
            4.82086,
            52.351707
          ],
          [
            4.820861,
            52.351646
          ],
          [
            4.82086,
            52.351585
          ],
          [
            4.820856,
            52.351532
          ],
          [
            4.820843,
            52.351482
          ],
          [
            4.82084,
            52.351452
          ],
          [
            4.82084,
            52.351452
          ],
          [
            4.82084,
            52.351452
          ],
          [
            4.82084,
            52.351452
          ],
          [
            4.820842,
            52.351418
          ],
          [
            4.820842,
            52.351418
          ],
          [
            4.82084,
            52.351383
          ],
          [
            4.820837,
            52.351372
          ],
          [
            4.820838,
            52.351364
          ],
          [
            4.820838,
            52.351364
          ],
          [
            4.820838,
            52.351364
          ],
          [
            4.820838,
            52.351364
          ],
          [
            4.820838,
            52.351364
          ],
          [
            4.820837,
            52.351334
          ],
          [
            4.820837,
            52.351322
          ],
          [
            4.820836,
            52.351318
          ],
          [
            4.82084,
            52.351307
          ],
          [
            4.820856,
            52.351292
          ],
          [
            4.820889,
            52.35128
          ],
          [
            4.820928,
            52.351276
          ],
          [
            4.820989,
            52.351276
          ],
          [
            4.821053,
            52.351276
          ],
          [
            4.821127,
            52.351276
          ],
          [
            4.8212,
            52.351276
          ],
          [
            4.821275,
            52.351276
          ],
          [
            4.821331,
            52.351276
          ],
          [
            4.821457,
            52.35128
          ],
          [
            4.821553,
            52.35128
          ],
          [
            4.82167,
            52.35128
          ],
          [
            4.821736,
            52.351284
          ],
          [
            4.821883,
            52.351284
          ],
          [
            4.821995,
            52.351284
          ],
          [
            4.822096,
            52.351284
          ],
          [
            4.822199,
            52.351284
          ],
          [
            4.822247,
            52.351284
          ],
          [
            4.822418,
            52.351288
          ],
          [
            4.822506,
            52.351288
          ],
          [
            4.822514,
            52.351288
          ],
          [
            4.822668,
            52.351292
          ],
          [
            4.822772,
            52.351292
          ],
          [
            4.822862,
            52.351292
          ],
          [
            4.822962,
            52.351292
          ],
          [
            4.823038,
            52.351292
          ],
          [
            4.823174,
            52.351292
          ],
          [
            4.823222,
            52.351292
          ],
          [
            4.823384,
            52.351292
          ],
          [
            4.823472,
            52.351292
          ],
          [
            4.823572,
            52.351292
          ],
          [
            4.823652,
            52.351292
          ],
          [
            4.823721,
            52.351295
          ],
          [
            4.823883,
            52.351299
          ],
          [
            4.824023,
            52.351295
          ],
          [
            4.824165,
            52.351295
          ],
          [
            4.824299,
            52.351299
          ],
          [
            4.824387,
            52.351303
          ],
          [
            4.824518,
            52.351303
          ],
          [
            4.824621,
            52.351299
          ],
          [
            4.824621,
            52.351295
          ],
          [
            4.824661,
            52.351292
          ],
          [
            4.824721,
            52.351288
          ],
          [
            4.824817,
            52.351276
          ],
          [
            4.82487,
            52.351269
          ],
          [
            4.82498,
            52.351261
          ],
          [
            4.825081,
            52.351261
          ],
          [
            4.825106,
            52.351257
          ],
          [
            4.825254,
            52.351254
          ],
          [
            4.825372,
            52.35125
          ],
          [
            4.82548,
            52.351246
          ],
          [
            4.825572,
            52.351242
          ],
          [
            4.825645,
            52.351242
          ],
          [
            4.825704,
            52.351242
          ],
          [
            4.825854,
            52.351242
          ],
          [
            4.825974,
            52.351242
          ],
          [
            4.82603,
            52.351242
          ],
          [
            4.826105,
            52.351242
          ],
          [
            4.826264,
            52.351242
          ],
          [
            4.82635,
            52.351242
          ],
          [
            4.826477,
            52.351242
          ],
          [
            4.826574,
            52.351246
          ],
          [
            4.826658,
            52.35125
          ],
          [
            4.826732,
            52.35125
          ],
          [
            4.826799,
            52.351254
          ],
          [
            4.826858,
            52.351257
          ],
          [
            4.826905,
            52.351261
          ],
          [
            4.826941,
            52.351261
          ],
          [
            4.826969,
            52.351261
          ],
          [
            4.827064,
            52.351257
          ],
          [
            4.82711,
            52.351254
          ],
          [
            4.82711,
            52.351254
          ],
          [
            4.82711,
            52.351254
          ],
          [
            4.827195,
            52.35125
          ],
          [
            4.827209,
            52.35125
          ],
          [
            4.827209,
            52.35125
          ],
          [
            4.827251,
            52.351238
          ],
          [
            4.827276,
            52.351238
          ],
          [
            4.827292,
            52.351234
          ],
          [
            4.82731,
            52.351231
          ],
          [
            4.827333,
            52.351231
          ],
          [
            4.827352,
            52.351227
          ],
          [
            4.827423,
            52.351227
          ],
          [
            4.827478,
            52.351227
          ],
          [
            4.827535,
            52.351231
          ],
          [
            4.827597,
            52.351234
          ],
          [
            4.827677,
            52.35125
          ],
          [
            4.827757,
            52.351265
          ],
          [
            4.827835,
            52.351276
          ],
          [
            4.827899,
            52.351284
          ],
          [
            4.82792,
            52.351288
          ],
          [
            4.828056,
            52.351295
          ],
          [
            4.82811,
            52.351295
          ],
          [
            4.828235,
            52.351295
          ],
          [
            4.82831,
            52.351292
          ],
          [
            4.828439,
            52.351299
          ],
          [
            4.828519,
            52.351295
          ],
          [
            4.828641,
            52.351299
          ],
          [
            4.828753,
            52.351303
          ],
          [
            4.828866,
            52.351311
          ],
          [
            4.828935,
            52.351315
          ],
          [
            4.829061,
            52.351322
          ],
          [
            4.829163,
            52.35133
          ],
          [
            4.829213,
            52.35133
          ],
          [
            4.829318,
            52.35133
          ],
          [
            4.829408,
            52.351334
          ],
          [
            4.829469,
            52.351337
          ],
          [
            4.82959,
            52.351337
          ],
          [
            4.829684,
            52.351341
          ],
          [
            4.829731,
            52.351341
          ],
          [
            4.829817,
            52.351337
          ],
          [
            4.829899,
            52.351341
          ],
          [
            4.829913,
            52.351337
          ],
          [
            4.830053,
            52.351334
          ],
          [
            4.830151,
            52.351334
          ],
          [
            4.830196,
            52.351334
          ],
          [
            4.830335,
            52.351337
          ],
          [
            4.830416,
            52.351337
          ],
          [
            4.830548,
            52.351341
          ],
          [
            4.83058,
            52.351341
          ],
          [
            4.830674,
            52.351341
          ],
          [
            4.830857,
            52.351345
          ],
          [
            4.830903,
            52.351345
          ],
          [
            4.831038,
            52.351341
          ],
          [
            4.831183,
            52.351337
          ],
          [
            4.831307,
            52.351341
          ],
          [
            4.831388,
            52.351341
          ],
          [
            4.831534,
            52.351345
          ],
          [
            4.831576,
            52.351345
          ],
          [
            4.831777,
            52.351349
          ],
          [
            4.831881,
            52.351353
          ],
          [
            4.832006,
            52.351353
          ],
          [
            4.832099,
            52.351356
          ],
          [
            4.832251,
            52.351379
          ],
          [
            4.832373,
            52.351383
          ],
          [
            4.832473,
            52.351387
          ],
          [
            4.832571,
            52.351391
          ],
          [
            4.832647,
            52.351387
          ],
          [
            4.832776,
            52.351383
          ],
          [
            4.83288,
            52.351391
          ],
          [
            4.832981,
            52.351391
          ],
          [
            4.83304,
            52.351387
          ],
          [
            4.833143,
            52.351387
          ],
          [
            4.833214,
            52.351387
          ],
          [
            4.833364,
            52.351387
          ],
          [
            4.833474,
            52.351391
          ],
          [
            4.833582,
            52.351387
          ],
          [
            4.833681,
            52.351391
          ],
          [
            4.833754,
            52.351391
          ],
          [
            4.833877,
            52.351395
          ],
          [
            4.834006,
            52.351395
          ],
          [
            4.834097,
            52.351395
          ],
          [
            4.834177,
            52.351425
          ],
          [
            4.834268,
            52.351421
          ],
          [
            4.834312,
            52.351418
          ],
          [
            4.834477,
            52.35141
          ],
          [
            4.834494,
            52.35141
          ],
          [
            4.834648,
            52.35141
          ],
          [
            4.8348,
            52.351418
          ],
          [
            4.834938,
            52.351425
          ],
          [
            4.835042,
            52.351429
          ],
          [
            4.835145,
            52.351433
          ],
          [
            4.835243,
            52.351437
          ],
          [
            4.835334,
            52.351437
          ],
          [
            4.835449,
            52.35144
          ],
          [
            4.835548,
            52.35144
          ],
          [
            4.835643,
            52.35144
          ],
          [
            4.835733,
            52.351452
          ],
          [
            4.8358,
            52.351452
          ],
          [
            4.835942,
            52.351456
          ],
          [
            4.836044,
            52.351456
          ],
          [
            4.836143,
            52.351467
          ],
          [
            4.83622,
            52.351459
          ],
          [
            4.836303,
            52.351459
          ],
          [
            4.836446,
            52.351456
          ],
          [
            4.836575,
            52.351452
          ],
          [
            4.836675,
            52.351452
          ],
          [
            4.836779,
            52.351448
          ],
          [
            4.836853,
            52.351448
          ],
          [
            4.836984,
            52.351444
          ],
          [
            4.837082,
            52.351444
          ],
          [
            4.837161,
            52.35144
          ],
          [
            4.837251,
            52.35144
          ],
          [
            4.837312,
            52.351437
          ],
          [
            4.83741,
            52.351437
          ],
          [
            4.837565,
            52.351452
          ],
          [
            4.837669,
            52.351456
          ],
          [
            4.837765,
            52.351459
          ],
          [
            4.837867,
            52.351463
          ],
          [
            4.837975,
            52.351459
          ],
          [
            4.838073,
            52.351459
          ],
          [
            4.83816,
            52.351471
          ],
          [
            4.838267,
            52.351475
          ],
          [
            4.83836,
            52.351479
          ],
          [
            4.838496,
            52.351479
          ],
          [
            4.838591,
            52.351482
          ],
          [
            4.838693,
            52.351479
          ],
          [
            4.838795,
            52.351486
          ],
          [
            4.838889,
            52.351479
          ],
          [
            4.838995,
            52.351486
          ],
          [
            4.839079,
            52.351482
          ],
          [
            4.8392,
            52.351482
          ],
          [
            4.839307,
            52.351482
          ],
          [
            4.839372,
            52.351475
          ],
          [
            4.839506,
            52.351475
          ],
          [
            4.839608,
            52.351471
          ],
          [
            4.839707,
            52.351467
          ],
          [
            4.839804,
            52.351463
          ],
          [
            4.839897,
            52.351471
          ],
          [
            4.839998,
            52.351471
          ],
          [
            4.84009,
            52.351471
          ],
          [
            4.840187,
            52.351482
          ],
          [
            4.840269,
            52.351486
          ],
          [
            4.840334,
            52.351486
          ],
          [
            4.840397,
            52.351486
          ],
          [
            4.840451,
            52.35149
          ],
          [
            4.840498,
            52.351494
          ],
          [
            4.84054,
            52.351494
          ],
          [
            4.840577,
            52.35149
          ],
          [
            4.840619,
            52.351486
          ],
          [
            4.840669,
            52.351482
          ],
          [
            4.840726,
            52.351482
          ],
          [
            4.840785,
            52.351479
          ],
          [
            4.840851,
            52.351475
          ],
          [
            4.840918,
            52.351475
          ],
          [
            4.84099,
            52.351475
          ],
          [
            4.841061,
            52.351475
          ],
          [
            4.841127,
            52.351475
          ],
          [
            4.841207,
            52.351471
          ],
          [
            4.841234,
            52.351471
          ],
          [
            4.841362,
            52.351475
          ],
          [
            4.841454,
            52.351471
          ],
          [
            4.841545,
            52.351471
          ],
          [
            4.841572,
            52.351471
          ],
          [
            4.84173,
            52.351471
          ],
          [
            4.841839,
            52.351467
          ],
          [
            4.841934,
            52.351463
          ],
          [
            4.842038,
            52.351459
          ],
          [
            4.84213,
            52.351459
          ],
          [
            4.842237,
            52.351459
          ],
          [
            4.842329,
            52.351459
          ],
          [
            4.84243,
            52.351456
          ],
          [
            4.842511,
            52.351456
          ],
          [
            4.84261,
            52.351452
          ],
          [
            4.842648,
            52.351452
          ],
          [
            4.842747,
            52.351452
          ],
          [
            4.84291,
            52.351456
          ],
          [
            4.843034,
            52.351459
          ],
          [
            4.843127,
            52.351459
          ],
          [
            4.843188,
            52.351463
          ],
          [
            4.843345,
            52.351467
          ],
          [
            4.843491,
            52.351471
          ],
          [
            4.843634,
            52.351475
          ],
          [
            4.843772,
            52.351475
          ],
          [
            4.843774,
            52.351475
          ],
          [
            4.843874,
            52.351475
          ],
          [
            4.843974,
            52.351475
          ],
          [
            4.844079,
            52.351475
          ],
          [
            4.844163,
            52.351479
          ],
          [
            4.844279,
            52.351482
          ],
          [
            4.844376,
            52.351482
          ],
          [
            4.84447,
            52.351482
          ],
          [
            4.844567,
            52.351482
          ],
          [
            4.844683,
            52.35149
          ],
          [
            4.844803,
            52.351498
          ],
          [
            4.844912,
            52.351501
          ],
          [
            4.844962,
            52.351501
          ],
          [
            4.84509,
            52.351505
          ],
          [
            4.845179,
            52.351509
          ],
          [
            4.845275,
            52.351509
          ],
          [
            4.845365,
            52.351509
          ],
          [
            4.845446,
            52.351509
          ],
          [
            4.845573,
            52.351509
          ],
          [
            4.845668,
            52.351513
          ],
          [
            4.845721,
            52.351513
          ],
          [
            4.845828,
            52.351513
          ],
          [
            4.845898,
            52.351517
          ],
          [
            4.845955,
            52.351521
          ],
          [
            4.845992,
            52.351524
          ],
          [
            4.84602,
            52.351528
          ],
          [
            4.846035,
            52.351536
          ],
          [
            4.846056,
            52.351547
          ],
          [
            4.846069,
            52.351559
          ],
          [
            4.846091,
            52.351578
          ],
          [
            4.846119,
            52.351597
          ],
          [
            4.846126,
            52.351616
          ],
          [
            4.846128,
            52.351627
          ],
          [
            4.84613,
            52.351635
          ],
          [
            4.846109,
            52.351673
          ],
          [
            4.846091,
            52.351696
          ],
          [
            4.846078,
            52.351711
          ],
          [
            4.846071,
            52.351727
          ],
          [
            4.846058,
            52.351738
          ],
          [
            4.846055,
            52.351761
          ],
          [
            4.846047,
            52.351788
          ],
          [
            4.846045,
            52.351814
          ],
          [
            4.846043,
            52.351849
          ],
          [
            4.84604,
            52.351883
          ],
          [
            4.84604,
            52.351925
          ],
          [
            4.846038,
            52.351971
          ],
          [
            4.846036,
            52.35202
          ],
          [
            4.846045,
            52.35207
          ],
          [
            4.84604,
            52.352131
          ],
          [
            4.846035,
            52.352192
          ],
          [
            4.846033,
            52.352249
          ],
          [
            4.846028,
            52.352303
          ],
          [
            4.846026,
            52.35236
          ],
          [
            4.846022,
            52.352421
          ],
          [
            4.846026,
            52.352482
          ],
          [
            4.846024,
            52.352539
          ],
          [
            4.846027,
            52.3526
          ],
          [
            4.846031,
            52.352657
          ],
          [
            4.846029,
            52.352722
          ],
          [
            4.846026,
            52.352787
          ],
          [
            4.846026,
            52.352848
          ],
          [
            4.846023,
            52.352909
          ],
          [
            4.846023,
            52.35297
          ],
          [
            4.846024,
            52.353043
          ],
          [
            4.84602,
            52.353134
          ],
          [
            4.846021,
            52.353218
          ],
          [
            4.84601,
            52.353291
          ],
          [
            4.846013,
            52.353359
          ],
          [
            4.846006,
            52.35342
          ],
          [
            4.845997,
            52.353481
          ],
          [
            4.845998,
            52.353542
          ],
          [
            4.845985,
            52.353603
          ],
          [
            4.845989,
            52.353668
          ],
          [
            4.845993,
            52.353733
          ],
          [
            4.845994,
            52.353794
          ],
          [
            4.845985,
            52.353847
          ],
          [
            4.845978,
            52.353909
          ],
          [
            4.845977,
            52.353973
          ],
          [
            4.845975,
            52.354038
          ],
          [
            4.845975,
            52.354099
          ],
          [
            4.845977,
            52.354153
          ],
          [
            4.845976,
            52.354206
          ],
          [
            4.845973,
            52.354259
          ],
          [
            4.845964,
            52.354313
          ],
          [
            4.845959,
            52.354359
          ],
          [
            4.845953,
            52.354408
          ],
          [
            4.845961,
            52.354462
          ],
          [
            4.84596,
            52.354511
          ],
          [
            4.84596,
            52.354565
          ],
          [
            4.84596,
            52.354618
          ],
          [
            4.845955,
            52.354675
          ],
          [
            4.845962,
            52.354725
          ],
          [
            4.845981,
            52.354771
          ],
          [
            4.84603,
            52.354809
          ],
          [
            4.846107,
            52.354832
          ],
          [
            4.846182,
            52.354828
          ],
          [
            4.846262,
            52.354824
          ],
          [
            4.84635,
            52.35482
          ],
          [
            4.846397,
            52.35482
          ],
          [
            4.846532,
            52.354828
          ],
          [
            4.846627,
            52.354832
          ],
          [
            4.846721,
            52.354832
          ],
          [
            4.846817,
            52.354836
          ],
          [
            4.84691,
            52.354836
          ],
          [
            4.847002,
            52.354836
          ],
          [
            4.84707,
            52.354832
          ],
          [
            4.847199,
            52.354836
          ],
          [
            4.847278,
            52.354832
          ],
          [
            4.847348,
            52.354832
          ],
          [
            4.84744,
            52.354832
          ],
          [
            4.847487,
            52.354832
          ],
          [
            4.847605,
            52.354836
          ],
          [
            4.847681,
            52.354847
          ],
          [
            4.847729,
            52.354866
          ],
          [
            4.847762,
            52.354889
          ],
          [
            4.847798,
            52.354916
          ],
          [
            4.847844,
            52.354938
          ],
          [
            4.847905,
            52.354958
          ],
          [
            4.847973,
            52.354969
          ],
          [
            4.848031,
            52.354969
          ],
          [
            4.848119,
            52.354965
          ],
          [
            4.848191,
            52.354965
          ],
          [
            4.848272,
            52.354965
          ],
          [
            4.848349,
            52.354965
          ],
          [
            4.848426,
            52.354969
          ],
          [
            4.848513,
            52.354973
          ],
          [
            4.848601,
            52.354973
          ],
          [
            4.848695,
            52.354973
          ],
          [
            4.848745,
            52.354973
          ],
          [
            4.848855,
            52.354973
          ],
          [
            4.84898,
            52.354973
          ],
          [
            4.849018,
            52.354973
          ],
          [
            4.849095,
            52.354969
          ],
          [
            4.849205,
            52.354965
          ],
          [
            4.849383,
            52.354954
          ],
          [
            4.8495,
            52.35495
          ],
          [
            4.849603,
            52.35495
          ],
          [
            4.849685,
            52.35495
          ],
          [
            4.849753,
            52.354954
          ],
          [
            4.849888,
            52.35495
          ],
          [
            4.849981,
            52.35495
          ],
          [
            4.850055,
            52.35495
          ],
          [
            4.850112,
            52.354946
          ],
          [
            4.850163,
            52.354942
          ],
          [
            4.850163,
            52.354942
          ],
          [
            4.850163,
            52.354942
          ],
          [
            4.850163,
            52.354942
          ],
          [
            4.850264,
            52.354938
          ],
          [
            4.850286,
            52.354942
          ],
          [
            4.85031,
            52.354942
          ],
          [
            4.85036,
            52.354946
          ],
          [
            4.850411,
            52.354946
          ],
          [
            4.850406,
            52.354946
          ],
          [
            4.850543,
            52.35495
          ],
          [
            4.850591,
            52.35495
          ],
          [
            4.850702,
            52.354954
          ],
          [
            4.850781,
            52.354954
          ],
          [
            4.850798,
            52.354954
          ],
          [
            4.850947,
            52.354958
          ],
          [
            4.850992,
            52.354961
          ],
          [
            4.851041,
            52.354958
          ],
          [
            4.851079,
            52.354958
          ],
          [
            4.851199,
            52.35495
          ],
          [
            4.851404,
            52.354923
          ],
          [
            4.851518,
            52.354904
          ],
          [
            4.851613,
            52.354889
          ],
          [
            4.851662,
            52.354881
          ],
          [
            4.851798,
            52.354866
          ],
          [
            4.851918,
            52.354855
          ],
          [
            4.852022,
            52.354847
          ],
          [
            4.852112,
            52.354843
          ],
          [
            4.852158,
            52.354843
          ],
          [
            4.852298,
            52.354836
          ],
          [
            4.85243,
            52.354828
          ],
          [
            4.852537,
            52.354824
          ],
          [
            4.852633,
            52.35482
          ],
          [
            4.852732,
            52.354816
          ],
          [
            4.852833,
            52.354813
          ],
          [
            4.852925,
            52.354809
          ],
          [
            4.852993,
            52.354805
          ],
          [
            4.853096,
            52.354797
          ],
          [
            4.853172,
            52.35479
          ],
          [
            4.853251,
            52.354782
          ],
          [
            4.853327,
            52.354778
          ],
          [
            4.85339,
            52.354771
          ],
          [
            4.853465,
            52.354763
          ],
          [
            4.853537,
            52.354759
          ],
          [
            4.853612,
            52.354752
          ],
          [
            4.853683,
            52.354748
          ],
          [
            4.85374,
            52.35474
          ],
          [
            4.853836,
            52.354733
          ],
          [
            4.853918,
            52.354729
          ],
          [
            4.853986,
            52.354717
          ],
          [
            4.854094,
            52.35471
          ],
          [
            4.854146,
            52.354706
          ],
          [
            4.854283,
            52.354698
          ],
          [
            4.854352,
            52.354698
          ],
          [
            4.854481,
            52.354694
          ],
          [
            4.854577,
            52.354702
          ],
          [
            4.85467,
            52.354706
          ],
          [
            4.854754,
            52.35471
          ],
          [
            4.854841,
            52.354721
          ],
          [
            4.854922,
            52.354733
          ],
          [
            4.854977,
            52.35474
          ],
          [
            4.855013,
            52.354744
          ],
          [
            4.855055,
            52.354752
          ],
          [
            4.855091,
            52.354759
          ],
          [
            4.855091,
            52.354759
          ],
          [
            4.855091,
            52.354759
          ],
          [
            4.855091,
            52.354759
          ],
          [
            4.855091,
            52.354759
          ],
          [
            4.85519,
            52.35479
          ],
          [
            4.855207,
            52.354797
          ],
          [
            4.855218,
            52.354805
          ],
          [
            4.855236,
            52.354809
          ],
          [
            4.855268,
            52.354824
          ],
          [
            4.855305,
            52.354839
          ],
          [
            4.855344,
            52.354847
          ],
          [
            4.85538,
            52.354855
          ],
          [
            4.855426,
            52.354866
          ],
          [
            4.855478,
            52.354877
          ],
          [
            4.855529,
            52.354885
          ],
          [
            4.855582,
            52.354897
          ],
          [
            4.855641,
            52.354908
          ],
          [
            4.855702,
            52.354919
          ],
          [
            4.855762,
            52.354927
          ],
          [
            4.85582,
            52.354938
          ],
          [
            4.855882,
            52.354954
          ],
          [
            4.855926,
            52.354965
          ],
          [
            4.85602,
            52.354988
          ],
          [
            4.856097,
            52.355003
          ],
          [
            4.856178,
            52.355019
          ],
          [
            4.856263,
            52.355034
          ],
          [
            4.856331,
            52.355049
          ],
          [
            4.856432,
            52.355064
          ],
          [
            4.856516,
            52.355076
          ],
          [
            4.856595,
            52.355091
          ],
          [
            4.856664,
            52.355099
          ],
          [
            4.856738,
            52.35511
          ],
          [
            4.856807,
            52.355122
          ],
          [
            4.856869,
            52.355133
          ],
          [
            4.856914,
            52.355148
          ],
          [
            4.856941,
            52.355167
          ],
          [
            4.856948,
            52.355194
          ],
          [
            4.856928,
            52.355217
          ],
          [
            4.856878,
            52.355232
          ],
          [
            4.856824,
            52.355248
          ],
          [
            4.856761,
            52.355259
          ],
          [
            4.856692,
            52.35527
          ],
          [
            4.856619,
            52.355286
          ],
          [
            4.856551,
            52.355301
          ],
          [
            4.856487,
            52.35532
          ],
          [
            4.856411,
            52.355339
          ],
          [
            4.856353,
            52.355354
          ],
          [
            4.856271,
            52.355377
          ],
          [
            4.856205,
            52.355396
          ],
          [
            4.856139,
            52.355419
          ],
          [
            4.856075,
            52.355442
          ],
          [
            4.85602,
            52.355465
          ],
          [
            4.855974,
            52.35548
          ],
          [
            4.855932,
            52.355499
          ],
          [
            4.855884,
            52.355522
          ],
          [
            4.855836,
            52.355549
          ],
          [
            4.855785,
            52.355579
          ],
          [
            4.855738,
            52.355614
          ],
          [
            4.855697,
            52.355652
          ],
          [
            4.855655,
            52.355694
          ],
          [
            4.85562,
            52.355747
          ],
          [
            4.855589,
            52.355804
          ],
          [
            4.855564,
            52.355862
          ],
          [
            4.855545,
            52.355919
          ],
          [
            4.855534,
            52.355984
          ],
          [
            4.855535,
            52.356037
          ],
          [
            4.855551,
            52.356091
          ],
          [
            4.855583,
            52.356144
          ],
          [
            4.855624,
            52.356201
          ],
          [
            4.855675,
            52.356247
          ],
          [
            4.855743,
            52.356297
          ],
          [
            4.855818,
            52.356346
          ],
          [
            4.855895,
            52.356384
          ],
          [
            4.855975,
            52.356415
          ],
          [
            4.856055,
            52.356442
          ],
          [
            4.85616,
            52.356472
          ],
          [
            4.85627,
            52.356499
          ],
          [
            4.856375,
            52.356525
          ],
          [
            4.856477,
            52.356552
          ],
          [
            4.856574,
            52.356575
          ],
          [
            4.856646,
            52.356594
          ],
          [
            4.856776,
            52.356632
          ],
          [
            4.856864,
            52.356659
          ],
          [
            4.856956,
            52.356682
          ],
          [
            4.857046,
            52.356701
          ],
          [
            4.857119,
            52.356716
          ],
          [
            4.857189,
            52.35672
          ],
          [
            4.857259,
            52.356724
          ],
          [
            4.857336,
            52.35672
          ],
          [
            4.857405,
            52.356712
          ],
          [
            4.857466,
            52.356708
          ],
          [
            4.85756,
            52.356697
          ],
          [
            4.857635,
            52.356682
          ],
          [
            4.857722,
            52.35667
          ],
          [
            4.857805,
            52.356663
          ],
          [
            4.857832,
            52.356659
          ],
          [
            4.857983,
            52.356651
          ],
          [
            4.85807,
            52.356644
          ],
          [
            4.858149,
            52.356636
          ],
          [
            4.858223,
            52.356628
          ],
          [
            4.858281,
            52.356625
          ],
          [
            4.858342,
            52.356613
          ],
          [
            4.858395,
            52.356609
          ],
          [
            4.85845,
            52.356613
          ],
          [
            4.858504,
            52.356621
          ],
          [
            4.858545,
            52.356628
          ],
          [
            4.85859,
            52.356628
          ],
          [
            4.858633,
            52.356632
          ],
          [
            4.858688,
            52.356628
          ],
          [
            4.858738,
            52.356625
          ],
          [
            4.858789,
            52.356628
          ],
          [
            4.858846,
            52.356628
          ],
          [
            4.858902,
            52.35664
          ],
          [
            4.858963,
            52.356644
          ],
          [
            4.859023,
            52.356644
          ],
          [
            4.859086,
            52.356651
          ],
          [
            4.859146,
            52.356659
          ],
          [
            4.85921,
            52.356663
          ],
          [
            4.859263,
            52.35667
          ],
          [
            4.859307,
            52.356674
          ],
          [
            4.85935,
            52.356678
          ],
          [
            4.859383,
            52.356682
          ],
          [
            4.859407,
            52.356686
          ],
          [
            4.859448,
            52.356697
          ],
          [
            4.859488,
            52.356697
          ],
          [
            4.859525,
            52.356708
          ],
          [
            4.859561,
            52.35672
          ],
          [
            4.8596,
            52.356731
          ],
          [
            4.859632,
            52.356735
          ],
          [
            4.859665,
            52.356747
          ],
          [
            4.859693,
            52.35675
          ],
          [
            4.859735,
            52.356762
          ],
          [
            4.859781,
            52.356777
          ],
          [
            4.859833,
            52.356796
          ],
          [
            4.85989,
            52.356812
          ],
          [
            4.859951,
            52.356834
          ],
          [
            4.860008,
            52.356853
          ],
          [
            4.860066,
            52.356876
          ],
          [
            4.860121,
            52.356899
          ],
          [
            4.860175,
            52.356922
          ],
          [
            4.86022,
            52.356945
          ],
          [
            4.860268,
            52.356972
          ],
          [
            4.860314,
            52.356998
          ],
          [
            4.860351,
            52.357025
          ],
          [
            4.860381,
            52.357044
          ],
          [
            4.860431,
            52.357063
          ],
          [
            4.860483,
            52.357082
          ],
          [
            4.860529,
            52.357105
          ],
          [
            4.860578,
            52.357136
          ],
          [
            4.860623,
            52.357162
          ],
          [
            4.86067,
            52.357193
          ],
          [
            4.860714,
            52.357223
          ],
          [
            4.86076,
            52.35725
          ],
          [
            4.860803,
            52.357285
          ],
          [
            4.860843,
            52.357319
          ],
          [
            4.860877,
            52.357349
          ],
          [
            4.860911,
            52.35738
          ],
          [
            4.860949,
            52.35741
          ],
          [
            4.860991,
            52.357452
          ],
          [
            4.861021,
            52.357494
          ],
          [
            4.861039,
            52.357536
          ],
          [
            4.86106,
            52.357578
          ],
          [
            4.861091,
            52.35762
          ],
          [
            4.861147,
            52.357655
          ],
          [
            4.861197,
            52.357681
          ],
          [
            4.861254,
            52.357697
          ],
          [
            4.861303,
            52.357708
          ],
          [
            4.861351,
            52.357735
          ],
          [
            4.861413,
            52.357765
          ],
          [
            4.86148,
            52.357792
          ],
          [
            4.861554,
            52.357807
          ],
          [
            4.861619,
            52.357822
          ],
          [
            4.861702,
            52.357845
          ],
          [
            4.861774,
            52.357868
          ],
          [
            4.861825,
            52.357883
          ],
          [
            4.861942,
            52.357914
          ],
          [
            4.862028,
            52.357937
          ],
          [
            4.862115,
            52.35796
          ],
          [
            4.862202,
            52.357983
          ],
          [
            4.862299,
            52.358006
          ],
          [
            4.862397,
            52.358025
          ],
          [
            4.862488,
            52.358047
          ],
          [
            4.862585,
            52.35807
          ],
          [
            4.862675,
            52.358097
          ],
          [
            4.862768,
            52.35812
          ],
          [
            4.862859,
            52.358143
          ],
          [
            4.862955,
            52.358166
          ],
          [
            4.863047,
            52.358192
          ],
          [
            4.863138,
            52.358219
          ],
          [
            4.863233,
            52.358246
          ],
          [
            4.863323,
            52.358269
          ],
          [
            4.863414,
            52.358295
          ],
          [
            4.863506,
            52.358322
          ],
          [
            4.863584,
            52.358345
          ],
          [
            4.863694,
            52.358376
          ],
          [
            4.863794,
            52.358398
          ],
          [
            4.863888,
            52.358421
          ],
          [
            4.86398,
            52.358444
          ],
          [
            4.864075,
            52.358467
          ],
          [
            4.864167,
            52.35849
          ],
          [
            4.864252,
            52.358513
          ],
          [
            4.864341,
            52.358536
          ],
          [
            4.864429,
            52.358566
          ],
          [
            4.864523,
            52.358593
          ],
          [
            4.864618,
            52.35862
          ],
          [
            4.864711,
            52.358639
          ],
          [
            4.86481,
            52.358654
          ],
          [
            4.86491,
            52.358669
          ],
          [
            4.864977,
            52.358685
          ],
          [
            4.86511,
            52.358707
          ],
          [
            4.865212,
            52.358727
          ],
          [
            4.865309,
            52.358738
          ],
          [
            4.865408,
            52.358746
          ],
          [
            4.865484,
            52.358746
          ],
          [
            4.865621,
            52.358746
          ],
          [
            4.865718,
            52.358734
          ],
          [
            4.865815,
            52.358715
          ],
          [
            4.865901,
            52.358685
          ],
          [
            4.86599,
            52.358654
          ],
          [
            4.86607,
            52.35862
          ],
          [
            4.86614,
            52.358578
          ],
          [
            4.866213,
            52.358532
          ],
          [
            4.866283,
            52.358486
          ],
          [
            4.866358,
            52.35844
          ],
          [
            4.866425,
            52.358398
          ],
          [
            4.866493,
            52.358356
          ],
          [
            4.866563,
            52.358311
          ],
          [
            4.86664,
            52.358265
          ],
          [
            4.866714,
            52.358223
          ],
          [
            4.866787,
            52.358185
          ],
          [
            4.866864,
            52.358151
          ],
          [
            4.866936,
            52.358116
          ],
          [
            4.867018,
            52.358086
          ],
          [
            4.867099,
            52.358051
          ],
          [
            4.867167,
            52.358017
          ],
          [
            4.867241,
            52.357986
          ],
          [
            4.867321,
            52.35796
          ],
          [
            4.867402,
            52.357937
          ],
          [
            4.867487,
            52.357918
          ],
          [
            4.867572,
            52.35791
          ],
          [
            4.867654,
            52.35791
          ],
          [
            4.867738,
            52.35791
          ],
          [
            4.867812,
            52.357914
          ],
          [
            4.867879,
            52.357914
          ],
          [
            4.867949,
            52.35791
          ],
          [
            4.868019,
            52.357902
          ],
          [
            4.868084,
            52.357883
          ],
          [
            4.86815,
            52.357872
          ],
          [
            4.868214,
            52.357857
          ],
          [
            4.868279,
            52.357849
          ],
          [
            4.86834,
            52.357838
          ],
          [
            4.868403,
            52.357819
          ],
          [
            4.868462,
            52.357803
          ],
          [
            4.868509,
            52.357784
          ],
          [
            4.868544,
            52.357758
          ],
          [
            4.868585,
            52.357727
          ],
          [
            4.868626,
            52.357697
          ],
          [
            4.868664,
            52.357655
          ],
          [
            4.868701,
            52.357632
          ],
          [
            4.868738,
            52.357601
          ],
          [
            4.868769,
            52.357578
          ],
          [
            4.868796,
            52.357548
          ],
          [
            4.868814,
            52.357529
          ],
          [
            4.868845,
            52.357506
          ],
          [
            4.868877,
            52.357491
          ],
          [
            4.868913,
            52.357479
          ],
          [
            4.868966,
            52.357475
          ],
          [
            4.869014,
            52.357479
          ],
          [
            4.869054,
            52.357487
          ],
          [
            4.869102,
            52.357498
          ],
          [
            4.869146,
            52.357502
          ],
          [
            4.869192,
            52.357502
          ],
          [
            4.869232,
            52.357502
          ],
          [
            4.869258,
            52.357506
          ],
          [
            4.869258,
            52.357506
          ],
          [
            4.869258,
            52.357506
          ],
          [
            4.869258,
            52.357506
          ],
          [
            4.869336,
            52.35751
          ],
          [
            4.869354,
            52.357506
          ],
          [
            4.86938,
            52.357498
          ],
          [
            4.869415,
            52.357483
          ],
          [
            4.869459,
            52.357475
          ],
          [
            4.869504,
            52.357468
          ],
          [
            4.869585,
            52.357456
          ],
          [
            4.869651,
            52.357452
          ],
          [
            4.869684,
            52.357449
          ],
          [
            4.869794,
            52.357445
          ],
          [
            4.869867,
            52.357445
          ],
          [
            4.869912,
            52.357445
          ],
          [
            4.870008,
            52.357449
          ],
          [
            4.870078,
            52.357452
          ],
          [
            4.870103,
            52.357452
          ],
          [
            4.870214,
            52.357456
          ],
          [
            4.870285,
            52.35746
          ],
          [
            4.870359,
            52.357468
          ],
          [
            4.870428,
            52.357479
          ],
          [
            4.8705,
            52.357491
          ],
          [
            4.870557,
            52.357506
          ],
          [
            4.870646,
            52.357533
          ],
          [
            4.87071,
            52.357552
          ],
          [
            4.870776,
            52.357574
          ],
          [
            4.870846,
            52.357601
          ],
          [
            4.870914,
            52.357628
          ],
          [
            4.870979,
            52.357655
          ],
          [
            4.871054,
            52.357685
          ],
          [
            4.871123,
            52.357712
          ],
          [
            4.871192,
            52.357746
          ],
          [
            4.871262,
            52.35778
          ],
          [
            4.871329,
            52.357811
          ],
          [
            4.871398,
            52.357841
          ],
          [
            4.871471,
            52.357876
          ],
          [
            4.871537,
            52.357902
          ],
          [
            4.871605,
            52.357933
          ],
          [
            4.871679,
            52.35796
          ],
          [
            4.871748,
            52.357979
          ],
          [
            4.871817,
            52.358002
          ],
          [
            4.871893,
            52.358025
          ],
          [
            4.87197,
            52.358036
          ],
          [
            4.872054,
            52.358044
          ],
          [
            4.872138,
            52.358051
          ],
          [
            4.872222,
            52.358063
          ],
          [
            4.872306,
            52.35807
          ],
          [
            4.872392,
            52.358078
          ],
          [
            4.872475,
            52.358086
          ],
          [
            4.87256,
            52.358097
          ],
          [
            4.872641,
            52.358105
          ],
          [
            4.87271,
            52.358116
          ],
          [
            4.87277,
            52.358128
          ],
          [
            4.872829,
            52.358139
          ],
          [
            4.872894,
            52.358154
          ],
          [
            4.872961,
            52.358173
          ],
          [
            4.87302,
            52.358185
          ],
          [
            4.873086,
            52.3582
          ],
          [
            4.873154,
            52.358215
          ],
          [
            4.873223,
            52.358231
          ],
          [
            4.873287,
            52.358246
          ],
          [
            4.87336,
            52.358265
          ],
          [
            4.873422,
            52.358284
          ],
          [
            4.87349,
            52.358311
          ],
          [
            4.87355,
            52.35833
          ],
          [
            4.873615,
            52.35836
          ],
          [
            4.873679,
            52.358387
          ],
          [
            4.873748,
            52.358414
          ],
          [
            4.873812,
            52.358437
          ],
          [
            4.87388,
            52.358463
          ],
          [
            4.873946,
            52.35849
          ],
          [
            4.874014,
            52.358524
          ],
          [
            4.874074,
            52.358555
          ],
          [
            4.874131,
            52.358585
          ],
          [
            4.874181,
            52.358616
          ],
          [
            4.874234,
            52.358654
          ],
          [
            4.87429,
            52.358696
          ],
          [
            4.87434,
            52.358734
          ],
          [
            4.87439,
            52.358776
          ],
          [
            4.874434,
            52.358814
          ],
          [
            4.874474,
            52.358856
          ],
          [
            4.874517,
            52.358898
          ],
          [
            4.874553,
            52.358952
          ],
          [
            4.874588,
            52.359001
          ],
          [
            4.87462,
            52.359051
          ],
          [
            4.874649,
            52.359104
          ],
          [
            4.874677,
            52.359158
          ],
          [
            4.874701,
            52.359207
          ],
          [
            4.874726,
            52.359261
          ],
          [
            4.874749,
            52.359314
          ],
          [
            4.874779,
            52.359371
          ],
          [
            4.87481,
            52.359432
          ],
          [
            4.874867,
            52.359493
          ],
          [
            4.874939,
            52.359554
          ],
          [
            4.875023,
            52.359611
          ],
          [
            4.875098,
            52.359661
          ],
          [
            4.875178,
            52.359711
          ],
          [
            4.875261,
            52.359764
          ],
          [
            4.87534,
            52.359821
          ],
          [
            4.875415,
            52.359871
          ],
          [
            4.875481,
            52.359921
          ],
          [
            4.875546,
            52.35997
          ],
          [
            4.875616,
            52.360027
          ],
          [
            4.875668,
            52.360069
          ],
          [
            4.875711,
            52.360111
          ],
          [
            4.875748,
            52.360153
          ],
          [
            4.875766,
            52.360191
          ],
          [
            4.875767,
            52.360226
          ],
          [
            4.875761,
            52.360249
          ],
          [
            4.875747,
            52.360268
          ],
          [
            4.875726,
            52.360287
          ],
          [
            4.875687,
            52.360313
          ],
          [
            4.875644,
            52.360344
          ],
          [
            4.875598,
            52.360374
          ],
          [
            4.875557,
            52.360409
          ],
          [
            4.875512,
            52.360447
          ],
          [
            4.875464,
            52.360477
          ],
          [
            4.875425,
            52.360504
          ],
          [
            4.875382,
            52.360535
          ],
          [
            4.875334,
            52.360558
          ],
          [
            4.87529,
            52.36058
          ],
          [
            4.875233,
            52.3606
          ],
          [
            4.875178,
            52.360619
          ],
          [
            4.875123,
            52.360641
          ],
          [
            4.87507,
            52.360668
          ],
          [
            4.875014,
            52.360703
          ],
          [
            4.874962,
            52.360729
          ],
          [
            4.874907,
            52.36076
          ],
          [
            4.874843,
            52.36079
          ],
          [
            4.87478,
            52.360813
          ],
          [
            4.874703,
            52.360832
          ],
          [
            4.874632,
            52.360844
          ],
          [
            4.874566,
            52.360851
          ],
          [
            4.874497,
            52.360859
          ],
          [
            4.874433,
            52.360863
          ],
          [
            4.874375,
            52.360859
          ],
          [
            4.87431,
            52.360855
          ],
          [
            4.874251,
            52.360851
          ],
          [
            4.874194,
            52.36084
          ],
          [
            4.874141,
            52.360828
          ],
          [
            4.874086,
            52.360821
          ],
          [
            4.874035,
            52.360809
          ],
          [
            4.873987,
            52.360798
          ],
          [
            4.87394,
            52.360786
          ],
          [
            4.873898,
            52.360771
          ],
          [
            4.873847,
            52.360756
          ],
          [
            4.873786,
            52.360741
          ],
          [
            4.873714,
            52.360722
          ],
          [
            4.873644,
            52.360706
          ],
          [
            4.873592,
            52.360695
          ],
          [
            4.873493,
            52.360676
          ],
          [
            4.873419,
            52.360661
          ],
          [
            4.873348,
            52.360638
          ],
          [
            4.873263,
            52.360611
          ],
          [
            4.873191,
            52.360592
          ],
          [
            4.873112,
            52.360573
          ],
          [
            4.873044,
            52.360558
          ],
          [
            4.872994,
            52.360539
          ],
          [
            4.872948,
            52.360504
          ],
          [
            4.872906,
            52.360474
          ],
          [
            4.872871,
            52.360439
          ],
          [
            4.872846,
            52.360401
          ],
          [
            4.872826,
            52.360359
          ],
          [
            4.872807,
            52.360325
          ],
          [
            4.872806,
            52.360287
          ],
          [
            4.87281,
            52.360252
          ],
          [
            4.872819,
            52.360222
          ],
          [
            4.872831,
            52.360199
          ],
          [
            4.872847,
            52.360184
          ],
          [
            4.872874,
            52.360168
          ],
          [
            4.872874,
            52.360168
          ],
          [
            4.872935,
            52.360188
          ],
          [
            4.872944,
            52.360199
          ],
          [
            4.872944,
            52.360218
          ],
          [
            4.872945,
            52.360245
          ],
          [
            4.872955,
            52.360264
          ],
          [
            4.872962,
            52.360279
          ],
          [
            4.872962,
            52.360279
          ],
          [
            4.873007,
            52.360313
          ],
          [
            4.873026,
            52.360329
          ],
          [
            4.873033,
            52.360336
          ],
          [
            4.873038,
            52.360344
          ],
          [
            4.873038,
            52.360344
          ],
          [
            4.873038,
            52.360344
          ]
        ]
      }
    }
  ]
}