{
  "type": "FeatureCollection",
  "features": [
    {
      "type": "Feature",
      "properties": {
        "id": "amsterdam-to-badhoevedorp-ride-73433d00-6dc4-11f1-8ad1-a40dbc8fa83a",
        "title": "Amsterdam to Badhoevedorp ride",
        "source": "Amsterdam to Badhoevedorp ride-73433d00-6dc4-11f1-8ad1-a40dbc8fa83a.fit"
      },
      "geometry": {
        "type": "LineString",
        "coordinates": [
          [
            4.866271,
            52.360504
          ],
          [
            4.866271,
            52.360504
          ],
          [
            4.866271,
            52.360504
          ],
          [
            4.866271,
            52.360504
          ],
          [
            4.866263,
            52.36047
          ],
          [
            4.866263,
            52.36047
          ],
          [
            4.866239,
            52.360466
          ],
          [
            4.866199,
            52.360447
          ],
          [
            4.866172,
            52.360439
          ],
          [
            4.86609,
            52.36042
          ],
          [
            4.866098,
            52.36042
          ],
          [
            4.866097,
            52.360424
          ],
          [
            4.866044,
            52.36042
          ],
          [
            4.865993,
            52.360424
          ],
          [
            4.865945,
            52.360424
          ],
          [
            4.8659,
            52.360428
          ],
          [
            4.865851,
            52.360428
          ],
          [
            4.865805,
            52.360432
          ],
          [
            4.865749,
            52.360428
          ],
          [
            4.865706,
            52.360424
          ],
          [
            4.865658,
            52.36042
          ],
          [
            4.865612,
            52.360413
          ],
          [
            4.865556,
            52.360397
          ],
          [
            4.865497,
            52.360386
          ],
          [
            4.865467,
            52.360374
          ],
          [
            4.865373,
            52.360352
          ],
          [
            4.865295,
            52.360329
          ],
          [
            4.865231,
            52.360313
          ],
          [
            4.865131,
            52.36029
          ],
          [
            4.865042,
            52.360271
          ],
          [
            4.86495,
            52.360252
          ],
          [
            4.864861,
            52.360233
          ],
          [
            4.864802,
            52.360218
          ],
          [
            4.864705,
            52.360199
          ],
          [
            4.864589,
            52.360168
          ],
          [
            4.864487,
            52.360146
          ],
          [
            4.864397,
            52.360123
          ],
          [
            4.864335,
            52.360111
          ],
          [
            4.864212,
            52.360081
          ],
          [
            4.864108,
            52.360058
          ],
          [
            4.864009,
            52.360035
          ],
          [
            4.863917,
            52.360016
          ],
          [
            4.863892,
            52.360008
          ],
          [
            4.863756,
            52.359978
          ],
          [
            4.863651,
            52.359951
          ],
          [
            4.863551,
            52.359928
          ],
          [
            4.863462,
            52.359901
          ],
          [
            4.86336,
            52.359879
          ],
          [
            4.863266,
            52.359856
          ],
          [
            4.863176,
            52.359833
          ],
          [
            4.86309,
            52.35981
          ],
          [
            4.863034,
            52.359798
          ],
          [
            4.862905,
            52.359772
          ],
          [
            4.862797,
            52.359749
          ],
          [
            4.862702,
            52.35973
          ],
          [
            4.862599,
            52.359707
          ],
          [
            4.862528,
            52.359692
          ],
          [
            4.862408,
            52.359669
          ],
          [
            4.862309,
            52.35965
          ],
          [
            4.862206,
            52.359627
          ],
          [
            4.862105,
            52.359604
          ],
          [
            4.862043,
            52.359592
          ],
          [
            4.861921,
            52.359562
          ],
          [
            4.861822,
            52.359535
          ],
          [
            4.861736,
            52.359509
          ],
          [
            4.861639,
            52.359489
          ],
          [
            4.861554,
            52.359467
          ],
          [
            4.86145,
            52.35944
          ],
          [
            4.861358,
            52.359417
          ],
          [
            4.861269,
            52.359394
          ],
          [
            4.861179,
            52.359371
          ],
          [
            4.861084,
            52.359348
          ],
          [
            4.860995,
            52.359325
          ],
          [
            4.860912,
            52.359303
          ],
          [
            4.860817,
            52.35928
          ],
          [
            4.86078,
            52.359268
          ],
          [
            4.860647,
            52.359234
          ],
          [
            4.860545,
            52.359211
          ],
          [
            4.860444,
            52.359184
          ],
          [
            4.860347,
            52.359158
          ],
          [
            4.860292,
            52.359142
          ],
          [
            4.860172,
            52.359112
          ],
          [
            4.860075,
            52.359085
          ],
          [
            4.859975,
            52.359058
          ],
          [
            4.859879,
            52.359032
          ],
          [
            4.859828,
            52.35902
          ],
          [
            4.859703,
            52.358986
          ],
          [
            4.8596,
            52.358959
          ],
          [
            4.859511,
            52.358936
          ],
          [
            4.859417,
            52.358913
          ],
          [
            4.859317,
            52.358887
          ],
          [
            4.859218,
            52.35886
          ],
          [
            4.859129,
            52.358841
          ],
          [
            4.859035,
            52.358814
          ],
          [
            4.85894,
            52.358788
          ],
          [
            4.858888,
            52.358776
          ],
          [
            4.858763,
            52.358742
          ],
          [
            4.858662,
            52.358715
          ],
          [
            4.858575,
            52.358692
          ],
          [
            4.85848,
            52.358665
          ],
          [
            4.858387,
            52.358635
          ],
          [
            4.858289,
            52.358608
          ],
          [
            4.858198,
            52.358585
          ],
          [
            4.858111,
            52.358559
          ],
          [
            4.858016,
            52.358532
          ],
          [
            4.857961,
            52.35852
          ],
          [
            4.857839,
            52.358486
          ],
          [
            4.857737,
            52.358459
          ],
          [
            4.857645,
            52.358437
          ],
          [
            4.85755,
            52.35841
          ],
          [
            4.857455,
            52.358387
          ],
          [
            4.857359,
            52.35836
          ],
          [
            4.857273,
            52.358337
          ],
          [
            4.857184,
            52.358318
          ],
          [
            4.857095,
            52.358295
          ],
          [
            4.857,
            52.358273
          ],
          [
            4.856908,
            52.358246
          ],
          [
            4.856816,
            52.358223
          ],
          [
            4.856727,
            52.3582
          ],
          [
            4.856652,
            52.358181
          ],
          [
            4.856547,
            52.358158
          ],
          [
            4.856453,
            52.358131
          ],
          [
            4.856361,
            52.358105
          ],
          [
            4.85629,
            52.358086
          ],
          [
            4.856185,
            52.358059
          ],
          [
            4.856093,
            52.358036
          ],
          [
            4.856005,
            52.358006
          ],
          [
            4.855933,
            52.357994
          ],
          [
            4.855826,
            52.357964
          ],
          [
            4.855727,
            52.357941
          ],
          [
            4.855634,
            52.357922
          ],
          [
            4.855566,
            52.357906
          ],
          [
            4.855474,
            52.357895
          ],
          [
            4.855398,
            52.357883
          ],
          [
            4.855333,
            52.357872
          ],
          [
            4.855283,
            52.357861
          ],
          [
            4.855234,
            52.357845
          ],
          [
            4.855189,
            52.357819
          ],
          [
            4.85516,
            52.357803
          ],
          [
            4.855126,
            52.357773
          ],
          [
            4.855094,
            52.357735
          ],
          [
            4.855056,
            52.357685
          ],
          [
            4.855023,
            52.357647
          ],
          [
            4.854999,
            52.357616
          ],
          [
            4.854955,
            52.357555
          ],
          [
            4.854907,
            52.357494
          ],
          [
            4.854853,
            52.357429
          ],
          [
            4.85481,
            52.357376
          ],
          [
            4.854761,
            52.357319
          ],
          [
            4.85474,
            52.357292
          ],
          [
            4.854677,
            52.357204
          ],
          [
            4.854635,
            52.357147
          ],
          [
            4.854601,
            52.357098
          ],
          [
            4.854572,
            52.357033
          ],
          [
            4.85454,
            52.356926
          ],
          [
            4.854525,
            52.356827
          ],
          [
            4.854523,
            52.356735
          ],
          [
            4.854526,
            52.356682
          ],
          [
            4.854545,
            52.356594
          ],
          [
            4.854545,
            52.356579
          ],
          [
            4.854594,
            52.356453
          ],
          [
            4.854598,
            52.356426
          ],
          [
            4.854625,
            52.356365
          ],
          [
            4.854659,
            52.356289
          ],
          [
            4.854682,
            52.356243
          ],
          [
            4.854702,
            52.356197
          ],
          [
            4.854732,
            52.356136
          ],
          [
            4.854774,
            52.356052
          ],
          [
            4.854823,
            52.355957
          ],
          [
            4.854865,
            52.355873
          ],
          [
            4.854906,
            52.355793
          ],
          [
            4.854934,
            52.355721
          ],
          [
            4.85496,
            52.355659
          ],
          [
            4.85498,
            52.355602
          ],
          [
            4.855011,
            52.355534
          ],
          [
            4.855033,
            52.355465
          ],
          [
            4.855051,
            52.355404
          ],
          [
            4.855069,
            52.355354
          ],
          [
            4.855088,
            52.355289
          ],
          [
            4.855116,
            52.355228
          ],
          [
            4.855137,
            52.355164
          ],
          [
            4.855155,
            52.355106
          ],
          [
            4.855171,
            52.355068
          ],
          [
            4.855182,
            52.355019
          ],
          [
            4.855198,
            52.354973
          ],
          [
            4.855209,
            52.354935
          ],
          [
            4.855212,
            52.354893
          ],
          [
            4.855214,
            52.354847
          ],
          [
            4.855197,
            52.354816
          ],
          [
            4.855157,
            52.354797
          ],
          [
            4.855125,
            52.354786
          ],
          [
            4.855037,
            52.354774
          ],
          [
            4.854957,
            52.354767
          ],
          [
            4.854888,
            52.354759
          ],
          [
            4.85479,
            52.354752
          ],
          [
            4.854692,
            52.35474
          ],
          [
            4.854638,
            52.354736
          ],
          [
            4.854495,
            52.354729
          ],
          [
            4.854419,
            52.354729
          ],
          [
            4.854292,
            52.354729
          ],
          [
            4.854192,
            52.354729
          ],
          [
            4.8541,
            52.354733
          ],
          [
            4.854011,
            52.354744
          ],
          [
            4.853919,
            52.354752
          ],
          [
            4.853852,
            52.354759
          ],
          [
            4.853746,
            52.354771
          ],
          [
            4.853657,
            52.354782
          ],
          [
            4.853574,
            52.35479
          ],
          [
            4.853485,
            52.354797
          ],
          [
            4.853402,
            52.354809
          ],
          [
            4.85332,
            52.354816
          ],
          [
            4.853231,
            52.35482
          ],
          [
            4.853199,
            52.354824
          ],
          [
            4.853117,
            52.354832
          ],
          [
            4.852939,
            52.354839
          ],
          [
            4.852871,
            52.354843
          ],
          [
            4.852743,
            52.354847
          ],
          [
            4.85261,
            52.354851
          ],
          [
            4.852551,
            52.354855
          ],
          [
            4.852407,
            52.354862
          ],
          [
            4.852296,
            52.354862
          ],
          [
            4.852193,
            52.354866
          ],
          [
            4.85209,
            52.35487
          ],
          [
            4.852024,
            52.35487
          ],
          [
            4.851899,
            52.354877
          ],
          [
            4.851792,
            52.354893
          ],
          [
            4.851695,
            52.354912
          ],
          [
            4.851601,
            52.354931
          ],
          [
            4.851577,
            52.354935
          ],
          [
            4.851418,
            52.354954
          ],
          [
            4.851305,
            52.354961
          ],
          [
            4.851203,
            52.354965
          ],
          [
            4.851108,
            52.354969
          ],
          [
            4.85105,
            52.354969
          ],
          [
            4.850911,
            52.354969
          ],
          [
            4.850803,
            52.354969
          ],
          [
            4.850705,
            52.354969
          ],
          [
            4.8506,
            52.354973
          ],
          [
            4.850579,
            52.354973
          ],
          [
            4.850409,
            52.354969
          ],
          [
            4.85029,
            52.354969
          ],
          [
            4.850185,
            52.354965
          ],
          [
            4.850088,
            52.354965
          ],
          [
            4.850006,
            52.354965
          ],
          [
            4.849924,
            52.354965
          ],
          [
            4.849787,
            52.354965
          ],
          [
            4.849674,
            52.354961
          ],
          [
            4.849576,
            52.354961
          ],
          [
            4.84948,
            52.354961
          ],
          [
            4.849373,
            52.354965
          ],
          [
            4.849271,
            52.354973
          ],
          [
            4.849175,
            52.354977
          ],
          [
            4.849091,
            52.35498
          ],
          [
            4.849038,
            52.35498
          ],
          [
            4.84891,
            52.35498
          ],
          [
            4.848774,
            52.354977
          ],
          [
            4.848668,
            52.354977
          ],
          [
            4.848573,
            52.354973
          ],
          [
            4.848542,
            52.354973
          ],
          [
            4.848376,
            52.354969
          ],
          [
            4.848261,
            52.354969
          ],
          [
            4.848159,
            52.354969
          ],
          [
            4.84809,
            52.354969
          ],
          [
            4.847969,
            52.354965
          ],
          [
            4.847856,
            52.354958
          ],
          [
            4.847752,
            52.354954
          ],
          [
            4.847651,
            52.35495
          ],
          [
            4.847557,
            52.354946
          ],
          [
            4.847495,
            52.354946
          ],
          [
            4.847362,
            52.354942
          ],
          [
            4.847249,
            52.354938
          ],
          [
            4.847144,
            52.354938
          ],
          [
            4.847062,
            52.354938
          ],
          [
            4.846988,
            52.354938
          ],
          [
            4.846847,
            52.354942
          ],
          [
            4.846742,
            52.354942
          ],
          [
            4.846653,
            52.354935
          ],
          [
            4.846585,
            52.354916
          ],
          [
            4.846524,
            52.354893
          ],
          [
            4.846459,
            52.354881
          ],
          [
            4.846419,
            52.35487
          ],
          [
            4.846318,
            52.354858
          ],
          [
            4.846234,
            52.354851
          ],
          [
            4.846149,
            52.354839
          ],
          [
            4.846084,
            52.354816
          ],
          [
            4.846041,
            52.35479
          ],
          [
            4.846005,
            52.354748
          ],
          [
            4.845988,
            52.35471
          ],
          [
            4.845981,
            52.35466
          ],
          [
            4.845983,
            52.354603
          ],
          [
            4.845982,
            52.354542
          ],
          [
            4.845986,
            52.354485
          ],
          [
            4.845984,
            52.354427
          ],
          [
            4.845984,
            52.354366
          ],
          [
            4.845986,
            52.354305
          ],
          [
            4.845975,
            52.354248
          ],
          [
            4.845979,
            52.354179
          ],
          [
            4.845979,
            52.354115
          ],
          [
            4.845986,
            52.354054
          ],
          [
            4.845986,
            52.353985
          ],
          [
            4.845992,
            52.353928
          ],
          [
            4.845997,
            52.353874
          ],
          [
            4.845997,
            52.353813
          ],
          [
            4.845999,
            52.353752
          ],
          [
            4.846,
            52.353687
          ],
          [
            4.846,
            52.353626
          ],
          [
            4.846004,
            52.353539
          ],
          [
            4.846006,
            52.353447
          ],
          [
            4.846005,
            52.353352
          ],
          [
            4.845997,
            52.353287
          ],
          [
            4.845997,
            52.353226
          ],
          [
            4.846005,
            52.353168
          ],
          [
            4.846014,
            52.353107
          ],
          [
            4.846016,
            52.353035
          ],
          [
            4.846024,
            52.352974
          ],
          [
            4.846029,
            52.352913
          ],
          [
            4.846031,
            52.352852
          ],
          [
            4.846027,
            52.352791
          ],
          [
            4.846028,
            52.352734
          ],
          [
            4.846029,
            52.352669
          ],
          [
            4.846036,
            52.352604
          ],
          [
            4.846036,
            52.352539
          ],
          [
            4.846037,
            52.352482
          ],
          [
            4.846034,
            52.352421
          ],
          [
            4.846039,
            52.352356
          ],
          [
            4.846051,
            52.352291
          ],
          [
            4.84605,
            52.352238
          ],
          [
            4.846043,
            52.35218
          ],
          [
            4.846036,
            52.352119
          ],
          [
            4.846036,
            52.352066
          ],
          [
            4.846034,
            52.352005
          ],
          [
            4.846032,
            52.351952
          ],
          [
            4.84604,
            52.351894
          ],
          [
            4.846048,
            52.351841
          ],
          [
            4.846044,
            52.351788
          ],
          [
            4.84604,
            52.351727
          ],
          [
            4.846026,
            52.351692
          ],
          [
            4.845979,
            52.351677
          ],
          [
            4.845935,
            52.351673
          ],
          [
            4.845873,
            52.351673
          ],
          [
            4.845782,
            52.351669
          ],
          [
            4.845647,
            52.351673
          ],
          [
            4.845566,
            52.351673
          ],
          [
            4.845538,
            52.351673
          ],
          [
            4.845406,
            52.351673
          ],
          [
            4.84531,
            52.351669
          ],
          [
            4.845241,
            52.351669
          ],
          [
            4.845119,
            52.351669
          ],
          [
            4.844982,
            52.351669
          ],
          [
            4.844859,
            52.351669
          ],
          [
            4.844815,
            52.351669
          ],
          [
            4.844694,
            52.351673
          ],
          [
            4.844674,
            52.351673
          ],
          [
            4.844505,
            52.351673
          ],
          [
            4.84439,
            52.351673
          ],
          [
            4.844357,
            52.351673
          ],
          [
            4.844183,
            52.351677
          ],
          [
            4.844061,
            52.351677
          ],
          [
            4.844043,
            52.351677
          ],
          [
            4.843844,
            52.351673
          ],
          [
            4.843712,
            52.351669
          ],
          [
            4.843592,
            52.351666
          ],
          [
            4.843568,
            52.351666
          ],
          [
            4.843371,
            52.351662
          ],
          [
            4.843119,
            52.351662
          ],
          [
            4.843103,
            52.351662
          ],
          [
            4.842905,
            52.351658
          ],
          [
            4.842812,
            52.351654
          ],
          [
            4.842741,
            52.351654
          ],
          [
            4.842644,
            52.35165
          ],
          [
            4.84252,
            52.351646
          ],
          [
            4.84237,
            52.351646
          ],
          [
            4.842334,
            52.351646
          ],
          [
            4.842241,
            52.35165
          ],
          [
            4.842149,
            52.351658
          ],
          [
            4.841928,
            52.351666
          ],
          [
            4.841863,
            52.351669
          ],
          [
            4.841706,
            52.351669
          ],
          [
            4.841583,
            52.351673
          ],
          [
            4.841407,
            52.351677
          ],
          [
            4.841321,
            52.351677
          ],
          [
            4.841162,
            52.351677
          ],
          [
            4.841019,
            52.351673
          ],
          [
            4.840896,
            52.351666
          ],
          [
            4.840806,
            52.351666
          ],
          [
            4.840713,
            52.351662
          ],
          [
            4.84059,
            52.351662
          ],
          [
            4.840522,
            52.351666
          ],
          [
            4.840445,
            52.351669
          ],
          [
            4.84038,
            52.351669
          ],
          [
            4.840315,
            52.351666
          ],
          [
            4.840207,
            52.351669
          ],
          [
            4.840082,
            52.351673
          ],
          [
            4.839901,
            52.351673
          ],
          [
            4.839837,
            52.351673
          ],
          [
            4.839686,
            52.351669
          ],
          [
            4.839592,
            52.351669
          ],
          [
            4.839478,
            52.351666
          ],
          [
            4.839325,
            52.351666
          ],
          [
            4.839181,
            52.351666
          ],
          [
            4.839076,
            52.351666
          ],
          [
            4.83897,
            52.351666
          ],
          [
            4.838864,
            52.351666
          ],
          [
            4.838759,
            52.351666
          ],
          [
            4.838702,
            52.351666
          ],
          [
            4.838564,
            52.351666
          ],
          [
            4.838454,
            52.351666
          ],
          [
            4.83835,
            52.351666
          ],
          [
            4.838256,
            52.351666
          ],
          [
            4.838059,
            52.351662
          ],
          [
            4.837949,
            52.351662
          ],
          [
            4.837846,
            52.351662
          ],
          [
            4.837751,
            52.351662
          ],
          [
            4.837695,
            52.351662
          ],
          [
            4.837556,
            52.351662
          ],
          [
            4.837437,
            52.351658
          ],
          [
            4.837337,
            52.351658
          ],
          [
            4.8372,
            52.351646
          ],
          [
            4.837099,
            52.351635
          ],
          [
            4.836912,
            52.351616
          ],
          [
            4.83681,
            52.351612
          ],
          [
            4.836723,
            52.351608
          ],
          [
            4.836606,
            52.351612
          ],
          [
            4.836538,
            52.351612
          ],
          [
            4.836398,
            52.351616
          ],
          [
            4.836292,
            52.351616
          ],
          [
            4.836196,
            52.351604
          ],
          [
            4.836096,
            52.351601
          ],
          [
            4.836031,
            52.351601
          ],
          [
            4.83589,
            52.351593
          ],
          [
            4.835793,
            52.351589
          ],
          [
            4.835691,
            52.351589
          ],
          [
            4.835595,
            52.351593
          ],
          [
            4.835512,
            52.351597
          ],
          [
            4.835386,
            52.351601
          ],
          [
            4.83529,
            52.351601
          ],
          [
            4.835192,
            52.351601
          ],
          [
            4.835094,
            52.351601
          ],
          [
            4.83501,
            52.351597
          ],
          [
            4.834883,
            52.351593
          ],
          [
            4.83479,
            52.351593
          ],
          [
            4.834676,
            52.351593
          ],
          [
            4.834579,
            52.351597
          ],
          [
            4.834488,
            52.351601
          ],
          [
            4.834371,
            52.351601
          ],
          [
            4.834283,
            52.351601
          ],
          [
            4.834198,
            52.351597
          ],
          [
            4.834104,
            52.351597
          ],
          [
            4.834025,
            52.351585
          ],
          [
            4.833902,
            52.351574
          ],
          [
            4.833864,
            52.351574
          ],
          [
            4.833695,
            52.351578
          ],
          [
            4.833569,
            52.351578
          ],
          [
            4.83346,
            52.351582
          ],
          [
            4.8334,
            52.351578
          ],
          [
            4.83326,
            52.351574
          ],
          [
            4.833158,
            52.351578
          ],
          [
            4.83304,
            52.351585
          ],
          [
            4.832946,
            52.351589
          ],
          [
            4.832868,
            52.351589
          ],
          [
            4.832729,
            52.351585
          ],
          [
            4.832624,
            52.351582
          ],
          [
            4.832524,
            52.351585
          ],
          [
            4.832428,
            52.351582
          ],
          [
            4.832342,
            52.351578
          ],
          [
            4.832229,
            52.351578
          ],
          [
            4.832131,
            52.351578
          ],
          [
            4.83204,
            52.351578
          ],
          [
            4.831966,
            52.351578
          ],
          [
            4.831818,
            52.351582
          ],
          [
            4.831747,
            52.351582
          ],
          [
            4.831647,
            52.351582
          ],
          [
            4.831562,
            52.351582
          ],
          [
            4.831478,
            52.351582
          ],
          [
            4.831448,
            52.351582
          ],
          [
            4.831301,
            52.351582
          ],
          [
            4.83119,
            52.351582
          ],
          [
            4.831083,
            52.351582
          ],
          [
            4.830996,
            52.351578
          ],
          [
            4.830913,
            52.351574
          ],
          [
            4.830741,
            52.35157
          ],
          [
            4.830639,
            52.351566
          ],
          [
            4.830547,
            52.35157
          ],
          [
            4.830475,
            52.35157
          ],
          [
            4.830395,
            52.35157
          ],
          [
            4.830274,
            52.351574
          ],
          [
            4.830169,
            52.35157
          ],
          [
            4.830071,
            52.35157
          ],
          [
            4.82997,
            52.35157
          ],
          [
            4.82991,
            52.35157
          ],
          [
            4.829787,
            52.35157
          ],
          [
            4.82969,
            52.35157
          ],
          [
            4.829593,
            52.35157
          ],
          [
            4.829507,
            52.35157
          ],
          [
            4.829452,
            52.35157
          ],
          [
            4.82932,
            52.35157
          ],
          [
            4.829194,
            52.35157
          ],
          [
            4.829087,
            52.351566
          ],
          [
            4.82901,
            52.35157
          ],
          [
            4.828922,
            52.35157
          ],
          [
            4.828808,
            52.351574
          ],
          [
            4.828715,
            52.351578
          ],
          [
            4.828611,
            52.351578
          ],
          [
            4.828539,
            52.351582
          ],
          [
            4.828413,
            52.351582
          ],
          [
            4.828314,
            52.351582
          ],
          [
            4.828222,
            52.351582
          ],
          [
            4.828183,
            52.351582
          ],
          [
            4.828052,
            52.351578
          ],
          [
            4.827965,
            52.351578
          ],
          [
            4.827877,
            52.351574
          ],
          [
            4.827795,
            52.35157
          ],
          [
            4.827721,
            52.351566
          ],
          [
            4.827662,
            52.351563
          ],
          [
            4.827589,
            52.351559
          ],
          [
            4.827527,
            52.351555
          ],
          [
            4.8275,
            52.351555
          ],
          [
            4.827399,
            52.351555
          ],
          [
            4.827297,
            52.351547
          ],
          [
            4.827247,
            52.351543
          ],
          [
            4.827082,
            52.351536
          ],
          [
            4.827023,
            52.351536
          ],
          [
            4.826903,
            52.351532
          ],
          [
            4.82682,
            52.351532
          ],
          [
            4.826696,
            52.351528
          ],
          [
            4.82666,
            52.351524
          ],
          [
            4.826533,
            52.351524
          ],
          [
            4.82637,
            52.351521
          ],
          [
            4.826261,
            52.351517
          ],
          [
            4.826135,
            52.351513
          ],
          [
            4.826069,
            52.351513
          ],
          [
            4.825916,
            52.351509
          ],
          [
            4.825824,
            52.351505
          ],
          [
            4.82573,
            52.351509
          ],
          [
            4.825626,
            52.351509
          ],
          [
            4.82552,
            52.351505
          ],
          [
            4.825403,
            52.351501
          ],
          [
            4.825272,
            52.351498
          ],
          [
            4.825156,
            52.351467
          ],
          [
            4.825045,
            52.351463
          ],
          [
            4.824944,
            52.351459
          ],
          [
            4.824876,
            52.351459
          ],
          [
            4.824753,
            52.351459
          ],
          [
            4.82464,
            52.351463
          ],
          [
            4.824539,
            52.351463
          ],
          [
            4.82445,
            52.351459
          ],
          [
            4.824345,
            52.351456
          ],
          [
            4.824239,
            52.351456
          ],
          [
            4.824131,
            52.351452
          ],
          [
            4.824029,
            52.351456
          ],
          [
            4.823933,
            52.351452
          ],
          [
            4.82385,
            52.351452
          ],
          [
            4.823744,
            52.351456
          ],
          [
            4.823614,
            52.351456
          ],
          [
            4.823519,
            52.35144
          ],
          [
            4.823422,
            52.351444
          ],
          [
            4.823339,
            52.351437
          ],
          [
            4.823214,
            52.351433
          ],
          [
            4.823112,
            52.351433
          ],
          [
            4.823014,
            52.351433
          ],
          [
            4.822923,
            52.351429
          ],
          [
            4.822839,
            52.351429
          ],
          [
            4.822696,
            52.351429
          ],
          [
            4.822591,
            52.351429
          ],
          [
            4.822493,
            52.351421
          ],
          [
            4.822387,
            52.351421
          ],
          [
            4.822305,
            52.351421
          ],
          [
            4.822184,
            52.351425
          ],
          [
            4.822081,
            52.351425
          ],
          [
            4.821992,
            52.351429
          ],
          [
            4.821879,
            52.351429
          ],
          [
            4.821803,
            52.351429
          ],
          [
            4.821679,
            52.351429
          ],
          [
            4.821573,
            52.351429
          ],
          [
            4.821466,
            52.351429
          ],
          [
            4.821386,
            52.351425
          ],
          [
            4.821292,
            52.351425
          ],
          [
            4.821157,
            52.351429
          ],
          [
            4.821057,
            52.351429
          ],
          [
            4.820956,
            52.351429
          ],
          [
            4.820858,
            52.351429
          ],
          [
            4.820795,
            52.351429
          ],
          [
            4.82067,
            52.351429
          ],
          [
            4.820541,
            52.351429
          ],
          [
            4.820462,
            52.351433
          ],
          [
            4.820347,
            52.351429
          ],
          [
            4.820247,
            52.351421
          ],
          [
            4.820125,
            52.351414
          ],
          [
            4.820027,
            52.351414
          ],
          [
            4.819927,
            52.35141
          ],
          [
            4.819829,
            52.351414
          ],
          [
            4.819719,
            52.351414
          ],
          [
            4.819655,
            52.351418
          ],
          [
            4.819516,
            52.351418
          ],
          [
            4.81942,
            52.351418
          ],
          [
            4.819301,
            52.351414
          ],
          [
            4.819203,
            52.351406
          ],
          [
            4.819126,
            52.351406
          ],
          [
            4.81899,
            52.351398
          ],
          [
            4.818888,
            52.351398
          ],
          [
            4.818784,
            52.351395
          ],
          [
            4.818684,
            52.351395
          ],
          [
            4.818613,
            52.351395
          ],
          [
            4.818474,
            52.351395
          ],
          [
            4.81837,
            52.351395
          ],
          [
            4.818273,
            52.351395
          ],
          [
            4.818177,
            52.351395
          ],
          [
            4.818107,
            52.351391
          ],
          [
            4.817973,
            52.351387
          ],
          [
            4.817875,
            52.351387
          ],
          [
            4.817765,
            52.351383
          ],
          [
            4.817666,
            52.351379
          ],
          [
            4.817589,
            52.351379
          ],
          [
            4.817459,
            52.351379
          ],
          [
            4.817355,
            52.351383
          ],
          [
            4.817252,
            52.351383
          ],
          [
            4.817157,
            52.351379
          ],
          [
            4.817073,
            52.351379
          ],
          [
            4.816954,
            52.351376
          ],
          [
            4.816852,
            52.351376
          ],
          [
            4.816751,
            52.351376
          ],
          [
            4.81665,
            52.351372
          ],
          [
            4.816582,
            52.351376
          ],
          [
            4.816448,
            52.351372
          ],
          [
            4.816345,
            52.351368
          ],
          [
            4.816245,
            52.351368
          ],
          [
            4.816143,
            52.351364
          ],
          [
            4.816081,
            52.351364
          ],
          [
            4.815938,
            52.351368
          ],
          [
            4.815835,
            52.351368
          ],
          [
            4.815734,
            52.351368
          ],
          [
            4.815634,
            52.351368
          ],
          [
            4.81555,
            52.351368
          ],
          [
            4.815438,
            52.351364
          ],
          [
            4.815336,
            52.351368
          ],
          [
            4.815235,
            52.351368
          ],
          [
            4.81513,
            52.351364
          ],
          [
            4.815064,
            52.35136
          ],
          [
            4.814941,
            52.351356
          ],
          [
            4.814831,
            52.351349
          ],
          [
            4.814722,
            52.351345
          ],
          [
            4.814623,
            52.351337
          ],
          [
            4.814557,
            52.351334
          ],
          [
            4.814416,
            52.351326
          ],
          [
            4.814313,
            52.351318
          ],
          [
            4.814214,
            52.351311
          ],
          [
            4.814118,
            52.351303
          ],
          [
            4.814046,
            52.351299
          ],
          [
            4.813914,
            52.351292
          ],
          [
            4.813814,
            52.351284
          ],
          [
            4.813715,
            52.351276
          ],
          [
            4.813619,
            52.351273
          ],
          [
            4.81354,
            52.351261
          ],
          [
            4.813415,
            52.35125
          ],
          [
            4.813314,
            52.351242
          ],
          [
            4.813217,
            52.351234
          ],
          [
            4.813116,
            52.351223
          ],
          [
            4.813032,
            52.351208
          ],
          [
            4.81292,
            52.351185
          ],
          [
            4.812821,
            52.35117
          ],
          [
            4.812726,
            52.351154
          ],
          [
            4.812624,
            52.351139
          ],
          [
            4.812546,
            52.351128
          ],
          [
            4.812427,
            52.351109
          ],
          [
            4.812332,
            52.35109
          ],
          [
            4.812225,
            52.351063
          ],
          [
            4.812127,
            52.35104
          ],
          [
            4.812042,
            52.351021
          ],
          [
            4.811941,
            52.350994
          ],
          [
            4.811851,
            52.350979
          ],
          [
            4.811762,
            52.350964
          ],
          [
            4.811674,
            52.350945
          ],
          [
            4.811584,
            52.350929
          ],
          [
            4.811495,
            52.350929
          ],
          [
            4.811444,
            52.350941
          ],
          [
            4.811369,
            52.350956
          ],
          [
            4.811298,
            52.350967
          ],
          [
            4.81122,
            52.350971
          ],
          [
            4.811059,
            52.350952
          ],
          [
            4.81104,
            52.350945
          ],
          [
            4.810994,
            52.350914
          ],
          [
            4.810953,
            52.350891
          ],
          [
            4.810792,
            52.350807
          ],
          [
            4.810677,
            52.350773
          ],
          [
            4.81064,
            52.350765
          ],
          [
            4.810547,
            52.350754
          ],
          [
            4.810439,
            52.350731
          ],
          [
            4.81033,
            52.350716
          ],
          [
            4.810195,
            52.350681
          ],
          [
            4.810089,
            52.350651
          ],
          [
            4.81001,
            52.350632
          ],
          [
            4.8099,
            52.350601
          ],
          [
            4.809809,
            52.350578
          ],
          [
            4.809714,
            52.350559
          ],
          [
            4.809619,
            52.35054
          ],
          [
            4.80954,
            52.350525
          ],
          [
            4.809424,
            52.350506
          ],
          [
            4.809327,
            52.350483
          ],
          [
            4.809232,
            52.35046
          ],
          [
            4.809138,
            52.350441
          ],
          [
            4.809048,
            52.350422
          ],
          [
            4.80895,
            52.350407
          ],
          [
            4.808859,
            52.350391
          ],
          [
            4.808765,
            52.350372
          ],
          [
            4.808689,
            52.350357
          ],
          [
            4.808572,
            52.35033
          ],
          [
            4.808475,
            52.350311
          ],
          [
            4.808383,
            52.350292
          ],
          [
            4.808284,
            52.350273
          ],
          [
            4.808211,
            52.350262
          ],
          [
            4.808087,
            52.350235
          ],
          [
            4.807991,
            52.350212
          ],
          [
            4.807896,
            52.350197
          ],
          [
            4.807796,
            52.350174
          ],
          [
            4.807697,
            52.350151
          ],
          [
            4.807626,
            52.350136
          ],
          [
            4.807501,
            52.350113
          ],
          [
            4.807399,
            52.350098
          ],
          [
            4.807301,
            52.350075
          ],
          [
            4.807206,
            52.350052
          ],
          [
            4.807125,
            52.350037
          ],
          [
            4.807015,
            52.350014
          ],
          [
            4.806916,
            52.349995
          ],
          [
            4.80682,
            52.349979
          ],
          [
            4.806724,
            52.349964
          ],
          [
            4.806634,
            52.349945
          ],
          [
            4.806553,
            52.349926
          ],
          [
            4.806479,
            52.349907
          ],
          [
            4.8064,
            52.349888
          ],
          [
            4.806322,
            52.349869
          ],
          [
            4.806248,
            52.34985
          ],
          [
            4.80614,
            52.349827
          ],
          [
            4.806045,
            52.349808
          ],
          [
            4.805952,
            52.349785
          ],
          [
            4.805862,
            52.349766
          ],
          [
            4.805794,
            52.349754
          ],
          [
            4.805672,
            52.349724
          ],
          [
            4.805572,
            52.349701
          ],
          [
            4.805481,
            52.349682
          ],
          [
            4.805385,
            52.349663
          ],
          [
            4.805291,
            52.349644
          ],
          [
            4.805192,
            52.349625
          ],
          [
            4.805098,
            52.349606
          ],
          [
            4.805012,
            52.349586
          ],
          [
            4.804915,
            52.349567
          ],
          [
            4.804837,
            52.349552
          ],
          [
            4.804726,
            52.349533
          ],
          [
            4.804631,
            52.349514
          ],
          [
            4.804531,
            52.349491
          ],
          [
            4.804431,
            52.349468
          ],
          [
            4.804365,
            52.349457
          ],
          [
            4.804239,
            52.349434
          ],
          [
            4.804142,
            52.349419
          ],
          [
            4.804042,
            52.349403
          ],
          [
            4.803944,
            52.349384
          ],
          [
            4.803899,
            52.349377
          ],
          [
            4.803757,
            52.349354
          ],
          [
            4.803665,
            52.349335
          ],
          [
            4.803555,
            52.349312
          ],
          [
            4.803461,
            52.349293
          ],
          [
            4.80335,
            52.34927
          ],
          [
            4.803263,
            52.349255
          ],
          [
            4.80308,
            52.349216
          ],
          [
            4.802948,
            52.349194
          ],
          [
            4.802831,
            52.349174
          ],
          [
            4.802735,
            52.349148
          ],
          [
            4.802658,
            52.349129
          ],
          [
            4.802537,
            52.349102
          ],
          [
            4.802442,
            52.349083
          ],
          [
            4.802343,
            52.349068
          ],
          [
            4.802248,
            52.349045
          ],
          [
            4.802168,
            52.34903
          ],
          [
            4.802045,
            52.34901
          ],
          [
            4.801952,
            52.348984
          ],
          [
            4.801858,
            52.348965
          ],
          [
            4.801759,
            52.348946
          ],
          [
            4.801683,
            52.348934
          ],
          [
            4.801559,
            52.348911
          ],
          [
            4.801462,
            52.348892
          ],
          [
            4.801359,
            52.348873
          ],
          [
            4.801258,
            52.348854
          ],
          [
            4.801158,
            52.348835
          ],
          [
            4.801091,
            52.348824
          ],
          [
            4.80096,
            52.348801
          ],
          [
            4.80086,
            52.348785
          ],
          [
            4.800771,
            52.348751
          ],
          [
            4.800676,
            52.348736
          ],
          [
            4.800589,
            52.348717
          ],
          [
            4.800477,
            52.348698
          ],
          [
            4.800424,
            52.348686
          ],
          [
            4.800288,
            52.34866
          ],
          [
            4.8002,
            52.34864
          ],
          [
            4.800156,
            52.348629
          ],
          [
            4.800043,
            52.348598
          ],
          [
            4.799926,
            52.348541
          ],
          [
            4.79984,
            52.348511
          ],
          [
            4.799756,
            52.34848
          ],
          [
            4.799672,
            52.348442
          ],
          [
            4.799578,
            52.348412
          ],
          [
            4.799492,
            52.348373
          ],
          [
            4.7994,
            52.348347
          ],
          [
            4.799317,
            52.348309
          ],
          [
            4.799226,
            52.348278
          ],
          [
            4.799153,
            52.348255
          ],
          [
            4.799053,
            52.348217
          ],
          [
            4.799013,
            52.348194
          ],
          [
            4.79889,
            52.348145
          ],
          [
            4.79889,
            52.348137
          ],
          [
            4.79873,
            52.348064
          ],
          [
            4.798653,
            52.348034
          ],
          [
            4.798573,
            52.347996
          ],
          [
            4.798484,
            52.347954
          ],
          [
            4.798398,
            52.347927
          ],
          [
            4.798397,
            52.347927
          ],
          [
            4.798205,
            52.347908
          ],
          [
            4.798138,
            52.3479
          ],
          [
            4.79801,
            52.347885
          ],
          [
            4.797923,
            52.347851
          ],
          [
            4.797856,
            52.347805
          ],
          [
            4.797807,
            52.347752
          ],
          [
            4.797786,
            52.347694
          ],
          [
            4.797734,
            52.347588
          ],
          [
            4.797674,
            52.347527
          ],
          [
            4.797615,
            52.347481
          ],
          [
            4.797543,
            52.347431
          ],
          [
            4.797477,
            52.347385
          ],
          [
            4.797459,
            52.347374
          ],
          [
            4.797344,
            52.347286
          ],
          [
            4.797281,
            52.347237
          ],
          [
            4.797217,
            52.347191
          ],
          [
            4.797201,
            52.347179
          ],
          [
            4.797083,
            52.347095
          ],
          [
            4.797025,
            52.34705
          ],
          [
            4.796962,
            52.346993
          ],
          [
            4.796848,
            52.34689
          ],
          [
            4.796793,
            52.346836
          ],
          [
            4.796743,
            52.346783
          ],
          [
            4.796693,
            52.346737
          ],
          [
            4.796635,
            52.346676
          ],
          [
            4.796578,
            52.346619
          ],
          [
            4.796532,
            52.346569
          ],
          [
            4.796511,
            52.346546
          ],
          [
            4.796433,
            52.346451
          ],
          [
            4.796394,
            52.346394
          ],
          [
            4.796358,
            52.346344
          ],
          [
            4.796319,
            52.346287
          ],
          [
            4.796286,
            52.346233
          ],
          [
            4.796246,
            52.346172
          ],
          [
            4.79621,
            52.346111
          ],
          [
            4.796169,
            52.34605
          ],
          [
            4.796133,
            52.345993
          ],
          [
            4.7961,
            52.345943
          ],
          [
            4.796061,
            52.345882
          ],
          [
            4.796023,
            52.345818
          ],
          [
            4.795989,
            52.345757
          ],
          [
            4.795954,
            52.345699
          ],
          [
            4.795921,
            52.345642
          ],
          [
            4.795888,
            52.345589
          ],
          [
            4.795874,
            52.345558
          ],
          [
            4.795812,
            52.345463
          ],
          [
            4.795783,
            52.345406
          ],
          [
            4.795743,
            52.345348
          ],
          [
            4.795702,
            52.345284
          ],
          [
            4.795664,
            52.34523
          ],
          [
            4.795629,
            52.345173
          ],
          [
            4.795592,
            52.345116
          ],
          [
            4.795556,
            52.345058
          ],
          [
            4.795523,
            52.344994
          ],
          [
            4.795487,
            52.344936
          ],
          [
            4.795452,
            52.344879
          ],
          [
            4.795418,
            52.344826
          ],
          [
            4.795378,
            52.344761
          ],
          [
            4.795328,
            52.344646
          ],
          [
            4.795307,
            52.344585
          ],
          [
            4.795275,
            52.34446
          ],
          [
            4.795264,
            52.344395
          ],
          [
            4.795256,
            52.344334
          ],
          [
            4.795237,
            52.34428
          ],
          [
            4.79522,
            52.344231
          ],
          [
            4.795176,
            52.344154
          ],
          [
            4.79514,
            52.344101
          ],
          [
            4.795104,
            52.344051
          ],
          [
            4.795071,
            52.343998
          ],
          [
            4.795022,
            52.343925
          ],
          [
            4.79498,
            52.343868
          ],
          [
            4.79494,
            52.343811
          ],
          [
            4.794872,
            52.343716
          ],
          [
            4.794831,
            52.343658
          ],
          [
            4.794788,
            52.343601
          ],
          [
            4.794745,
            52.343536
          ],
          [
            4.794709,
            52.343487
          ],
          [
            4.794669,
            52.343426
          ],
          [
            4.794589,
            52.343315
          ],
          [
            4.794553,
            52.343262
          ],
          [
            4.794449,
            52.343109
          ],
          [
            4.794408,
            52.343048
          ],
          [
            4.794372,
            52.342991
          ],
          [
            4.794335,
            52.342934
          ],
          [
            4.794294,
            52.342876
          ],
          [
            4.79425,
            52.342815
          ],
          [
            4.794211,
            52.342758
          ],
          [
            4.794174,
            52.342701
          ],
          [
            4.794135,
            52.342644
          ],
          [
            4.794093,
            52.342583
          ],
          [
            4.794049,
            52.342522
          ],
          [
            4.793971,
            52.342411
          ],
          [
            4.793924,
            52.342354
          ],
          [
            4.793872,
            52.342297
          ],
          [
            4.793816,
            52.342243
          ],
          [
            4.793752,
            52.342186
          ],
          [
            4.793688,
            52.342136
          ],
          [
            4.79355,
            52.342045
          ],
          [
            4.793479,
            52.342003
          ],
          [
            4.793324,
            52.341923
          ],
          [
            4.793243,
            52.341881
          ],
          [
            4.793165,
            52.341843
          ],
          [
            4.793091,
            52.341805
          ],
          [
            4.793016,
            52.341759
          ],
          [
            4.792946,
            52.341713
          ],
          [
            4.792883,
            52.341663
          ],
          [
            4.792826,
            52.341618
          ],
          [
            4.792771,
            52.34156
          ],
          [
            4.792723,
            52.341503
          ],
          [
            4.79268,
            52.34145
          ],
          [
            4.792636,
            52.3414
          ],
          [
            4.792596,
            52.341347
          ],
          [
            4.792507,
            52.341225
          ],
          [
            4.792466,
            52.341167
          ],
          [
            4.792425,
            52.34111
          ],
          [
            4.79234,
            52.340996
          ],
          [
            4.792292,
            52.340939
          ],
          [
            4.792251,
            52.340885
          ],
          [
            4.792199,
            52.340839
          ],
          [
            4.792133,
            52.340794
          ],
          [
            4.791978,
            52.340713
          ],
          [
            4.791906,
            52.340687
          ],
          [
            4.791842,
            52.340664
          ],
          [
            4.791729,
            52.340668
          ],
          [
            4.791726,
            52.340672
          ],
          [
            4.791584,
            52.340778
          ],
          [
            4.791524,
            52.340816
          ],
          [
            4.791474,
            52.340858
          ],
          [
            4.791426,
            52.340904
          ],
          [
            4.791386,
            52.340942
          ],
          [
            4.791348,
            52.340977
          ],
          [
            4.791316,
            52.341003
          ],
          [
            4.791282,
            52.34103
          ],
          [
            4.791243,
            52.341049
          ],
          [
            4.79114,
            52.341087
          ],
          [
            4.791086,
            52.341095
          ],
          [
            4.791012,
            52.341095
          ],
          [
            4.790946,
            52.341087
          ],
          [
            4.790836,
            52.341064
          ],
          [
            4.790758,
            52.34103
          ],
          [
            4.790683,
            52.340992
          ],
          [
            4.790608,
            52.34095
          ],
          [
            4.79053,
            52.340897
          ],
          [
            4.790388,
            52.340809
          ],
          [
            4.790318,
            52.340755
          ],
          [
            4.790249,
            52.34071
          ],
          [
            4.790181,
            52.340664
          ],
          [
            4.79011,
            52.340611
          ],
          [
            4.790047,
            52.340565
          ],
          [
            4.789908,
            52.340462
          ],
          [
            4.789841,
            52.340416
          ],
          [
            4.789769,
            52.340363
          ],
          [
            4.789697,
            52.340317
          ],
          [
            4.789547,
            52.340221
          ],
          [
            4.789474,
            52.340172
          ],
          [
            4.789399,
            52.340118
          ],
          [
            4.789325,
            52.340069
          ],
          [
            4.789181,
            52.33997
          ],
          [
            4.789032,
            52.33987
          ],
          [
            4.788966,
            52.339821
          ],
          [
            4.788896,
            52.339775
          ],
          [
            4.788827,
            52.339725
          ],
          [
            4.78876,
            52.33968
          ],
          [
            4.788683,
            52.33963
          ],
          [
            4.788618,
            52.339581
          ],
          [
            4.788548,
            52.339531
          ],
          [
            4.78848,
            52.339485
          ],
          [
            4.788342,
            52.33939
          ],
          [
            4.788267,
            52.33934
          ],
          [
            4.788112,
            52.33926
          ],
          [
            4.788024,
            52.339222
          ],
          [
            4.787935,
            52.339188
          ],
          [
            4.787856,
            52.339161
          ],
          [
            4.78775,
            52.339134
          ],
          [
            4.787558,
            52.339085
          ],
          [
            4.78746,
            52.339062
          ],
          [
            4.787369,
            52.339039
          ],
          [
            4.787176,
            52.338997
          ],
          [
            4.787082,
            52.338978
          ],
          [
            4.786982,
            52.338955
          ],
          [
            4.786897,
            52.33894
          ],
          [
            4.786691,
            52.338898
          ],
          [
            4.786596,
            52.338879
          ],
          [
            4.786502,
            52.338856
          ],
          [
            4.786427,
            52.33884
          ],
          [
            4.786309,
            52.338821
          ],
          [
            4.786239,
            52.338802
          ],
          [
            4.786112,
            52.338772
          ],
          [
            4.786015,
            52.338749
          ],
          [
            4.785827,
            52.338707
          ],
          [
            4.785738,
            52.338688
          ],
          [
            4.785541,
            52.338646
          ],
          [
            4.785446,
            52.338627
          ],
          [
            4.78535,
            52.338604
          ],
          [
            4.785246,
            52.338577
          ],
          [
            4.785152,
            52.338562
          ],
          [
            4.784982,
            52.338524
          ],
          [
            4.784773,
            52.338482
          ],
          [
            4.78468,
            52.338463
          ],
          [
            4.784582,
            52.338444
          ],
          [
            4.784504,
            52.338425
          ],
          [
            4.784391,
            52.338398
          ],
          [
            4.784294,
            52.338375
          ],
          [
            4.784203,
            52.33836
          ],
          [
            4.784106,
            52.338337
          ],
          [
            4.783923,
            52.338295
          ],
          [
            4.783816,
            52.338264
          ],
          [
            4.783725,
            52.338234
          ],
          [
            4.783641,
            52.3382
          ],
          [
            4.78356,
            52.338161
          ],
          [
            4.783483,
            52.33812
          ],
          [
            4.783333,
            52.338036
          ],
          [
            4.783262,
            52.337994
          ],
          [
            4.783187,
            52.337948
          ],
          [
            4.783115,
            52.337898
          ],
          [
            4.782981,
            52.337814
          ],
          [
            4.782911,
            52.337765
          ],
          [
            4.782833,
            52.337723
          ],
          [
            4.78275,
            52.337681
          ],
          [
            4.782577,
            52.337616
          ],
          [
            4.782485,
            52.337582
          ],
          [
            4.782402,
            52.337555
          ],
          [
            4.782204,
            52.337505
          ],
          [
            4.78211,
            52.337494
          ],
          [
            4.782008,
            52.337479
          ],
          [
            4.781928,
            52.337471
          ],
          [
            4.781804,
            52.337463
          ],
          [
            4.781706,
            52.337463
          ],
          [
            4.781613,
            52.33746
          ],
          [
            4.781517,
            52.33746
          ],
          [
            4.781318,
            52.337475
          ],
          [
            4.78121,
            52.337494
          ],
          [
            4.781118,
            52.337509
          ],
          [
            4.781022,
            52.337532
          ],
          [
            4.780937,
            52.337555
          ],
          [
            4.780832,
            52.337582
          ],
          [
            4.780745,
            52.337612
          ],
          [
            4.780659,
            52.337639
          ],
          [
            4.780572,
            52.337658
          ],
          [
            4.78037,
            52.337715
          ],
          [
            4.78019,
            52.337765
          ],
          [
            4.780004,
            52.337822
          ],
          [
            4.77982,
            52.337875
          ],
          [
            4.779641,
            52.337929
          ],
          [
            4.779551,
            52.337955
          ],
          [
            4.779468,
            52.337994
          ],
          [
            4.779394,
            52.338032
          ],
          [
            4.77932,
            52.33807
          ],
          [
            4.779244,
            52.338108
          ],
          [
            4.779165,
            52.338142
          ],
          [
            4.779074,
            52.338192
          ],
          [
            4.778997,
            52.338234
          ],
          [
            4.778924,
            52.338272
          ],
          [
            4.778848,
            52.33831
          ],
          [
            4.778776,
            52.338348
          ],
          [
            4.778666,
            52.338428
          ],
          [
            4.778601,
            52.338459
          ],
          [
            4.778525,
            52.338486
          ],
          [
            4.77845,
            52.33852
          ],
          [
            4.778373,
            52.338547
          ],
          [
            4.7783,
            52.338566
          ],
          [
            4.77824,
            52.338623
          ],
          [
            4.778232,
            52.338646
          ],
          [
            4.77825,
            52.338657
          ],
          [
            4.778355,
            52.338715
          ],
          [
            4.778414,
            52.338741
          ],
          [
            4.778479,
            52.338772
          ],
          [
            4.778537,
            52.338806
          ],
          [
            4.778582,
            52.338837
          ],
          [
            4.778632,
            52.338871
          ],
          [
            4.778677,
            52.338917
          ],
          [
            4.778713,
            52.338951
          ],
          [
            4.778742,
            52.338997
          ],
          [
            4.77877,
            52.339035
          ],
          [
            4.778793,
            52.339069
          ],
          [
            4.778826,
            52.339142
          ],
          [
            4.778849,
            52.33918
          ],
          [
            4.778876,
            52.339214
          ],
          [
            4.778903,
            52.339249
          ],
          [
            4.778923,
            52.339279
          ],
          [
            4.778945,
            52.339348
          ],
          [
            4.778932,
            52.339378
          ],
          [
            4.778966,
            52.339436
          ],
          [
            4.779001,
            52.339466
          ],
          [
            4.779017,
            52.339481
          ],
          [
            4.779014,
            52.339489
          ],
          [
            4.779014,
            52.339489
          ],
          [
            4.778989,
            52.3395
          ],
          [
            4.778989,
            52.3395
          ],
          [
            4.77927,
            52.339394
          ],
          [
            4.77927,
            52.339394
          ],
          [
            4.77927,
            52.339394
          ]
        ]
      }
    }
  ]
}