{
  "type": "FeatureCollection",
  "features": [
    {
      "type": "Feature",
      "properties": {
        "id": "amsterdam-to-badhoevedorp-ride-45ab1e00-5c74-11f1-8ad1-a40dbc8fa83a",
        "title": "Amsterdam to Badhoevedorp ride",
        "source": "Amsterdam to Badhoevedorp ride-45ab1e00-5c74-11f1-8ad1-a40dbc8fa83a.fit"
      },
      "geometry": {
        "type": "LineString",
        "coordinates": [
          [
            4.866467,
            52.360638
          ],
          [
            4.866467,
            52.360638
          ],
          [
            4.866467,
            52.360638
          ],
          [
            4.866286,
            52.360508
          ],
          [
            4.866286,
            52.360508
          ],
          [
            4.866286,
            52.360508
          ],
          [
            4.866226,
            52.360527
          ],
          [
            4.866213,
            52.360516
          ],
          [
            4.866199,
            52.360519
          ],
          [
            4.866176,
            52.360512
          ],
          [
            4.866151,
            52.3605
          ],
          [
            4.866121,
            52.360497
          ],
          [
            4.866074,
            52.360485
          ],
          [
            4.866035,
            52.360477
          ],
          [
            4.865979,
            52.36047
          ],
          [
            4.86593,
            52.36047
          ],
          [
            4.86589,
            52.360466
          ],
          [
            4.865858,
            52.36047
          ],
          [
            4.865824,
            52.36047
          ],
          [
            4.865824,
            52.36047
          ],
          [
            4.865824,
            52.36047
          ],
          [
            4.865824,
            52.36047
          ],
          [
            4.865715,
            52.360462
          ],
          [
            4.865715,
            52.360462
          ],
          [
            4.865683,
            52.360447
          ],
          [
            4.865673,
            52.360443
          ],
          [
            4.865673,
            52.360443
          ],
          [
            4.865635,
            52.360443
          ],
          [
            4.865635,
            52.360443
          ],
          [
            4.865635,
            52.360443
          ],
          [
            4.865635,
            52.360443
          ],
          [
            4.865635,
            52.360443
          ],
          [
            4.865576,
            52.360436
          ],
          [
            4.865559,
            52.360432
          ],
          [
            4.865552,
            52.360428
          ],
          [
            4.865527,
            52.36042
          ],
          [
            4.8655,
            52.360413
          ],
          [
            4.865457,
            52.360397
          ],
          [
            4.865422,
            52.360386
          ],
          [
            4.865422,
            52.360386
          ],
          [
            4.865344,
            52.360355
          ],
          [
            4.865344,
            52.360355
          ],
          [
            4.865344,
            52.360355
          ],
          [
            4.865344,
            52.360355
          ],
          [
            4.865271,
            52.360332
          ],
          [
            4.865274,
            52.360321
          ],
          [
            4.865279,
            52.360317
          ],
          [
            4.865283,
            52.360306
          ],
          [
            4.865288,
            52.360294
          ],
          [
            4.865295,
            52.360283
          ],
          [
            4.865295,
            52.360283
          ],
          [
            4.865321,
            52.360229
          ],
          [
            4.865336,
            52.360207
          ],
          [
            4.865342,
            52.360191
          ],
          [
            4.865343,
            52.36018
          ],
          [
            4.865341,
            52.360168
          ],
          [
            4.865327,
            52.360149
          ],
          [
            4.865303,
            52.360142
          ],
          [
            4.865278,
            52.360134
          ],
          [
            4.865232,
            52.360123
          ],
          [
            4.865193,
            52.360115
          ],
          [
            4.865146,
            52.360104
          ],
          [
            4.865097,
            52.360092
          ],
          [
            4.865042,
            52.360077
          ],
          [
            4.864992,
            52.360065
          ],
          [
            4.864937,
            52.360046
          ],
          [
            4.864885,
            52.360031
          ],
          [
            4.864853,
            52.360027
          ],
          [
            4.864826,
            52.360004
          ],
          [
            4.8648,
            52.359997
          ],
          [
            4.864787,
            52.359966
          ],
          [
            4.864785,
            52.35994
          ],
          [
            4.864797,
            52.359917
          ],
          [
            4.864803,
            52.359875
          ],
          [
            4.864826,
            52.359844
          ],
          [
            4.864845,
            52.35981
          ],
          [
            4.864876,
            52.35976
          ],
          [
            4.8649,
            52.359718
          ],
          [
            4.864938,
            52.359669
          ],
          [
            4.864967,
            52.359627
          ],
          [
            4.864999,
            52.359592
          ],
          [
            4.865034,
            52.359543
          ],
          [
            4.865062,
            52.359501
          ],
          [
            4.865093,
            52.359463
          ],
          [
            4.865124,
            52.359417
          ],
          [
            4.865157,
            52.359371
          ],
          [
            4.865185,
            52.359337
          ],
          [
            4.86522,
            52.359295
          ],
          [
            4.865258,
            52.359253
          ],
          [
            4.865294,
            52.359215
          ],
          [
            4.86533,
            52.359177
          ],
          [
            4.865361,
            52.359142
          ],
          [
            4.865388,
            52.359108
          ],
          [
            4.865418,
            52.359081
          ],
          [
            4.865438,
            52.359047
          ],
          [
            4.865456,
            52.359016
          ],
          [
            4.865459,
            52.358982
          ],
          [
            4.865456,
            52.358944
          ],
          [
            4.865437,
            52.358906
          ],
          [
            4.86541,
            52.358871
          ],
          [
            4.865375,
            52.358845
          ],
          [
            4.865329,
            52.358822
          ],
          [
            4.865277,
            52.358803
          ],
          [
            4.86523,
            52.358784
          ],
          [
            4.865169,
            52.358772
          ],
          [
            4.865108,
            52.358761
          ],
          [
            4.86504,
            52.358746
          ],
          [
            4.864975,
            52.35873
          ],
          [
            4.864913,
            52.358719
          ],
          [
            4.864838,
            52.3587
          ],
          [
            4.864776,
            52.358688
          ],
          [
            4.864771,
            52.358685
          ],
          [
            4.864645,
            52.358654
          ],
          [
            4.864553,
            52.358635
          ],
          [
            4.864468,
            52.358616
          ],
          [
            4.864384,
            52.358593
          ],
          [
            4.864301,
            52.358574
          ],
          [
            4.864275,
            52.358566
          ],
          [
            4.864146,
            52.358532
          ],
          [
            4.864069,
            52.358513
          ],
          [
            4.863964,
            52.358486
          ],
          [
            4.863872,
            52.358463
          ],
          [
            4.863777,
            52.35844
          ],
          [
            4.863678,
            52.35841
          ],
          [
            4.863573,
            52.358387
          ],
          [
            4.863468,
            52.35836
          ],
          [
            4.863357,
            52.35833
          ],
          [
            4.863254,
            52.358303
          ],
          [
            4.863191,
            52.358288
          ],
          [
            4.863099,
            52.358265
          ],
          [
            4.863045,
            52.358253
          ],
          [
            4.862999,
            52.358238
          ],
          [
            4.86296,
            52.358223
          ],
          [
            4.862922,
            52.358215
          ],
          [
            4.862871,
            52.358208
          ],
          [
            4.862814,
            52.358189
          ],
          [
            4.862746,
            52.358177
          ],
          [
            4.86268,
            52.358158
          ],
          [
            4.86261,
            52.358143
          ],
          [
            4.862545,
            52.358124
          ],
          [
            4.862474,
            52.358101
          ],
          [
            4.8624,
            52.358082
          ],
          [
            4.862324,
            52.358063
          ],
          [
            4.862253,
            52.358044
          ],
          [
            4.862173,
            52.358025
          ],
          [
            4.862098,
            52.358006
          ],
          [
            4.862041,
            52.357994
          ],
          [
            4.861942,
            52.357967
          ],
          [
            4.86187,
            52.357948
          ],
          [
            4.86179,
            52.357937
          ],
          [
            4.86172,
            52.357922
          ],
          [
            4.86166,
            52.357902
          ],
          [
            4.8616,
            52.357891
          ],
          [
            4.861553,
            52.357887
          ],
          [
            4.861521,
            52.357887
          ],
          [
            4.861493,
            52.357899
          ],
          [
            4.861466,
            52.357914
          ],
          [
            4.861434,
            52.357918
          ],
          [
            4.861399,
            52.357925
          ],
          [
            4.861355,
            52.357929
          ],
          [
            4.861315,
            52.357925
          ],
          [
            4.861263,
            52.357922
          ],
          [
            4.861219,
            52.357922
          ],
          [
            4.861173,
            52.357914
          ],
          [
            4.861132,
            52.357906
          ],
          [
            4.861087,
            52.357899
          ],
          [
            4.861055,
            52.357895
          ],
          [
            4.861022,
            52.357891
          ],
          [
            4.861022,
            52.357891
          ],
          [
            4.861022,
            52.357891
          ],
          [
            4.861022,
            52.357891
          ],
          [
            4.860939,
            52.35788
          ],
          [
            4.860939,
            52.35788
          ],
          [
            4.860906,
            52.35788
          ],
          [
            4.860906,
            52.35788
          ],
          [
            4.860876,
            52.357872
          ],
          [
            4.860876,
            52.357872
          ],
          [
            4.860876,
            52.357872
          ],
          [
            4.860824,
            52.357876
          ],
          [
            4.860824,
            52.357876
          ],
          [
            4.860796,
            52.357868
          ],
          [
            4.860796,
            52.357868
          ],
          [
            4.860761,
            52.357861
          ],
          [
            4.860737,
            52.357857
          ],
          [
            4.860722,
            52.357853
          ],
          [
            4.860708,
            52.357857
          ],
          [
            4.860683,
            52.357861
          ],
          [
            4.860671,
            52.35788
          ],
          [
            4.860655,
            52.357895
          ],
          [
            4.860645,
            52.357918
          ],
          [
            4.860632,
            52.357941
          ],
          [
            4.86062,
            52.35796
          ],
          [
            4.860605,
            52.357986
          ],
          [
            4.860586,
            52.358009
          ],
          [
            4.860562,
            52.358036
          ],
          [
            4.860539,
            52.35807
          ],
          [
            4.860508,
            52.358101
          ],
          [
            4.86048,
            52.358143
          ],
          [
            4.860451,
            52.358173
          ],
          [
            4.860429,
            52.358212
          ],
          [
            4.860398,
            52.358246
          ],
          [
            4.860367,
            52.358284
          ],
          [
            4.860342,
            52.358322
          ],
          [
            4.860312,
            52.358356
          ],
          [
            4.860295,
            52.358387
          ],
          [
            4.86027,
            52.358425
          ],
          [
            4.860237,
            52.358463
          ],
          [
            4.860216,
            52.358498
          ],
          [
            4.860192,
            52.358528
          ],
          [
            4.860169,
            52.358559
          ],
          [
            4.860142,
            52.358601
          ],
          [
            4.860121,
            52.358631
          ],
          [
            4.860104,
            52.358662
          ],
          [
            4.86008,
            52.358685
          ],
          [
            4.860061,
            52.358715
          ],
          [
            4.860061,
            52.358715
          ],
          [
            4.860061,
            52.358715
          ],
          [
            4.860013,
            52.358818
          ],
          [
            4.860013,
            52.35883
          ],
          [
            4.860013,
            52.35883
          ],
          [
            4.860013,
            52.35883
          ],
          [
            4.860013,
            52.35883
          ],
          [
            4.860013,
            52.35883
          ],
          [
            4.860011,
            52.358871
          ],
          [
            4.860011,
            52.358871
          ],
          [
            4.860011,
            52.358871
          ],
          [
            4.860011,
            52.358871
          ],
          [
            4.860017,
            52.358883
          ],
          [
            4.860012,
            52.358891
          ],
          [
            4.860007,
            52.358898
          ],
          [
            4.859998,
            52.358913
          ],
          [
            4.859988,
            52.358921
          ],
          [
            4.859967,
            52.35894
          ],
          [
            4.859937,
            52.358963
          ],
          [
            4.85991,
            52.358974
          ],
          [
            4.859869,
            52.35899
          ],
          [
            4.859834,
            52.358997
          ],
          [
            4.859787,
            52.358997
          ],
          [
            4.859737,
            52.35899
          ],
          [
            4.859681,
            52.358978
          ],
          [
            4.859625,
            52.358967
          ],
          [
            4.859563,
            52.358952
          ],
          [
            4.859507,
            52.358936
          ],
          [
            4.859436,
            52.358917
          ],
          [
            4.859365,
            52.358902
          ],
          [
            4.859302,
            52.358883
          ],
          [
            4.859228,
            52.358864
          ],
          [
            4.859151,
            52.358845
          ],
          [
            4.85908,
            52.358826
          ],
          [
            4.859003,
            52.358807
          ],
          [
            4.858927,
            52.358784
          ],
          [
            4.858844,
            52.358761
          ],
          [
            4.858765,
            52.358742
          ],
          [
            4.85869,
            52.358723
          ],
          [
            4.858668,
            52.358715
          ],
          [
            4.858544,
            52.358681
          ],
          [
            4.858455,
            52.358654
          ],
          [
            4.85837,
            52.358631
          ],
          [
            4.858284,
            52.358608
          ],
          [
            4.858193,
            52.358585
          ],
          [
            4.858106,
            52.358562
          ],
          [
            4.858019,
            52.35854
          ],
          [
            4.857931,
            52.358517
          ],
          [
            4.857837,
            52.358494
          ],
          [
            4.857749,
            52.358475
          ],
          [
            4.857663,
            52.358452
          ],
          [
            4.85758,
            52.358429
          ],
          [
            4.857497,
            52.35841
          ],
          [
            4.857418,
            52.358387
          ],
          [
            4.857362,
            52.358372
          ],
          [
            4.857269,
            52.358349
          ],
          [
            4.857192,
            52.35833
          ],
          [
            4.857174,
            52.358322
          ],
          [
            4.857042,
            52.358292
          ],
          [
            4.856948,
            52.358265
          ],
          [
            4.856862,
            52.358246
          ],
          [
            4.856772,
            52.358223
          ],
          [
            4.856688,
            52.358204
          ],
          [
            4.856605,
            52.358181
          ],
          [
            4.856518,
            52.358158
          ],
          [
            4.856428,
            52.358135
          ],
          [
            4.856342,
            52.358116
          ],
          [
            4.856257,
            52.358093
          ],
          [
            4.856171,
            52.35807
          ],
          [
            4.856082,
            52.358047
          ],
          [
            4.856001,
            52.358028
          ],
          [
            4.85591,
            52.358006
          ],
          [
            4.85583,
            52.357986
          ],
          [
            4.855759,
            52.357967
          ],
          [
            4.855681,
            52.357948
          ],
          [
            4.855605,
            52.357925
          ],
          [
            4.855538,
            52.35791
          ],
          [
            4.855475,
            52.357899
          ],
          [
            4.855421,
            52.357887
          ],
          [
            4.855363,
            52.357876
          ],
          [
            4.855363,
            52.357876
          ],
          [
            4.855363,
            52.357876
          ],
          [
            4.855363,
            52.357876
          ],
          [
            4.855217,
            52.357841
          ],
          [
            4.855208,
            52.357834
          ],
          [
            4.855203,
            52.35783
          ],
          [
            4.855195,
            52.357819
          ],
          [
            4.855178,
            52.357803
          ],
          [
            4.855151,
            52.357777
          ],
          [
            4.855121,
            52.357746
          ],
          [
            4.855089,
            52.357712
          ],
          [
            4.855053,
            52.357674
          ],
          [
            4.855018,
            52.357639
          ],
          [
            4.854975,
            52.357597
          ],
          [
            4.85494,
            52.357548
          ],
          [
            4.8549,
            52.357506
          ],
          [
            4.854854,
            52.357449
          ],
          [
            4.854805,
            52.357391
          ],
          [
            4.854761,
            52.357338
          ],
          [
            4.854711,
            52.357273
          ],
          [
            4.854666,
            52.357216
          ],
          [
            4.85463,
            52.357162
          ],
          [
            4.854592,
            52.357101
          ],
          [
            4.854557,
            52.357021
          ],
          [
            4.854529,
            52.356934
          ],
          [
            4.854513,
            52.356834
          ],
          [
            4.854515,
            52.356743
          ],
          [
            4.854527,
            52.356667
          ],
          [
            4.854549,
            52.356583
          ],
          [
            4.854564,
            52.356533
          ],
          [
            4.85462,
            52.3564
          ],
          [
            4.854656,
            52.356323
          ],
          [
            4.854691,
            52.356251
          ],
          [
            4.85472,
            52.35619
          ],
          [
            4.854752,
            52.356121
          ],
          [
            4.85478,
            52.356064
          ],
          [
            4.854817,
            52.355999
          ],
          [
            4.854824,
            52.355968
          ],
          [
            4.854847,
            52.355919
          ],
          [
            4.854871,
            52.355862
          ],
          [
            4.854899,
            52.355801
          ],
          [
            4.85492,
            52.35574
          ],
          [
            4.85494,
            52.355694
          ],
          [
            4.854964,
            52.355648
          ],
          [
            4.854985,
            52.355591
          ],
          [
            4.855011,
            52.355534
          ],
          [
            4.855039,
            52.355465
          ],
          [
            4.855056,
            52.355415
          ],
          [
            4.855073,
            52.35537
          ],
          [
            4.855088,
            52.35532
          ],
          [
            4.855106,
            52.355267
          ],
          [
            4.855123,
            52.355217
          ],
          [
            4.855135,
            52.355167
          ],
          [
            4.855155,
            52.355114
          ],
          [
            4.855172,
            52.355057
          ],
          [
            4.855194,
            52.354996
          ],
          [
            4.855197,
            52.354946
          ],
          [
            4.855203,
            52.354904
          ],
          [
            4.855185,
            52.354866
          ],
          [
            4.855164,
            52.354839
          ],
          [
            4.855128,
            52.35482
          ],
          [
            4.855082,
            52.354809
          ],
          [
            4.855024,
            52.354794
          ],
          [
            4.854962,
            52.354786
          ],
          [
            4.854958,
            52.354782
          ],
          [
            4.854837,
            52.354763
          ],
          [
            4.854807,
            52.354759
          ],
          [
            4.854681,
            52.354748
          ],
          [
            4.854611,
            52.35474
          ],
          [
            4.854508,
            52.354736
          ],
          [
            4.854418,
            52.354736
          ],
          [
            4.854336,
            52.354736
          ],
          [
            4.854288,
            52.354736
          ],
          [
            4.854178,
            52.35474
          ],
          [
            4.854091,
            52.354744
          ],
          [
            4.853915,
            52.354759
          ],
          [
            4.853832,
            52.354767
          ],
          [
            4.853808,
            52.354767
          ],
          [
            4.853687,
            52.354782
          ],
          [
            4.853626,
            52.35479
          ],
          [
            4.853515,
            52.354797
          ],
          [
            4.853432,
            52.354805
          ],
          [
            4.853347,
            52.354813
          ],
          [
            4.853267,
            52.354816
          ],
          [
            4.853221,
            52.354816
          ],
          [
            4.853113,
            52.354824
          ],
          [
            4.853015,
            52.354832
          ],
          [
            4.852923,
            52.354839
          ],
          [
            4.852832,
            52.354847
          ],
          [
            4.852779,
            52.354851
          ],
          [
            4.852656,
            52.354858
          ],
          [
            4.852551,
            52.354866
          ],
          [
            4.852452,
            52.35487
          ],
          [
            4.852357,
            52.354874
          ],
          [
            4.852269,
            52.354874
          ],
          [
            4.852167,
            52.354874
          ],
          [
            4.852069,
            52.354877
          ],
          [
            4.851972,
            52.354881
          ],
          [
            4.851953,
            52.354881
          ],
          [
            4.851808,
            52.354904
          ],
          [
            4.851703,
            52.354916
          ],
          [
            4.851611,
            52.354931
          ],
          [
            4.851517,
            52.354942
          ],
          [
            4.851426,
            52.354954
          ],
          [
            4.851337,
            52.354961
          ],
          [
            4.851264,
            52.354965
          ],
          [
            4.851157,
            52.354965
          ],
          [
            4.851061,
            52.354969
          ],
          [
            4.850969,
            52.354969
          ],
          [
            4.850894,
            52.354969
          ],
          [
            4.850785,
            52.354969
          ],
          [
            4.850687,
            52.354969
          ],
          [
            4.850593,
            52.354969
          ],
          [
            4.850518,
            52.354969
          ],
          [
            4.850409,
            52.354969
          ],
          [
            4.85038,
            52.354969
          ],
          [
            4.850237,
            52.354969
          ],
          [
            4.850128,
            52.354965
          ],
          [
            4.850035,
            52.354965
          ],
          [
            4.849944,
            52.354961
          ],
          [
            4.849854,
            52.354961
          ],
          [
            4.849781,
            52.354965
          ],
          [
            4.849674,
            52.354965
          ],
          [
            4.849582,
            52.354965
          ],
          [
            4.849492,
            52.354969
          ],
          [
            4.849407,
            52.354969
          ],
          [
            4.849321,
            52.354973
          ],
          [
            4.849285,
            52.354973
          ],
          [
            4.849157,
            52.35498
          ],
          [
            4.849061,
            52.35498
          ],
          [
            4.84897,
            52.354984
          ],
          [
            4.848879,
            52.354984
          ],
          [
            4.848782,
            52.354984
          ],
          [
            4.848694,
            52.354984
          ],
          [
            4.848603,
            52.354988
          ],
          [
            4.848519,
            52.354984
          ],
          [
            4.848513,
            52.354984
          ],
          [
            4.848362,
            52.354984
          ],
          [
            4.848256,
            52.354984
          ],
          [
            4.848164,
            52.354984
          ],
          [
            4.848095,
            52.35498
          ],
          [
            4.84799,
            52.354977
          ],
          [
            4.847903,
            52.354973
          ],
          [
            4.847823,
            52.354969
          ],
          [
            4.847745,
            52.354965
          ],
          [
            4.847711,
            52.354961
          ],
          [
            4.847603,
            52.354954
          ],
          [
            4.847534,
            52.35495
          ],
          [
            4.847436,
            52.354946
          ],
          [
            4.847357,
            52.354946
          ],
          [
            4.847272,
            52.354946
          ],
          [
            4.847193,
            52.354942
          ],
          [
            4.847118,
            52.354942
          ],
          [
            4.847027,
            52.354942
          ],
          [
            4.846943,
            52.354942
          ],
          [
            4.846862,
            52.354942
          ],
          [
            4.846778,
            52.354942
          ],
          [
            4.846708,
            52.354935
          ],
          [
            4.846647,
            52.354927
          ],
          [
            4.846594,
            52.354919
          ],
          [
            4.846537,
            52.354912
          ],
          [
            4.846487,
            52.354897
          ],
          [
            4.846438,
            52.354877
          ],
          [
            4.84638,
            52.354866
          ],
          [
            4.846322,
            52.354858
          ],
          [
            4.846255,
            52.354855
          ],
          [
            4.846194,
            52.354847
          ],
          [
            4.846138,
            52.354832
          ],
          [
            4.846098,
            52.354824
          ],
          [
            4.846059,
            52.354797
          ],
          [
            4.846032,
            52.354755
          ],
          [
            4.846008,
            52.354733
          ],
          [
            4.846,
            52.354687
          ],
          [
            4.845991,
            52.354637
          ],
          [
            4.84599,
            52.354599
          ],
          [
            4.845984,
            52.354549
          ],
          [
            4.845977,
            52.354488
          ],
          [
            4.845974,
            52.35445
          ],
          [
            4.845969,
            52.354385
          ],
          [
            4.845966,
            52.354347
          ],
          [
            4.84596,
            52.354313
          ],
          [
            4.845963,
            52.354256
          ],
          [
            4.845968,
            52.35421
          ],
          [
            4.845974,
            52.354149
          ],
          [
            4.845976,
            52.354092
          ],
          [
            4.845977,
            52.354042
          ],
          [
            4.845983,
            52.353996
          ],
          [
            4.845978,
            52.353935
          ],
          [
            4.845974,
            52.353878
          ],
          [
            4.845974,
            52.353821
          ],
          [
            4.845975,
            52.35376
          ],
          [
            4.845976,
            52.353687
          ],
          [
            4.84598,
            52.353634
          ],
          [
            4.845986,
            52.35358
          ],
          [
            4.845988,
            52.353516
          ],
          [
            4.845995,
            52.353439
          ],
          [
            4.845998,
            52.353359
          ],
          [
            4.845999,
            52.353306
          ],
          [
            4.84601,
            52.353256
          ],
          [
            4.846001,
            52.35321
          ],
          [
            4.846005,
            52.353104
          ],
          [
            4.846007,
            52.353027
          ],
          [
            4.846009,
            52.352959
          ],
          [
            4.846012,
            52.352913
          ],
          [
            4.846014,
            52.352852
          ],
          [
            4.846011,
            52.352776
          ],
          [
            4.846011,
            52.352718
          ],
          [
            4.846013,
            52.352673
          ],
          [
            4.846009,
            52.352592
          ],
          [
            4.846007,
            52.352539
          ],
          [
            4.846006,
            52.352478
          ],
          [
            4.846006,
            52.352413
          ],
          [
            4.846004,
            52.352356
          ],
          [
            4.845998,
            52.352287
          ],
          [
            4.846002,
            52.352215
          ],
          [
            4.845996,
            52.352142
          ],
          [
            4.845993,
            52.352062
          ],
          [
            4.845993,
            52.352032
          ],
          [
            4.845991,
            52.351971
          ],
          [
            4.846,
            52.351917
          ],
          [
            4.845998,
            52.351856
          ],
          [
            4.845994,
            52.351818
          ],
          [
            4.845972,
            52.351776
          ],
          [
            4.845935,
            52.351738
          ],
          [
            4.84588,
            52.351719
          ],
          [
            4.845822,
            52.351707
          ],
          [
            4.845751,
            52.3517
          ],
          [
            4.845679,
            52.351696
          ],
          [
            4.845647,
            52.351692
          ],
          [
            4.845523,
            52.351688
          ],
          [
            4.845429,
            52.351688
          ],
          [
            4.845376,
            52.351688
          ],
          [
            4.845245,
            52.351685
          ],
          [
            4.84513,
            52.351685
          ],
          [
            4.845075,
            52.351681
          ],
          [
            4.844888,
            52.351685
          ],
          [
            4.844741,
            52.351685
          ],
          [
            4.844665,
            52.351685
          ],
          [
            4.844482,
            52.351685
          ],
          [
            4.844335,
            52.351685
          ],
          [
            4.844328,
            52.351688
          ],
          [
            4.844093,
            52.351692
          ],
          [
            4.843966,
            52.351692
          ],
          [
            4.843845,
            52.351692
          ],
          [
            4.843745,
            52.351688
          ],
          [
            4.843602,
            52.351681
          ],
          [
            4.843484,
            52.351677
          ],
          [
            4.843429,
            52.351677
          ],
          [
            4.843264,
            52.351677
          ],
          [
            4.843164,
            52.351673
          ],
          [
            4.843171,
            52.351673
          ],
          [
            4.843064,
            52.351673
          ],
          [
            4.842977,
            52.351673
          ],
          [
            4.842861,
            52.351673
          ],
          [
            4.842695,
            52.351677
          ],
          [
            4.842417,
            52.351673
          ],
          [
            4.842338,
            52.351681
          ],
          [
            4.842274,
            52.351685
          ],
          [
            4.842168,
            52.351688
          ],
          [
            4.842055,
            52.351692
          ],
          [
            4.841872,
            52.351692
          ],
          [
            4.841827,
            52.351692
          ],
          [
            4.841733,
            52.351688
          ],
          [
            4.841593,
            52.351685
          ],
          [
            4.841496,
            52.351677
          ],
          [
            4.841418,
            52.351673
          ],
          [
            4.841357,
            52.351673
          ],
          [
            4.841295,
            52.351673
          ],
          [
            4.841239,
            52.351673
          ],
          [
            4.841175,
            52.351669
          ],
          [
            4.84112,
            52.351669
          ],
          [
            4.841054,
            52.351666
          ],
          [
            4.840996,
            52.351666
          ],
          [
            4.840926,
            52.351666
          ],
          [
            4.840858,
            52.351666
          ],
          [
            4.840821,
            52.351666
          ],
          [
            4.840716,
            52.351666
          ],
          [
            4.84063,
            52.351669
          ],
          [
            4.840607,
            52.351673
          ],
          [
            4.840544,
            52.351673
          ],
          [
            4.840399,
            52.351673
          ],
          [
            4.840329,
            52.351673
          ],
          [
            4.840234,
            52.351673
          ],
          [
            4.840105,
            52.351673
          ],
          [
            4.840074,
            52.351669
          ],
          [
            4.839852,
            52.351669
          ],
          [
            4.839689,
            52.351669
          ],
          [
            4.839551,
            52.351669
          ],
          [
            4.839434,
            52.351673
          ],
          [
            4.839376,
            52.351673
          ],
          [
            4.8392,
            52.351669
          ],
          [
            4.839078,
            52.351669
          ],
          [
            4.839037,
            52.351669
          ],
          [
            4.838861,
            52.351666
          ],
          [
            4.838842,
            52.351666
          ],
          [
            4.838749,
            52.351666
          ],
          [
            4.838676,
            52.351666
          ],
          [
            4.838593,
            52.351666
          ],
          [
            4.838507,
            52.351666
          ],
          [
            4.838413,
            52.351666
          ],
          [
            4.838328,
            52.351669
          ],
          [
            4.838213,
            52.351669
          ],
          [
            4.838091,
            52.351673
          ],
          [
            4.838021,
            52.351673
          ],
          [
            4.837878,
            52.351673
          ],
          [
            4.837783,
            52.351673
          ],
          [
            4.837672,
            52.351673
          ],
          [
            4.837606,
            52.351673
          ],
          [
            4.837463,
            52.351673
          ],
          [
            4.837333,
            52.351669
          ],
          [
            4.837311,
            52.351669
          ],
          [
            4.837171,
            52.351669
          ],
          [
            4.837092,
            52.351669
          ],
          [
            4.836963,
            52.351666
          ],
          [
            4.836918,
            52.351666
          ],
          [
            4.836826,
            52.351666
          ],
          [
            4.836597,
            52.351662
          ],
          [
            4.83646,
            52.351658
          ],
          [
            4.836418,
            52.351662
          ],
          [
            4.836297,
            52.351658
          ],
          [
            4.836181,
            52.351658
          ],
          [
            4.836005,
            52.351666
          ],
          [
            4.835962,
            52.351666
          ],
          [
            4.835893,
            52.351662
          ],
          [
            4.835833,
            52.351662
          ],
          [
            4.835695,
            52.351658
          ],
          [
            4.835555,
            52.351658
          ],
          [
            4.835438,
            52.351654
          ],
          [
            4.835344,
            52.35165
          ],
          [
            4.835219,
            52.351643
          ],
          [
            4.835018,
            52.351639
          ],
          [
            4.834905,
            52.351635
          ],
          [
            4.834803,
            52.351635
          ],
          [
            4.834757,
            52.351635
          ],
          [
            4.83466,
            52.351635
          ],
          [
            4.83459,
            52.351635
          ],
          [
            4.834527,
            52.351639
          ],
          [
            4.83442,
            52.351639
          ],
          [
            4.834306,
            52.351639
          ],
          [
            4.834174,
            52.351643
          ],
          [
            4.834181,
            52.351639
          ],
          [
            4.833994,
            52.351631
          ],
          [
            4.83382,
            52.351624
          ],
          [
            4.833751,
            52.35162
          ],
          [
            4.833648,
            52.35162
          ],
          [
            4.833571,
            52.35162
          ],
          [
            4.833435,
            52.35162
          ],
          [
            4.833315,
            52.35162
          ],
          [
            4.833202,
            52.35162
          ],
          [
            4.833108,
            52.35162
          ],
          [
            4.833059,
            52.35162
          ],
          [
            4.832938,
            52.35162
          ],
          [
            4.832814,
            52.351624
          ],
          [
            4.832753,
            52.351624
          ],
          [
            4.832593,
            52.35162
          ],
          [
            4.83249,
            52.35162
          ],
          [
            4.832333,
            52.351616
          ],
          [
            4.83224,
            52.351616
          ],
          [
            4.832126,
            52.351616
          ],
          [
            4.832089,
            52.351616
          ],
          [
            4.831907,
            52.351612
          ],
          [
            4.831832,
            52.351612
          ],
          [
            4.831682,
            52.351616
          ],
          [
            4.831564,
            52.351612
          ],
          [
            4.831571,
            52.351616
          ],
          [
            4.831475,
            52.351616
          ],
          [
            4.831427,
            52.351612
          ],
          [
            4.831296,
            52.351612
          ],
          [
            4.83111,
            52.351612
          ],
          [
            4.830983,
            52.351604
          ],
          [
            4.830875,
            52.351601
          ],
          [
            4.830771,
            52.351597
          ],
          [
            4.830667,
            52.351593
          ],
          [
            4.830631,
            52.351593
          ],
          [
            4.830469,
            52.351585
          ],
          [
            4.830364,
            52.351582
          ],
          [
            4.830253,
            52.351582
          ],
          [
            4.830168,
            52.351582
          ],
          [
            4.830103,
            52.351582
          ],
          [
            4.829988,
            52.351578
          ],
          [
            4.829866,
            52.351574
          ],
          [
            4.829798,
            52.351578
          ],
          [
            4.829762,
            52.351574
          ],
          [
            4.829666,
            52.351574
          ],
          [
            4.829475,
            52.351566
          ],
          [
            4.829365,
            52.35157
          ],
          [
            4.829276,
            52.35157
          ],
          [
            4.829168,
            52.35157
          ],
          [
            4.82912,
            52.35157
          ],
          [
            4.828966,
            52.35157
          ],
          [
            4.828812,
            52.35157
          ],
          [
            4.828665,
            52.351574
          ],
          [
            4.828558,
            52.351574
          ],
          [
            4.828423,
            52.351578
          ],
          [
            4.828372,
            52.351582
          ],
          [
            4.828259,
            52.351582
          ],
          [
            4.828096,
            52.351578
          ],
          [
            4.827873,
            52.351574
          ],
          [
            4.827815,
            52.351574
          ],
          [
            4.827708,
            52.35157
          ],
          [
            4.827584,
            52.351566
          ],
          [
            4.827507,
            52.351566
          ],
          [
            4.827353,
            52.351563
          ],
          [
            4.827238,
            52.351559
          ],
          [
            4.827089,
            52.351547
          ],
          [
            4.827008,
            52.351543
          ],
          [
            4.826868,
            52.351536
          ],
          [
            4.826805,
            52.351536
          ],
          [
            4.826666,
            52.35154
          ],
          [
            4.826555,
            52.351536
          ],
          [
            4.826539,
            52.351536
          ],
          [
            4.82639,
            52.351536
          ],
          [
            4.826279,
            52.351532
          ],
          [
            4.826235,
            52.351528
          ],
          [
            4.826123,
            52.351524
          ],
          [
            4.825961,
            52.351517
          ],
          [
            4.825859,
            52.351513
          ],
          [
            4.825856,
            52.351513
          ],
          [
            4.825841,
            52.351509
          ],
          [
            4.825676,
            52.351498
          ],
          [
            4.825577,
            52.351494
          ],
          [
            4.825522,
            52.35149
          ],
          [
            4.825372,
            52.351482
          ],
          [
            4.825332,
            52.351479
          ],
          [
            4.825222,
            52.351475
          ],
          [
            4.825023,
            52.351475
          ],
          [
            4.824881,
            52.351475
          ],
          [
            4.82479,
            52.351475
          ],
          [
            4.824727,
            52.351475
          ],
          [
            4.824606,
            52.351475
          ],
          [
            4.824517,
            52.351475
          ],
          [
            4.824328,
            52.351475
          ],
          [
            4.824204,
            52.351475
          ],
          [
            4.824162,
            52.351479
          ],
          [
            4.823988,
            52.351482
          ],
          [
            4.823858,
            52.351486
          ],
          [
            4.823826,
            52.35149
          ],
          [
            4.823692,
            52.35149
          ],
          [
            4.823571,
            52.351486
          ],
          [
            4.823506,
            52.351486
          ],
          [
            4.823411,
            52.351486
          ],
          [
            4.823295,
            52.351482
          ],
          [
            4.823174,
            52.351479
          ],
          [
            4.823084,
            52.351479
          ],
          [
            4.822933,
            52.351479
          ],
          [
            4.822828,
            52.351475
          ],
          [
            4.822743,
            52.351475
          ],
          [
            4.822717,
            52.351475
          ],
          [
            4.822566,
            52.351471
          ],
          [
            4.822462,
            52.351471
          ],
          [
            4.822364,
            52.351471
          ],
          [
            4.822268,
            52.351471
          ],
          [
            4.822212,
            52.351467
          ],
          [
            4.822136,
            52.351463
          ],
          [
            4.821958,
            52.351452
          ],
          [
            4.821887,
            52.351448
          ],
          [
            4.821729,
            52.35144
          ],
          [
            4.821606,
            52.351437
          ],
          [
            4.821468,
            52.351433
          ],
          [
            4.821403,
            52.351433
          ],
          [
            4.821266,
            52.351433
          ],
          [
            4.821161,
            52.351433
          ],
          [
            4.821079,
            52.351433
          ],
          [
            4.821006,
            52.351433
          ],
          [
            4.820858,
            52.351433
          ],
          [
            4.820742,
            52.351429
          ],
          [
            4.820621,
            52.351429
          ],
          [
            4.820502,
            52.351425
          ],
          [
            4.820415,
            52.351421
          ],
          [
            4.820281,
            52.351418
          ],
          [
            4.820232,
            52.351414
          ],
          [
            4.820076,
            52.351414
          ],
          [
            4.819969,
            52.35141
          ],
          [
            4.819869,
            52.35141
          ],
          [
            4.819794,
            52.35141
          ],
          [
            4.819684,
            52.351418
          ],
          [
            4.819592,
            52.351418
          ],
          [
            4.819516,
            52.351418
          ],
          [
            4.81941,
            52.351418
          ],
          [
            4.81931,
            52.351418
          ],
          [
            4.819186,
            52.351421
          ],
          [
            4.819128,
            52.351421
          ],
          [
            4.818942,
            52.351418
          ],
          [
            4.818865,
            52.351418
          ],
          [
            4.81872,
            52.351418
          ],
          [
            4.818649,
            52.351418
          ],
          [
            4.818566,
            52.351421
          ],
          [
            4.818461,
            52.351425
          ],
          [
            4.818351,
            52.351425
          ],
          [
            4.81827,
            52.351425
          ],
          [
            4.818194,
            52.351425
          ],
          [
            4.818114,
            52.351425
          ],
          [
            4.817824,
            52.351406
          ],
          [
            4.817711,
            52.351398
          ],
          [
            4.817584,
            52.351395
          ],
          [
            4.817506,
            52.351391
          ],
          [
            4.817399,
            52.351387
          ],
          [
            4.817279,
            52.351387
          ],
          [
            4.81719,
            52.351379
          ],
          [
            4.817124,
            52.351383
          ],
          [
            4.817018,
            52.351379
          ],
          [
            4.816882,
            52.351383
          ],
          [
            4.816789,
            52.351383
          ],
          [
            4.816567,
            52.351387
          ],
          [
            4.816496,
            52.351387
          ],
          [
            4.816355,
            52.351383
          ],
          [
            4.816259,
            52.351383
          ],
          [
            4.816188,
            52.351383
          ],
          [
            4.815988,
            52.351379
          ],
          [
            4.815838,
            52.351383
          ],
          [
            4.815732,
            52.351376
          ],
          [
            4.815633,
            52.351379
          ],
          [
            4.815532,
            52.351379
          ],
          [
            4.815467,
            52.351379
          ],
          [
            4.815329,
            52.351376
          ],
          [
            4.815241,
            52.351368
          ],
          [
            4.815117,
            52.35136
          ],
          [
            4.815016,
            52.35136
          ],
          [
            4.814948,
            52.351356
          ],
          [
            4.814809,
            52.351353
          ],
          [
            4.8147,
            52.351349
          ],
          [
            4.814603,
            52.351341
          ],
          [
            4.814416,
            52.351334
          ],
          [
            4.814289,
            52.351326
          ],
          [
            4.81419,
            52.351318
          ],
          [
            4.81409,
            52.351311
          ],
          [
            4.813989,
            52.351303
          ],
          [
            4.813921,
            52.351295
          ],
          [
            4.813785,
            52.351284
          ],
          [
            4.813687,
            52.351276
          ],
          [
            4.813586,
            52.351265
          ],
          [
            4.813485,
            52.351257
          ],
          [
            4.8134,
            52.351246
          ],
          [
            4.81329,
            52.351231
          ],
          [
            4.813195,
            52.351219
          ],
          [
            4.813093,
            52.351208
          ],
          [
            4.812994,
            52.351196
          ],
          [
            4.812927,
            52.351185
          ],
          [
            4.812793,
            52.35117
          ],
          [
            4.812695,
            52.351154
          ],
          [
            4.812593,
            52.351139
          ],
          [
            4.812494,
            52.35112
          ],
          [
            4.812396,
            52.351105
          ],
          [
            4.812347,
            52.351097
          ],
          [
            4.812211,
            52.35107
          ],
          [
            4.812127,
            52.351051
          ],
          [
            4.812049,
            52.351036
          ],
          [
            4.811968,
            52.351025
          ],
          [
            4.811883,
            52.351006
          ],
          [
            4.811785,
            52.350986
          ],
          [
            4.811688,
            52.35096
          ],
          [
            4.811604,
            52.350945
          ],
          [
            4.811511,
            52.350937
          ],
          [
            4.811432,
            52.350948
          ],
          [
            4.811351,
            52.350967
          ],
          [
            4.811272,
            52.350979
          ],
          [
            4.811192,
            52.350979
          ],
          [
            4.811069,
            52.350964
          ],
          [
            4.810974,
            52.350925
          ],
          [
            4.81091,
            52.350872
          ],
          [
            4.81075,
            52.350792
          ],
          [
            4.810668,
            52.350777
          ],
          [
            4.810588,
            52.350761
          ],
          [
            4.810497,
            52.35075
          ],
          [
            4.810373,
            52.350739
          ],
          [
            4.810282,
            52.350727
          ],
          [
            4.810175,
            52.350712
          ],
          [
            4.810108,
            52.350697
          ],
          [
            4.810039,
            52.350677
          ],
          [
            4.809943,
            52.350647
          ],
          [
            4.809815,
            52.350613
          ],
          [
            4.809727,
            52.350594
          ],
          [
            4.809639,
            52.350575
          ],
          [
            4.809535,
            52.350552
          ],
          [
            4.809477,
            52.35054
          ],
          [
            4.809322,
            52.35051
          ],
          [
            4.809212,
            52.350487
          ],
          [
            4.80911,
            52.350472
          ],
          [
            4.809012,
            52.350452
          ],
          [
            4.808924,
            52.350437
          ],
          [
            4.808811,
            52.350414
          ],
          [
            4.80871,
            52.350395
          ],
          [
            4.808513,
            52.350349
          ],
          [
            4.808435,
            52.350334
          ],
          [
            4.808315,
            52.350311
          ],
          [
            4.808217,
            52.350292
          ],
          [
            4.808123,
            52.350273
          ],
          [
            4.808023,
            52.350254
          ],
          [
            4.807952,
            52.350243
          ],
          [
            4.807825,
            52.35022
          ],
          [
            4.807729,
            52.350201
          ],
          [
            4.80763,
            52.350182
          ],
          [
            4.807532,
            52.350159
          ],
          [
            4.807457,
            52.350143
          ],
          [
            4.807337,
            52.350117
          ],
          [
            4.807244,
            52.350098
          ],
          [
            4.807147,
            52.350067
          ],
          [
            4.807054,
            52.350048
          ],
          [
            4.806963,
            52.350021
          ],
          [
            4.80685,
            52.349995
          ],
          [
            4.806757,
            52.349979
          ],
          [
            4.80666,
            52.34996
          ],
          [
            4.806617,
            52.349953
          ],
          [
            4.806604,
            52.349949
          ],
          [
            4.806507,
            52.34993
          ],
          [
            4.806431,
            52.349918
          ],
          [
            4.806348,
            52.349899
          ],
          [
            4.806262,
            52.349884
          ],
          [
            4.806176,
            52.349869
          ],
          [
            4.806164,
            52.349865
          ],
          [
            4.80602,
            52.349838
          ],
          [
            4.80591,
            52.349815
          ],
          [
            4.805809,
            52.349792
          ],
          [
            4.805714,
            52.349777
          ],
          [
            4.805657,
            52.349766
          ],
          [
            4.805446,
            52.349728
          ],
          [
            4.805362,
            52.349709
          ],
          [
            4.805247,
            52.349686
          ],
          [
            4.805197,
            52.349678
          ],
          [
            4.805065,
            52.349655
          ],
          [
            4.804952,
            52.349628
          ],
          [
            4.804851,
            52.349609
          ],
          [
            4.804761,
            52.34959
          ],
          [
            4.804734,
            52.349586
          ],
          [
            4.804642,
            52.349564
          ],
          [
            4.804489,
            52.349533
          ],
          [
            4.804371,
            52.34951
          ],
          [
            4.804271,
            52.349491
          ],
          [
            4.804197,
            52.349476
          ],
          [
            4.804075,
            52.349449
          ],
          [
            4.803992,
            52.349434
          ],
          [
            4.803876,
            52.349411
          ],
          [
            4.803782,
            52.349392
          ],
          [
            4.80375,
            52.349384
          ],
          [
            4.803685,
            52.349369
          ],
          [
            4.803513,
            52.349339
          ],
          [
            4.803395,
            52.349312
          ],
          [
            4.803289,
            52.349285
          ],
          [
            4.803184,
            52.349266
          ],
          [
            4.803019,
            52.349228
          ],
          [
            4.802905,
            52.349201
          ],
          [
            4.802791,
            52.349178
          ],
          [
            4.802681,
            52.349152
          ],
          [
            4.8026,
            52.349136
          ],
          [
            4.802477,
            52.34911
          ],
          [
            4.80239,
            52.349091
          ],
          [
            4.802282,
            52.349071
          ],
          [
            4.802173,
            52.349052
          ],
          [
            4.801967,
            52.349007
          ],
          [
            4.801871,
            52.348988
          ],
          [
            4.801765,
            52.348965
          ],
          [
            4.801662,
            52.348942
          ],
          [
            4.801595,
            52.348927
          ],
          [
            4.801445,
            52.3489
          ],
          [
            4.801358,
            52.348885
          ],
          [
            4.801245,
            52.348862
          ],
          [
            4.801148,
            52.348843
          ],
          [
            4.80107,
            52.348827
          ],
          [
            4.80099,
            52.348808
          ],
          [
            4.800886,
            52.348785
          ],
          [
            4.800821,
            52.348774
          ],
          [
            4.800724,
            52.348755
          ],
          [
            4.800616,
            52.348732
          ],
          [
            4.800548,
            52.348721
          ],
          [
            4.800393,
            52.348682
          ],
          [
            4.800214,
            52.348637
          ],
          [
            4.800125,
            52.348614
          ],
          [
            4.800037,
            52.348587
          ],
          [
            4.799928,
            52.348549
          ],
          [
            4.799829,
            52.348518
          ],
          [
            4.799732,
            52.348488
          ],
          [
            4.799641,
            52.348457
          ],
          [
            4.799556,
            52.348427
          ],
          [
            4.799461,
            52.348392
          ],
          [
            4.799379,
            52.348362
          ],
          [
            4.799305,
            52.348335
          ],
          [
            4.799232,
            52.348305
          ],
          [
            4.799157,
            52.348274
          ],
          [
            4.799071,
            52.34824
          ],
          [
            4.798986,
            52.348209
          ],
          [
            4.798905,
            52.348171
          ],
          [
            4.798831,
            52.348141
          ],
          [
            4.798743,
            52.348099
          ],
          [
            4.798657,
            52.348057
          ],
          [
            4.798575,
            52.348019
          ],
          [
            4.798492,
            52.347977
          ],
          [
            4.79842,
            52.347946
          ],
          [
            4.798338,
            52.347927
          ],
          [
            4.798245,
            52.347919
          ],
          [
            4.798152,
            52.347916
          ],
          [
            4.798064,
            52.3479
          ],
          [
            4.797904,
            52.347847
          ],
          [
            4.797843,
            52.347801
          ],
          [
            4.797803,
            52.347744
          ],
          [
            4.797783,
            52.347683
          ],
          [
            4.797752,
            52.347618
          ],
          [
            4.797701,
            52.347565
          ],
          [
            4.797632,
            52.347508
          ],
          [
            4.797569,
            52.347462
          ],
          [
            4.797493,
            52.347412
          ],
          [
            4.797419,
            52.347366
          ],
          [
            4.797357,
            52.347328
          ],
          [
            4.797277,
            52.347275
          ],
          [
            4.797228,
            52.347237
          ],
          [
            4.797159,
            52.347183
          ],
          [
            4.797096,
            52.347137
          ],
          [
            4.797015,
            52.34708
          ],
          [
            4.796953,
            52.347027
          ],
          [
            4.796884,
            52.34697
          ],
          [
            4.796827,
            52.34692
          ],
          [
            4.79679,
            52.346886
          ],
          [
            4.796724,
            52.346825
          ],
          [
            4.796679,
            52.346775
          ],
          [
            4.79663,
            52.346725
          ],
          [
            4.796573,
            52.346661
          ],
          [
            4.79652,
            52.346607
          ],
          [
            4.796468,
            52.346542
          ],
          [
            4.796432,
            52.3465
          ],
          [
            4.796391,
            52.346447
          ],
          [
            4.79635,
            52.346397
          ],
          [
            4.796321,
            52.346355
          ],
          [
            4.796279,
            52.346294
          ],
          [
            4.796245,
            52.346245
          ],
          [
            4.796217,
            52.346199
          ],
          [
            4.796181,
            52.346146
          ],
          [
            4.796138,
            52.346077
          ],
          [
            4.796094,
            52.346004
          ],
          [
            4.796058,
            52.345943
          ],
          [
            4.796014,
            52.345879
          ],
          [
            4.795987,
            52.345829
          ],
          [
            4.795955,
            52.345779
          ],
          [
            4.795918,
            52.345718
          ],
          [
            4.795886,
            52.345665
          ],
          [
            4.795847,
            52.3456
          ],
          [
            4.795811,
            52.345543
          ],
          [
            4.79578,
            52.345489
          ],
          [
            4.795733,
            52.345413
          ],
          [
            4.795702,
            52.34536
          ],
          [
            4.795654,
            52.345287
          ],
          [
            4.795613,
            52.345219
          ],
          [
            4.795565,
            52.345146
          ],
          [
            4.795542,
            52.345104
          ],
          [
            4.795499,
            52.345039
          ],
          [
            4.795462,
            52.344971
          ],
          [
            4.795426,
            52.344917
          ],
          [
            4.795394,
            52.344856
          ],
          [
            4.795361,
            52.344791
          ],
          [
            4.795333,
            52.344734
          ],
          [
            4.795312,
            52.344673
          ],
          [
            4.795289,
            52.344612
          ],
          [
            4.795276,
            52.344547
          ],
          [
            4.795268,
            52.344494
          ],
          [
            4.795261,
            52.34441
          ],
          [
            4.795252,
            52.344353
          ],
          [
            4.79524,
            52.344292
          ],
          [
            4.795222,
            52.344234
          ],
          [
            4.795187,
            52.344173
          ],
          [
            4.795145,
            52.344109
          ],
          [
            4.795117,
            52.344067
          ],
          [
            4.795105,
            52.344044
          ],
          [
            4.795039,
            52.343952
          ],
          [
            4.795008,
            52.343906
          ],
          [
            4.79497,
            52.343853
          ],
          [
            4.794942,
            52.343807
          ],
          [
            4.794898,
            52.343746
          ],
          [
            4.794857,
            52.343685
          ],
          [
            4.794802,
            52.343605
          ],
          [
            4.794802,
            52.343605
          ],
          [
            4.794735,
            52.34351
          ],
          [
            4.794687,
            52.343441
          ],
          [
            4.794655,
            52.343395
          ],
          [
            4.794617,
            52.343338
          ],
          [
            4.794582,
            52.343285
          ],
          [
            4.794553,
            52.343243
          ],
          [
            4.794492,
            52.343151
          ],
          [
            4.794457,
            52.343101
          ],
          [
            4.79441,
            52.343033
          ],
          [
            4.794361,
            52.342964
          ],
          [
            4.794323,
            52.342911
          ],
          [
            4.794288,
            52.342857
          ],
          [
            4.794243,
            52.342781
          ],
          [
            4.794206,
            52.342728
          ],
          [
            4.794166,
            52.342667
          ],
          [
            4.79412,
            52.342602
          ],
          [
            4.794083,
            52.342548
          ],
          [
            4.794043,
            52.342491
          ],
          [
            4.794024,
            52.342461
          ],
          [
            4.793954,
            52.342369
          ],
          [
            4.793922,
            52.342335
          ],
          [
            4.793859,
            52.34227
          ],
          [
            4.793797,
            52.342209
          ],
          [
            4.793737,
            52.342152
          ],
          [
            4.793674,
            52.342106
          ],
          [
            4.793605,
            52.34206
          ],
          [
            4.793538,
            52.342022
          ],
          [
            4.793455,
            52.341976
          ],
          [
            4.793375,
            52.341934
          ],
          [
            4.793295,
            52.341896
          ],
          [
            4.793217,
            52.341854
          ],
          [
            4.793142,
            52.34182
          ],
          [
            4.793093,
            52.341789
          ],
          [
            4.792991,
            52.341732
          ],
          [
            4.792924,
            52.341686
          ],
          [
            4.792861,
            52.341641
          ],
          [
            4.792806,
            52.341595
          ],
          [
            4.792757,
            52.341537
          ],
          [
            4.792713,
            52.34148
          ],
          [
            4.792672,
            52.341427
          ],
          [
            4.792631,
            52.341373
          ],
          [
            4.792547,
            52.341263
          ],
          [
            4.792503,
            52.341202
          ],
          [
            4.79246,
            52.341141
          ],
          [
            4.792423,
            52.341084
          ],
          [
            4.792384,
            52.341026
          ],
          [
            4.792346,
            52.340973
          ],
          [
            4.792305,
            52.340919
          ],
          [
            4.792253,
            52.340862
          ],
          [
            4.792206,
            52.34082
          ],
          [
            4.792148,
            52.340782
          ],
          [
            4.792091,
            52.340748
          ],
          [
            4.79204,
            52.340725
          ],
          [
            4.791972,
            52.340694
          ],
          [
            4.79191,
            52.340675
          ],
          [
            4.791846,
            52.340668
          ],
          [
            4.791781,
            52.340668
          ],
          [
            4.791729,
            52.340687
          ],
          [
            4.791685,
            52.340717
          ],
          [
            4.791641,
            52.340755
          ],
          [
            4.791588,
            52.340797
          ],
          [
            4.791542,
            52.340832
          ],
          [
            4.7915,
            52.34087
          ],
          [
            4.791454,
            52.340908
          ],
          [
            4.791411,
            52.340946
          ],
          [
            4.791376,
            52.340981
          ],
          [
            4.791341,
            52.341015
          ],
          [
            4.791299,
            52.341049
          ],
          [
            4.791244,
            52.341076
          ],
          [
            4.791199,
            52.341091
          ],
          [
            4.791111,
            52.34111
          ],
          [
            4.791026,
            52.341106
          ],
          [
            4.790961,
            52.341103
          ],
          [
            4.790836,
            52.341068
          ],
          [
            4.790727,
            52.341023
          ],
          [
            4.790647,
            52.340977
          ],
          [
            4.790563,
            52.340927
          ],
          [
            4.790486,
            52.340881
          ],
          [
            4.790411,
            52.340832
          ],
          [
            4.790348,
            52.340778
          ],
          [
            4.790272,
            52.340733
          ],
          [
            4.790209,
            52.340683
          ],
          [
            4.790144,
            52.340637
          ],
          [
            4.790094,
            52.340603
          ],
          [
            4.790037,
            52.340565
          ],
          [
            4.789941,
            52.3405
          ],
          [
            4.789857,
            52.340439
          ],
          [
            4.789797,
            52.340401
          ],
          [
            4.789743,
            52.340363
          ],
          [
            4.789665,
            52.340309
          ],
          [
            4.789587,
            52.340256
          ],
          [
            4.789519,
            52.340206
          ],
          [
            4.78943,
            52.340141
          ],
          [
            4.789382,
            52.340107
          ],
          [
            4.789331,
            52.340073
          ],
          [
            4.789256,
            52.340023
          ],
          [
            4.789174,
            52.339966
          ],
          [
            4.789119,
            52.339928
          ],
          [
            4.78905,
            52.339882
          ],
          [
            4.788997,
            52.339844
          ],
          [
            4.788941,
            52.339806
          ],
          [
            4.788858,
            52.339752
          ],
          [
            4.788776,
            52.339691
          ],
          [
            4.788693,
            52.339638
          ],
          [
            4.788615,
            52.339581
          ],
          [
            4.788536,
            52.339523
          ],
          [
            4.78846,
            52.33947
          ],
          [
            4.788375,
            52.339409
          ],
          [
            4.788308,
            52.339363
          ],
          [
            4.78825,
            52.339325
          ],
          [
            4.788174,
            52.339283
          ],
          [
            4.788108,
            52.339253
          ],
          [
            4.788043,
            52.339226
          ],
          [
            4.787959,
            52.339195
          ],
          [
            4.787892,
            52.339172
          ],
          [
            4.787775,
            52.339138
          ],
          [
            4.787646,
            52.3391
          ],
          [
            4.787556,
            52.339077
          ],
          [
            4.787471,
            52.339058
          ],
          [
            4.787399,
            52.339043
          ],
          [
            4.787273,
            52.339016
          ],
          [
            4.787214,
            52.339008
          ],
          [
            4.787078,
            52.33897
          ],
          [
            4.786966,
            52.338943
          ],
          [
            4.786867,
            52.338924
          ],
          [
            4.786788,
            52.338905
          ],
          [
            4.786685,
            52.338886
          ],
          [
            4.786611,
            52.338871
          ],
          [
            4.786483,
            52.338844
          ],
          [
            4.786368,
            52.338821
          ],
          [
            4.786256,
            52.338795
          ],
          [
            4.786144,
            52.338772
          ],
          [
            4.786056,
            52.338749
          ],
          [
            4.785968,
            52.338734
          ],
          [
            4.785865,
            52.338715
          ],
          [
            4.785789,
            52.338692
          ],
          [
            4.785655,
            52.338665
          ],
          [
            4.785553,
            52.338638
          ],
          [
            4.785466,
            52.338623
          ],
          [
            4.785384,
            52.338608
          ],
          [
            4.785315,
            52.338593
          ],
          [
            4.785244,
            52.338577
          ],
          [
            4.785137,
            52.338554
          ],
          [
            4.785034,
            52.338531
          ],
          [
            4.784936,
            52.338512
          ],
          [
            4.784847,
            52.338493
          ],
          [
            4.784747,
            52.338474
          ],
          [
            4.784671,
            52.338451
          ],
          [
            4.784543,
            52.338425
          ],
          [
            4.784442,
            52.338402
          ],
          [
            4.78433,
            52.338379
          ],
          [
            4.784233,
            52.33836
          ],
          [
            4.784123,
            52.338341
          ],
          [
            4.784025,
            52.338322
          ],
          [
            4.783929,
            52.338303
          ],
          [
            4.783889,
            52.338287
          ],
          [
            4.783738,
            52.338242
          ],
          [
            4.783652,
            52.338215
          ],
          [
            4.783603,
            52.338192
          ],
          [
            4.783539,
            52.338161
          ],
          [
            4.783464,
            52.338123
          ],
          [
            4.78339,
            52.338081
          ],
          [
            4.783303,
            52.338028
          ],
          [
            4.78324,
            52.337982
          ],
          [
            4.783156,
            52.337925
          ],
          [
            4.783075,
            52.337868
          ],
          [
            4.783002,
            52.337818
          ],
          [
            4.782929,
            52.337776
          ],
          [
            4.782863,
            52.337738
          ],
          [
            4.782686,
            52.337646
          ],
          [
            4.782623,
            52.337624
          ],
          [
            4.782542,
            52.337597
          ],
          [
            4.782433,
            52.337566
          ],
          [
            4.782344,
            52.337544
          ],
          [
            4.782273,
            52.337528
          ],
          [
            4.782124,
            52.337502
          ],
          [
            4.782017,
            52.337486
          ],
          [
            4.781963,
            52.337479
          ],
          [
            4.781873,
            52.337475
          ],
          [
            4.781823,
            52.337475
          ],
          [
            4.78173,
            52.337471
          ],
          [
            4.781662,
            52.337471
          ],
          [
            4.781511,
            52.337475
          ],
          [
            4.781437,
            52.337479
          ],
          [
            4.781346,
            52.337486
          ],
          [
            4.781214,
            52.337505
          ],
          [
            4.781106,
            52.337524
          ],
          [
            4.780992,
            52.337551
          ],
          [
            4.78088,
            52.337578
          ],
          [
            4.780786,
            52.337605
          ],
          [
            4.780676,
            52.337635
          ],
          [
            4.780592,
            52.337658
          ],
          [
            4.7805,
            52.337688
          ],
          [
            4.78042,
            52.337711
          ],
          [
            4.780333,
            52.337742
          ],
          [
            4.780241,
            52.337769
          ],
          [
            4.780137,
            52.337799
          ],
          [
            4.780033,
            52.337833
          ],
          [
            4.779943,
            52.337864
          ],
          [
            4.77984,
            52.337894
          ],
          [
            4.779787,
            52.337906
          ],
          [
            4.779674,
            52.337936
          ],
          [
            4.779594,
            52.337959
          ],
          [
            4.779507,
            52.33799
          ],
          [
            4.779405,
            52.338036
          ],
          [
            4.779266,
            52.338116
          ],
          [
            4.779198,
            52.338154
          ],
          [
            4.779119,
            52.338196
          ],
          [
            4.779068,
            52.338223
          ],
          [
            4.778994,
            52.338257
          ],
          [
            4.778924,
            52.338291
          ],
          [
            4.778835,
            52.338337
          ],
          [
            4.778757,
            52.33839
          ],
          [
            4.778682,
            52.33844
          ],
          [
            4.778543,
            52.338509
          ],
          [
            4.778462,
            52.338547
          ],
          [
            4.778389,
            52.338577
          ],
          [
            4.77833,
            52.338608
          ],
          [
            4.778286,
            52.338635
          ],
          [
            4.778263,
            52.338657
          ],
          [
            4.778268,
            52.33868
          ],
          [
            4.778289,
            52.338696
          ],
          [
            4.778339,
            52.338722
          ],
          [
            4.77839,
            52.338738
          ],
          [
            4.778438,
            52.338768
          ],
          [
            4.778487,
            52.338791
          ],
          [
            4.778541,
            52.338821
          ],
          [
            4.778585,
            52.338848
          ],
          [
            4.77864,
            52.338882
          ],
          [
            4.778686,
            52.338913
          ],
          [
            4.778728,
            52.338951
          ],
          [
            4.778753,
            52.338989
          ],
          [
            4.778775,
            52.339024
          ],
          [
            4.778797,
            52.339062
          ],
          [
            4.778816,
            52.339092
          ],
          [
            4.778824,
            52.339123
          ],
          [
            4.778862,
            52.339165
          ],
          [
            4.778889,
            52.339203
          ],
          [
            4.778911,
            52.339237
          ],
          [
            4.778928,
            52.339268
          ],
          [
            4.778943,
            52.339298
          ],
          [
            4.778961,
            52.339333
          ],
          [
            4.77896,
            52.339367
          ],
          [
            4.778965,
            52.33939
          ],
          [
            4.778975,
            52.339413
          ],
          [
            4.778981,
            52.339432
          ],
          [
            4.778996,
            52.339455
          ],
          [
            4.779015,
            52.339474
          ],
          [
            4.77902,
            52.339489
          ],
          [
            4.77902,
            52.339489
          ],
          [
            4.778995,
            52.339519
          ],
          [
            4.778995,
            52.339519
          ],
          [
            4.778995,
            52.339519
          ],
          [
            4.779187,
            52.339439
          ],
          [
            4.779187,
            52.339439
          ],
          [
            4.779187,
            52.339439
          ],
          [
            4.779187,
            52.339439
          ],
          [
            4.77924,
            52.339405
          ],
          [
            4.77924,
            52.339405
          ],
          [
            4.77924,
            52.339405
          ],
          [
            4.779282,
            52.339424
          ],
          [
            4.779282,
            52.339424
          ],
          [
            4.779295,
            52.339417
          ],
          [
            4.779296,
            52.339413
          ],
          [
            4.779296,
            52.339417
          ],
          [
            4.779296,
            52.339409
          ],
          [
            4.779289,
            52.339401
          ],
          [
            4.779276,
            52.339386
          ],
          [
            4.779259,
            52.339371
          ],
          [
            4.779223,
            52.339348
          ],
          [
            4.779164,
            52.339306
          ],
          [
            4.779139,
            52.339291
          ],
          [
            4.779112,
            52.339275
          ],
          [
            4.77907,
            52.339249
          ],
          [
            4.779032,
            52.339222
          ],
          [
            4.778985,
            52.339195
          ],
          [
            4.778943,
            52.339169
          ],
          [
            4.778894,
            52.339142
          ],
          [
            4.778861,
            52.339111
          ],
          [
            4.778854,
            52.339085
          ],
          [
            4.778815,
            52.339031
          ],
          [
            4.778797,
            52.338985
          ],
          [
            4.778775,
            52.338943
          ],
          [
            4.778691,
            52.338856
          ],
          [
            4.77864,
            52.338821
          ],
          [
            4.778589,
            52.338779
          ],
          [
            4.778566,
            52.338779
          ],
          [
            4.77846,
            52.338734
          ],
          [
            4.778421,
            52.338726
          ],
          [
            4.778312,
            52.338726
          ],
          [
            4.778227,
            52.338738
          ],
          [
            4.778162,
            52.338757
          ],
          [
            4.778034,
            52.33881
          ],
          [
            4.777974,
            52.338837
          ],
          [
            4.777926,
            52.33886
          ],
          [
            4.777852,
            52.338902
          ],
          [
            4.777852,
            52.338902
          ],
          [
            4.777852,
            52.338902
          ],
          [
            4.777852,
            52.338902
          ],
          [
            4.777803,
            52.338909
          ],
          [
            4.777761,
            52.338921
          ],
          [
            4.777734,
            52.338917
          ],
          [
            4.777703,
            52.33889
          ],
          [
            4.777683,
            52.33884
          ],
          [
            4.777688,
            52.33881
          ],
          [
            4.777706,
            52.338787
          ],
          [
            4.777739,
            52.338753
          ],
          [
            4.777775,
            52.33873
          ],
          [
            4.777857,
            52.338684
          ],
          [
            4.777894,
            52.338673
          ],
          [
            4.777945,
            52.338646
          ],
          [
            4.777949,
            52.338638
          ],
          [
            4.777939,
            52.338635
          ],
          [
            4.777911,
            52.338631
          ],
          [
            4.777911,
            52.338631
          ],
          [
            4.777844,
            52.3386
          ],
          [
            4.777827,
            52.338593
          ],
          [
            4.777827,
            52.338593
          ],
          [
            4.777791,
            52.338581
          ],
          [
            4.777791,
            52.338581
          ],
          [
            4.777791,
            52.338581
          ],
          [
            4.77775,
            52.338585
          ],
          [
            4.77775,
            52.338585
          ],
          [
            4.777707,
            52.3386
          ],
          [
            4.777707,
            52.3386
          ],
          [
            4.777707,
            52.3386
          ],
          [
            4.777794,
            52.338627
          ],
          [
            4.777819,
            52.338635
          ],
          [
            4.777897,
            52.33865
          ],
          [
            4.777921,
            52.338646
          ],
          [
            4.777943,
            52.338642
          ],
          [
            4.777964,
            52.338642
          ],
          [
            4.777964,
            52.338642
          ],
          [
            4.77801,
            52.338657
          ],
          [
            4.778022,
            52.338657
          ],
          [
            4.77803,
            52.338661
          ],
          [
            4.778045,
            52.33868
          ],
          [
            4.778042,
            52.338734
          ],
          [
            4.778041,
            52.338772
          ],
          [
            4.778053,
            52.338806
          ],
          [
            4.77807,
            52.338829
          ],
          [
            4.778109,
            52.338863
          ],
          [
            4.778188,
            52.338924
          ],
          [
            4.778221,
            52.338951
          ],
          [
            4.778251,
            52.338974
          ],
          [
            4.778285,
            52.339004
          ],
          [
            4.778313,
            52.339027
          ],
          [
            4.778347,
            52.339039
          ],
          [
            4.778385,
            52.339046
          ],
          [
            4.778445,
            52.339031
          ],
          [
            4.778578,
            52.339027
          ],
          [
            4.77864,
            52.339016
          ],
          [
            4.778692,
            52.339012
          ],
          [
            4.778742,
            52.338997
          ],
          [
            4.7788,
            52.338985
          ],
          [
            4.778862,
            52.33897
          ],
          [
            4.778934,
            52.338951
          ],
          [
            4.778995,
            52.338936
          ],
          [
            4.779073,
            52.338917
          ],
          [
            4.779208,
            52.338882
          ],
          [
            4.779282,
            52.338856
          ],
          [
            4.779348,
            52.338833
          ],
          [
            4.779419,
            52.338802
          ],
          [
            4.77948,
            52.338776
          ],
          [
            4.779592,
            52.338722
          ],
          [
            4.779648,
            52.338707
          ],
          [
            4.779743,
            52.338715
          ],
          [
            4.779778,
            52.338734
          ],
          [
            4.779886,
            52.338818
          ],
          [
            4.779886,
            52.338818
          ],
          [
            4.780026,
            52.338963
          ],
          [
            4.780026,
            52.338963
          ],
          [
            4.779961,
            52.338993
          ],
          [
            4.778991,
            52.3395
          ],
          [
            4.778991,
            52.3395
          ],
          [
            4.778991,
            52.3395
          ],
          [
            4.778991,
            52.3395
          ],
          [
            4.778991,
            52.3395
          ],
          [
            4.778991,
            52.3395
          ],
          [
            4.778991,
            52.3395
          ],
          [
            4.778991,
            52.3395
          ],
          [
            4.778991,
            52.3395
          ],
          [
            4.778991,
            52.3395
          ]
        ]
      }
    }
  ]
}