{
  "type": "FeatureCollection",
  "features": [
    {
      "type": "Feature",
      "properties": {
        "id": "amsterdam-to-badhoevedorp-ride-759f3f80-7f09-11f1-8ad1-a40dbc8fa83a",
        "title": "Amsterdam to Badhoevedorp ride",
        "source": "Amsterdam to Badhoevedorp ride-759f3f80-7f09-11f1-8ad1-a40dbc8fa83a.fit"
      },
      "geometry": {
        "type": "LineString",
        "coordinates": [
          [
            4.866541,
            52.360439
          ],
          [
            4.866541,
            52.360439
          ],
          [
            4.866504,
            52.360439
          ],
          [
            4.866504,
            52.360439
          ],
          [
            4.866449,
            52.360432
          ],
          [
            4.866416,
            52.360432
          ],
          [
            4.866394,
            52.360424
          ],
          [
            4.866363,
            52.360424
          ],
          [
            4.866322,
            52.36042
          ],
          [
            4.866282,
            52.360416
          ],
          [
            4.866223,
            52.360413
          ],
          [
            4.86617,
            52.360409
          ],
          [
            4.866165,
            52.360405
          ],
          [
            4.866055,
            52.360405
          ],
          [
            4.86598,
            52.360401
          ],
          [
            4.865968,
            52.360413
          ],
          [
            4.865968,
            52.360413
          ],
          [
            4.865968,
            52.360413
          ],
          [
            4.865664,
            52.360436
          ],
          [
            4.865656,
            52.360432
          ],
          [
            4.865652,
            52.360428
          ],
          [
            4.865634,
            52.36042
          ],
          [
            4.865603,
            52.360413
          ],
          [
            4.865571,
            52.360401
          ],
          [
            4.865524,
            52.36039
          ],
          [
            4.86547,
            52.360378
          ],
          [
            4.865407,
            52.360363
          ],
          [
            4.865378,
            52.360359
          ],
          [
            4.865283,
            52.360336
          ],
          [
            4.865204,
            52.360317
          ],
          [
            4.865125,
            52.360302
          ],
          [
            4.865044,
            52.360287
          ],
          [
            4.864956,
            52.360264
          ],
          [
            4.864868,
            52.360249
          ],
          [
            4.864778,
            52.360233
          ],
          [
            4.864724,
            52.360222
          ],
          [
            4.864604,
            52.360195
          ],
          [
            4.864509,
            52.360172
          ],
          [
            4.864409,
            52.360149
          ],
          [
            4.864311,
            52.360126
          ],
          [
            4.864248,
            52.360111
          ],
          [
            4.864129,
            52.360088
          ],
          [
            4.864034,
            52.360065
          ],
          [
            4.863935,
            52.360043
          ],
          [
            4.863837,
            52.36002
          ],
          [
            4.863756,
            52.360001
          ],
          [
            4.86365,
            52.359974
          ],
          [
            4.86356,
            52.359951
          ],
          [
            4.863463,
            52.359924
          ],
          [
            4.863368,
            52.359901
          ],
          [
            4.863327,
            52.35989
          ],
          [
            4.863197,
            52.359859
          ],
          [
            4.863097,
            52.359833
          ],
          [
            4.862997,
            52.35981
          ],
          [
            4.862899,
            52.359787
          ],
          [
            4.862863,
            52.359779
          ],
          [
            4.862727,
            52.359745
          ],
          [
            4.862624,
            52.359722
          ],
          [
            4.862523,
            52.359703
          ],
          [
            4.862425,
            52.35968
          ],
          [
            4.862354,
            52.359665
          ],
          [
            4.862239,
            52.359638
          ],
          [
            4.862141,
            52.359615
          ],
          [
            4.862054,
            52.359592
          ],
          [
            4.861957,
            52.35957
          ],
          [
            4.861862,
            52.359543
          ],
          [
            4.861764,
            52.35952
          ],
          [
            4.861675,
            52.359497
          ],
          [
            4.861585,
            52.35947
          ],
          [
            4.861495,
            52.359451
          ],
          [
            4.861413,
            52.359428
          ],
          [
            4.861318,
            52.359406
          ],
          [
            4.861225,
            52.359383
          ],
          [
            4.861131,
            52.35936
          ],
          [
            4.861039,
            52.359337
          ],
          [
            4.860943,
            52.359314
          ],
          [
            4.860854,
            52.359291
          ],
          [
            4.860771,
            52.359268
          ],
          [
            4.860679,
            52.359245
          ],
          [
            4.860585,
            52.359219
          ],
          [
            4.860494,
            52.359196
          ],
          [
            4.860415,
            52.359177
          ],
          [
            4.860334,
            52.359154
          ],
          [
            4.860254,
            52.359131
          ],
          [
            4.8602,
            52.359116
          ],
          [
            4.86011,
            52.359093
          ],
          [
            4.860035,
            52.359074
          ],
          [
            4.859957,
            52.359051
          ],
          [
            4.859876,
            52.359028
          ],
          [
            4.859786,
            52.359005
          ],
          [
            4.859697,
            52.358982
          ],
          [
            4.859609,
            52.358959
          ],
          [
            4.859552,
            52.358944
          ],
          [
            4.859436,
            52.358913
          ],
          [
            4.859344,
            52.358891
          ],
          [
            4.859248,
            52.358864
          ],
          [
            4.859152,
            52.358841
          ],
          [
            4.859078,
            52.358822
          ],
          [
            4.85897,
            52.358795
          ],
          [
            4.85888,
            52.358768
          ],
          [
            4.858783,
            52.358742
          ],
          [
            4.858687,
            52.358719
          ],
          [
            4.8586,
            52.358696
          ],
          [
            4.858499,
            52.358669
          ],
          [
            4.858413,
            52.358646
          ],
          [
            4.858318,
            52.35862
          ],
          [
            4.858223,
            52.358593
          ],
          [
            4.85813,
            52.358566
          ],
          [
            4.858066,
            52.358547
          ],
          [
            4.857953,
            52.358517
          ],
          [
            4.857851,
            52.358494
          ],
          [
            4.857753,
            52.358467
          ],
          [
            4.857659,
            52.358444
          ],
          [
            4.857584,
            52.358425
          ],
          [
            4.857478,
            52.358398
          ],
          [
            4.857379,
            52.358372
          ],
          [
            4.857283,
            52.358349
          ],
          [
            4.857189,
            52.358326
          ],
          [
            4.857134,
            52.358315
          ],
          [
            4.857015,
            52.358284
          ],
          [
            4.856911,
            52.358257
          ],
          [
            4.856814,
            52.358234
          ],
          [
            4.85672,
            52.358208
          ],
          [
            4.856626,
            52.358185
          ],
          [
            4.856543,
            52.358162
          ],
          [
            4.856449,
            52.358139
          ],
          [
            4.856357,
            52.358112
          ],
          [
            4.8563,
            52.358101
          ],
          [
            4.856182,
            52.35807
          ],
          [
            4.856088,
            52.358047
          ],
          [
            4.855994,
            52.358025
          ],
          [
            4.855899,
            52.358002
          ],
          [
            4.855806,
            52.357983
          ],
          [
            4.855715,
            52.35796
          ],
          [
            4.855626,
            52.357941
          ],
          [
            4.855549,
            52.357925
          ],
          [
            4.855473,
            52.35791
          ],
          [
            4.855411,
            52.357899
          ],
          [
            4.855356,
            52.357891
          ],
          [
            4.855356,
            52.357891
          ],
          [
            4.855356,
            52.357891
          ],
          [
            4.855356,
            52.357891
          ],
          [
            4.855186,
            52.357849
          ],
          [
            4.855177,
            52.357841
          ],
          [
            4.855173,
            52.357834
          ],
          [
            4.855163,
            52.357822
          ],
          [
            4.855153,
            52.357815
          ],
          [
            4.855133,
            52.357792
          ],
          [
            4.855109,
            52.357765
          ],
          [
            4.855082,
            52.357731
          ],
          [
            4.85505,
            52.357693
          ],
          [
            4.855017,
            52.357655
          ],
          [
            4.854986,
            52.357609
          ],
          [
            4.854943,
            52.357552
          ],
          [
            4.854898,
            52.357498
          ],
          [
            4.854854,
            52.357441
          ],
          [
            4.854811,
            52.357391
          ],
          [
            4.854764,
            52.357334
          ],
          [
            4.854721,
            52.357281
          ],
          [
            4.854675,
            52.357216
          ],
          [
            4.854637,
            52.357162
          ],
          [
            4.854602,
            52.357101
          ],
          [
            4.854563,
            52.357014
          ],
          [
            4.854534,
            52.35693
          ],
          [
            4.854519,
            52.356838
          ],
          [
            4.85452,
            52.356739
          ],
          [
            4.854529,
            52.356663
          ],
          [
            4.854551,
            52.356606
          ],
          [
            4.854571,
            52.356541
          ],
          [
            4.854589,
            52.356506
          ],
          [
            4.854616,
            52.356442
          ],
          [
            4.854648,
            52.356373
          ],
          [
            4.854674,
            52.356316
          ],
          [
            4.854706,
            52.356255
          ],
          [
            4.854733,
            52.356197
          ],
          [
            4.854769,
            52.356125
          ],
          [
            4.854793,
            52.356075
          ],
          [
            4.854817,
            52.356037
          ],
          [
            4.854836,
            52.355991
          ],
          [
            4.854868,
            52.35593
          ],
          [
            4.854895,
            52.355877
          ],
          [
            4.854922,
            52.355812
          ],
          [
            4.854952,
            52.355743
          ],
          [
            4.854977,
            52.355686
          ],
          [
            4.855,
            52.355617
          ],
          [
            4.855029,
            52.355549
          ],
          [
            4.855062,
            52.355461
          ],
          [
            4.855076,
            52.355419
          ],
          [
            4.855086,
            52.355385
          ],
          [
            4.855109,
            52.355339
          ],
          [
            4.855117,
            52.355293
          ],
          [
            4.855141,
            52.355244
          ],
          [
            4.855161,
            52.355194
          ],
          [
            4.855167,
            52.355137
          ],
          [
            4.855188,
            52.355091
          ],
          [
            4.855199,
            52.355041
          ],
          [
            4.855202,
            52.355
          ],
          [
            4.855207,
            52.354954
          ],
          [
            4.8552,
            52.354908
          ],
          [
            4.855171,
            52.354866
          ],
          [
            4.855131,
            52.354832
          ],
          [
            4.855076,
            52.354805
          ],
          [
            4.855014,
            52.354786
          ],
          [
            4.85494,
            52.354774
          ],
          [
            4.854867,
            52.354763
          ],
          [
            4.854825,
            52.354755
          ],
          [
            4.854696,
            52.35474
          ],
          [
            4.854624,
            52.354736
          ],
          [
            4.854504,
            52.354733
          ],
          [
            4.85448,
            52.354725
          ],
          [
            4.854326,
            52.354733
          ],
          [
            4.85421,
            52.35474
          ],
          [
            4.854103,
            52.354748
          ],
          [
            4.854009,
            52.354755
          ],
          [
            4.853922,
            52.354763
          ],
          [
            4.853837,
            52.354771
          ],
          [
            4.853816,
            52.354771
          ],
          [
            4.853678,
            52.354786
          ],
          [
            4.853573,
            52.354794
          ],
          [
            4.853477,
            52.354805
          ],
          [
            4.853479,
            52.354801
          ],
          [
            4.853272,
            52.354816
          ],
          [
            4.853198,
            52.35482
          ],
          [
            4.853003,
            52.354828
          ],
          [
            4.852883,
            52.354836
          ],
          [
            4.852775,
            52.354839
          ],
          [
            4.852631,
            52.354847
          ],
          [
            4.852568,
            52.354851
          ],
          [
            4.852416,
            52.354862
          ],
          [
            4.8523,
            52.354866
          ],
          [
            4.852196,
            52.35487
          ],
          [
            4.8521,
            52.354874
          ],
          [
            4.851998,
            52.354874
          ],
          [
            4.851898,
            52.354877
          ],
          [
            4.851807,
            52.354893
          ],
          [
            4.85172,
            52.354908
          ],
          [
            4.851646,
            52.354923
          ],
          [
            4.851536,
            52.354946
          ],
          [
            4.851437,
            52.354958
          ],
          [
            4.851337,
            52.354961
          ],
          [
            4.851275,
            52.354965
          ],
          [
            4.851146,
            52.354969
          ],
          [
            4.851047,
            52.354969
          ],
          [
            4.850946,
            52.354969
          ],
          [
            4.850844,
            52.354969
          ],
          [
            4.850766,
            52.354969
          ],
          [
            4.850648,
            52.354965
          ],
          [
            4.850545,
            52.354965
          ],
          [
            4.85045,
            52.354965
          ],
          [
            4.850357,
            52.354965
          ],
          [
            4.850255,
            52.354965
          ],
          [
            4.850157,
            52.354965
          ],
          [
            4.850064,
            52.354965
          ],
          [
            4.849976,
            52.354965
          ],
          [
            4.849912,
            52.354965
          ],
          [
            4.849764,
            52.354961
          ],
          [
            4.849654,
            52.354958
          ],
          [
            4.849555,
            52.354958
          ],
          [
            4.849463,
            52.354958
          ],
          [
            4.849376,
            52.354965
          ],
          [
            4.849268,
            52.354969
          ],
          [
            4.849173,
            52.354973
          ],
          [
            4.849078,
            52.354977
          ],
          [
            4.849002,
            52.35498
          ],
          [
            4.848885,
            52.35498
          ],
          [
            4.848782,
            52.35498
          ],
          [
            4.848683,
            52.35498
          ],
          [
            4.848583,
            52.35498
          ],
          [
            4.848545,
            52.35498
          ],
          [
            4.848392,
            52.35498
          ],
          [
            4.848278,
            52.35498
          ],
          [
            4.848175,
            52.35498
          ],
          [
            4.848082,
            52.354984
          ],
          [
            4.847983,
            52.354984
          ],
          [
            4.847884,
            52.354973
          ],
          [
            4.847788,
            52.354965
          ],
          [
            4.847708,
            52.354961
          ],
          [
            4.847647,
            52.354958
          ],
          [
            4.847497,
            52.35495
          ],
          [
            4.847392,
            52.35495
          ],
          [
            4.847287,
            52.35495
          ],
          [
            4.847184,
            52.35495
          ],
          [
            4.84713,
            52.35495
          ],
          [
            4.846989,
            52.354946
          ],
          [
            4.846886,
            52.354946
          ],
          [
            4.846784,
            52.354946
          ],
          [
            4.846719,
            52.354942
          ],
          [
            4.846617,
            52.354927
          ],
          [
            4.846563,
            52.354912
          ],
          [
            4.846507,
            52.354893
          ],
          [
            4.846443,
            52.35487
          ],
          [
            4.846373,
            52.354855
          ],
          [
            4.8463,
            52.354847
          ],
          [
            4.846249,
            52.354843
          ],
          [
            4.846145,
            52.354828
          ],
          [
            4.846077,
            52.354805
          ],
          [
            4.846041,
            52.354774
          ],
          [
            4.846015,
            52.35474
          ],
          [
            4.846,
            52.354694
          ],
          [
            4.846003,
            52.354645
          ],
          [
            4.846008,
            52.354591
          ],
          [
            4.846013,
            52.354538
          ],
          [
            4.846022,
            52.354477
          ],
          [
            4.846017,
            52.354408
          ],
          [
            4.846016,
            52.354351
          ],
          [
            4.846013,
            52.354301
          ],
          [
            4.84601,
            52.354244
          ],
          [
            4.846002,
            52.354179
          ],
          [
            4.846001,
            52.354111
          ],
          [
            4.846,
            52.354054
          ],
          [
            4.846,
            52.353996
          ],
          [
            4.846,
            52.353939
          ],
          [
            4.845997,
            52.353874
          ],
          [
            4.846001,
            52.353806
          ],
          [
            4.845998,
            52.353741
          ],
          [
            4.845996,
            52.353687
          ],
          [
            4.846004,
            52.35363
          ],
          [
            4.846003,
            52.353565
          ],
          [
            4.846007,
            52.353497
          ],
          [
            4.846007,
            52.353413
          ],
          [
            4.846015,
            52.35331
          ],
          [
            4.846004,
            52.353218
          ],
          [
            4.846008,
            52.353157
          ],
          [
            4.846005,
            52.353092
          ],
          [
            4.846013,
            52.353031
          ],
          [
            4.846009,
            52.352966
          ],
          [
            4.846009,
            52.352909
          ],
          [
            4.846017,
            52.352848
          ],
          [
            4.846023,
            52.352783
          ],
          [
            4.84602,
            52.352718
          ],
          [
            4.846016,
            52.352653
          ],
          [
            4.846017,
            52.352592
          ],
          [
            4.846023,
            52.352528
          ],
          [
            4.84602,
            52.352474
          ],
          [
            4.846023,
            52.352413
          ],
          [
            4.846022,
            52.352352
          ],
          [
            4.846024,
            52.352291
          ],
          [
            4.846026,
            52.352226
          ],
          [
            4.846034,
            52.352165
          ],
          [
            4.846038,
            52.352097
          ],
          [
            4.846034,
            52.352039
          ],
          [
            4.846024,
            52.351974
          ],
          [
            4.846029,
            52.351921
          ],
          [
            4.846034,
            52.351868
          ],
          [
            4.846027,
            52.351822
          ],
          [
            4.846024,
            52.351765
          ],
          [
            4.846025,
            52.351727
          ],
          [
            4.845988,
            52.351696
          ],
          [
            4.845974,
            52.351692
          ],
          [
            4.845952,
            52.351692
          ],
          [
            4.845856,
            52.351688
          ],
          [
            4.845786,
            52.351688
          ],
          [
            4.845699,
            52.351688
          ],
          [
            4.845614,
            52.351685
          ],
          [
            4.845469,
            52.351666
          ],
          [
            4.845386,
            52.351669
          ],
          [
            4.845296,
            52.351666
          ],
          [
            4.845175,
            52.351666
          ],
          [
            4.845066,
            52.351669
          ],
          [
            4.845065,
            52.351669
          ],
          [
            4.844904,
            52.351669
          ],
          [
            4.844801,
            52.351669
          ],
          [
            4.844777,
            52.351669
          ],
          [
            4.844606,
            52.351673
          ],
          [
            4.844557,
            52.351673
          ],
          [
            4.844385,
            52.351677
          ],
          [
            4.844261,
            52.351677
          ],
          [
            4.844146,
            52.351681
          ],
          [
            4.844108,
            52.351681
          ],
          [
            4.843936,
            52.351681
          ],
          [
            4.843799,
            52.351681
          ],
          [
            4.843679,
            52.351681
          ],
          [
            4.843672,
            52.351677
          ],
          [
            4.84346,
            52.351677
          ],
          [
            4.843326,
            52.351677
          ],
          [
            4.843206,
            52.351677
          ],
          [
            4.843177,
            52.351677
          ],
          [
            4.842985,
            52.351677
          ],
          [
            4.842956,
            52.351677
          ],
          [
            4.842818,
            52.351677
          ],
          [
            4.84278,
            52.351681
          ],
          [
            4.842636,
            52.351688
          ],
          [
            4.84253,
            52.351685
          ],
          [
            4.842389,
            52.351692
          ],
          [
            4.842264,
            52.351685
          ],
          [
            4.842253,
            52.351711
          ],
          [
            4.842068,
            52.351696
          ],
          [
            4.841951,
            52.351688
          ],
          [
            4.841893,
            52.351685
          ],
          [
            4.841746,
            52.351685
          ],
          [
            4.841663,
            52.351685
          ],
          [
            4.841538,
            52.351685
          ],
          [
            4.841337,
            52.351681
          ],
          [
            4.841254,
            52.351677
          ],
          [
            4.841091,
            52.351677
          ],
          [
            4.840998,
            52.351677
          ],
          [
            4.840866,
            52.351673
          ],
          [
            4.840827,
            52.351673
          ],
          [
            4.840713,
            52.351669
          ],
          [
            4.840623,
            52.351669
          ],
          [
            4.840538,
            52.351666
          ],
          [
            4.840446,
            52.351666
          ],
          [
            4.840376,
            52.351666
          ],
          [
            4.840252,
            52.35165
          ],
          [
            4.840154,
            52.351646
          ],
          [
            4.840052,
            52.351639
          ],
          [
            4.839992,
            52.351631
          ],
          [
            4.839907,
            52.351624
          ],
          [
            4.839755,
            52.35162
          ],
          [
            4.839648,
            52.351616
          ],
          [
            4.839544,
            52.351616
          ],
          [
            4.839442,
            52.351612
          ],
          [
            4.839396,
            52.351608
          ],
          [
            4.839248,
            52.351601
          ],
          [
            4.839148,
            52.351597
          ],
          [
            4.8391,
            52.351597
          ],
          [
            4.838951,
            52.351593
          ],
          [
            4.838872,
            52.351593
          ],
          [
            4.838741,
            52.351593
          ],
          [
            4.83864,
            52.351593
          ],
          [
            4.838536,
            52.351593
          ],
          [
            4.838435,
            52.351593
          ],
          [
            4.838337,
            52.351593
          ],
          [
            4.838296,
            52.351593
          ],
          [
            4.838148,
            52.351589
          ],
          [
            4.838036,
            52.351585
          ],
          [
            4.837932,
            52.351585
          ],
          [
            4.837834,
            52.351585
          ],
          [
            4.8378,
            52.351585
          ],
          [
            4.837647,
            52.351585
          ],
          [
            4.837543,
            52.351589
          ],
          [
            4.837428,
            52.351593
          ],
          [
            4.837298,
            52.351601
          ],
          [
            4.837241,
            52.351597
          ],
          [
            4.837063,
            52.351597
          ],
          [
            4.836926,
            52.351604
          ],
          [
            4.836819,
            52.351604
          ],
          [
            4.836719,
            52.351604
          ],
          [
            4.836647,
            52.351604
          ],
          [
            4.836519,
            52.351604
          ],
          [
            4.836415,
            52.351604
          ],
          [
            4.836313,
            52.351604
          ],
          [
            4.836215,
            52.351608
          ],
          [
            4.836137,
            52.351597
          ],
          [
            4.836016,
            52.351593
          ],
          [
            4.835916,
            52.351589
          ],
          [
            4.835824,
            52.351593
          ],
          [
            4.835739,
            52.351597
          ],
          [
            4.835613,
            52.351601
          ],
          [
            4.835515,
            52.351597
          ],
          [
            4.835415,
            52.351593
          ],
          [
            4.835312,
            52.351597
          ],
          [
            4.835216,
            52.351601
          ],
          [
            4.835116,
            52.351601
          ],
          [
            4.835018,
            52.351604
          ],
          [
            4.83492,
            52.351597
          ],
          [
            4.834825,
            52.351593
          ],
          [
            4.83473,
            52.351593
          ],
          [
            4.834639,
            52.351593
          ],
          [
            4.83454,
            52.351597
          ],
          [
            4.834446,
            52.351601
          ],
          [
            4.834342,
            52.351608
          ],
          [
            4.834251,
            52.351608
          ],
          [
            4.83415,
            52.351608
          ],
          [
            4.834043,
            52.351612
          ],
          [
            4.833961,
            52.351608
          ],
          [
            4.833867,
            52.351604
          ],
          [
            4.833777,
            52.351604
          ],
          [
            4.833581,
            52.351597
          ],
          [
            4.833504,
            52.351593
          ],
          [
            4.833357,
            52.351589
          ],
          [
            4.833283,
            52.351589
          ],
          [
            4.833137,
            52.351593
          ],
          [
            4.833035,
            52.351585
          ],
          [
            4.832922,
            52.351589
          ],
          [
            4.832859,
            52.351589
          ],
          [
            4.832714,
            52.351585
          ],
          [
            4.83261,
            52.351582
          ],
          [
            4.832508,
            52.351582
          ],
          [
            4.832413,
            52.351578
          ],
          [
            4.832323,
            52.351574
          ],
          [
            4.832212,
            52.351578
          ],
          [
            4.832091,
            52.351578
          ],
          [
            4.832019,
            52.351578
          ],
          [
            4.831871,
            52.351582
          ],
          [
            4.831778,
            52.351582
          ],
          [
            4.831734,
            52.351582
          ],
          [
            4.831596,
            52.351582
          ],
          [
            4.83152,
            52.351582
          ],
          [
            4.831429,
            52.351582
          ],
          [
            4.831345,
            52.351582
          ],
          [
            4.831256,
            52.351582
          ],
          [
            4.831205,
            52.351582
          ],
          [
            4.831035,
            52.351578
          ],
          [
            4.830919,
            52.351578
          ],
          [
            4.830798,
            52.35157
          ],
          [
            4.830695,
            52.35157
          ],
          [
            4.830629,
            52.35157
          ],
          [
            4.83048,
            52.351566
          ],
          [
            4.830384,
            52.351566
          ],
          [
            4.83028,
            52.351566
          ],
          [
            4.830178,
            52.351563
          ],
          [
            4.830084,
            52.351566
          ],
          [
            4.830022,
            52.351566
          ],
          [
            4.829899,
            52.351563
          ],
          [
            4.829817,
            52.351563
          ],
          [
            4.829695,
            52.351563
          ],
          [
            4.829593,
            52.351563
          ],
          [
            4.829546,
            52.351563
          ],
          [
            4.8294,
            52.351563
          ],
          [
            4.829286,
            52.351559
          ],
          [
            4.829175,
            52.351559
          ],
          [
            4.829101,
            52.351559
          ],
          [
            4.829025,
            52.351559
          ],
          [
            4.828871,
            52.351563
          ],
          [
            4.828845,
            52.351563
          ],
          [
            4.8287,
            52.351566
          ],
          [
            4.82859,
            52.351566
          ],
          [
            4.828593,
            52.35157
          ],
          [
            4.82838,
            52.351566
          ],
          [
            4.828274,
            52.351563
          ],
          [
            4.828164,
            52.351559
          ],
          [
            4.828091,
            52.351559
          ],
          [
            4.827993,
            52.351559
          ],
          [
            4.827866,
            52.351555
          ],
          [
            4.827778,
            52.351551
          ],
          [
            4.827778,
            52.351555
          ],
          [
            4.827603,
            52.351551
          ],
          [
            4.82751,
            52.351547
          ],
          [
            4.827434,
            52.351547
          ],
          [
            4.82743,
            52.351547
          ],
          [
            4.827255,
            52.351536
          ],
          [
            4.827129,
            52.351532
          ],
          [
            4.826991,
            52.351528
          ],
          [
            4.826901,
            52.351524
          ],
          [
            4.826814,
            52.351524
          ],
          [
            4.826795,
            52.351524
          ],
          [
            4.826606,
            52.351521
          ],
          [
            4.826548,
            52.351521
          ],
          [
            4.826459,
            52.351521
          ],
          [
            4.826279,
            52.351513
          ],
          [
            4.826274,
            52.351517
          ],
          [
            4.826075,
            52.351509
          ],
          [
            4.826037,
            52.351509
          ],
          [
            4.825901,
            52.351505
          ],
          [
            4.82577,
            52.351505
          ],
          [
            4.825695,
            52.351501
          ],
          [
            4.825629,
            52.351501
          ],
          [
            4.825435,
            52.351498
          ],
          [
            4.825353,
            52.351479
          ],
          [
            4.825178,
            52.351467
          ],
          [
            4.825076,
            52.351463
          ],
          [
            4.824974,
            52.351467
          ],
          [
            4.824875,
            52.351467
          ],
          [
            4.824769,
            52.351471
          ],
          [
            4.824749,
            52.351463
          ],
          [
            4.824565,
            52.351459
          ],
          [
            4.824462,
            52.351456
          ],
          [
            4.824362,
            52.351456
          ],
          [
            4.824259,
            52.351459
          ],
          [
            4.82419,
            52.351459
          ],
          [
            4.824062,
            52.351456
          ],
          [
            4.823948,
            52.351456
          ],
          [
            4.823846,
            52.351452
          ],
          [
            4.823747,
            52.351456
          ],
          [
            4.823676,
            52.351456
          ],
          [
            4.823547,
            52.351459
          ],
          [
            4.823446,
            52.351459
          ],
          [
            4.823359,
            52.351444
          ],
          [
            4.823233,
            52.351437
          ],
          [
            4.823157,
            52.351437
          ],
          [
            4.823029,
            52.351437
          ],
          [
            4.82293,
            52.351429
          ],
          [
            4.822828,
            52.351429
          ],
          [
            4.822728,
            52.351429
          ],
          [
            4.822651,
            52.351429
          ],
          [
            4.822524,
            52.351429
          ],
          [
            4.822421,
            52.351425
          ],
          [
            4.822319,
            52.351421
          ],
          [
            4.822219,
            52.351425
          ],
          [
            4.82214,
            52.351421
          ],
          [
            4.822013,
            52.351421
          ],
          [
            4.821914,
            52.351425
          ],
          [
            4.821816,
            52.351425
          ],
          [
            4.821718,
            52.351425
          ],
          [
            4.821619,
            52.351429
          ],
          [
            4.821517,
            52.351429
          ],
          [
            4.821418,
            52.351425
          ],
          [
            4.821319,
            52.351421
          ],
          [
            4.821223,
            52.351421
          ],
          [
            4.82114,
            52.351425
          ],
          [
            4.821021,
            52.351429
          ],
          [
            4.820919,
            52.351429
          ],
          [
            4.820821,
            52.351429
          ],
          [
            4.820724,
            52.351433
          ],
          [
            4.82069,
            52.351433
          ],
          [
            4.820535,
            52.351429
          ],
          [
            4.820402,
            52.351421
          ],
          [
            4.820302,
            52.351414
          ],
          [
            4.820206,
            52.35141
          ],
          [
            4.820088,
            52.351406
          ],
          [
            4.820015,
            52.351406
          ],
          [
            4.819884,
            52.351402
          ],
          [
            4.819782,
            52.351406
          ],
          [
            4.81968,
            52.351406
          ],
          [
            4.819583,
            52.35141
          ],
          [
            4.819521,
            52.35141
          ],
          [
            4.819375,
            52.351414
          ],
          [
            4.819271,
            52.35141
          ],
          [
            4.819172,
            52.351406
          ],
          [
            4.819074,
            52.351402
          ],
          [
            4.819006,
            52.351398
          ],
          [
            4.818866,
            52.351395
          ],
          [
            4.818763,
            52.351391
          ],
          [
            4.818668,
            52.351391
          ],
          [
            4.818559,
            52.351391
          ],
          [
            4.818477,
            52.351387
          ],
          [
            4.818351,
            52.351387
          ],
          [
            4.81825,
            52.351387
          ],
          [
            4.818151,
            52.351387
          ],
          [
            4.818047,
            52.351387
          ],
          [
            4.817977,
            52.351387
          ],
          [
            4.817841,
            52.351383
          ],
          [
            4.817741,
            52.351379
          ],
          [
            4.817644,
            52.351379
          ],
          [
            4.817542,
            52.351383
          ],
          [
            4.817473,
            52.351379
          ],
          [
            4.817335,
            52.351383
          ],
          [
            4.817234,
            52.351379
          ],
          [
            4.817138,
            52.351376
          ],
          [
            4.817036,
            52.351376
          ],
          [
            4.816956,
            52.351372
          ],
          [
            4.816834,
            52.351372
          ],
          [
            4.816734,
            52.351368
          ],
          [
            4.816635,
            52.351372
          ],
          [
            4.816537,
            52.351372
          ],
          [
            4.816459,
            52.351372
          ],
          [
            4.816331,
            52.351376
          ],
          [
            4.816228,
            52.351376
          ],
          [
            4.816126,
            52.351372
          ],
          [
            4.816027,
            52.351376
          ],
          [
            4.815959,
            52.351376
          ],
          [
            4.815825,
            52.351372
          ],
          [
            4.815723,
            52.351368
          ],
          [
            4.815623,
            52.351368
          ],
          [
            4.815527,
            52.351368
          ],
          [
            4.815452,
            52.351368
          ],
          [
            4.815329,
            52.351368
          ],
          [
            4.815228,
            52.351368
          ],
          [
            4.81513,
            52.351368
          ],
          [
            4.815058,
            52.351364
          ],
          [
            4.814929,
            52.35136
          ],
          [
            4.814833,
            52.35136
          ],
          [
            4.814728,
            52.351356
          ],
          [
            4.814626,
            52.351353
          ],
          [
            4.814526,
            52.351349
          ],
          [
            4.814461,
            52.351345
          ],
          [
            4.814327,
            52.351341
          ],
          [
            4.814224,
            52.351334
          ],
          [
            4.814123,
            52.35133
          ],
          [
            4.814022,
            52.351322
          ],
          [
            4.813954,
            52.351315
          ],
          [
            4.813823,
            52.351303
          ],
          [
            4.813721,
            52.351295
          ],
          [
            4.813621,
            52.351288
          ],
          [
            4.813522,
            52.351276
          ],
          [
            4.813451,
            52.351269
          ],
          [
            4.813325,
            52.351254
          ],
          [
            4.813224,
            52.351238
          ],
          [
            4.813125,
            52.351231
          ],
          [
            4.813027,
            52.351215
          ],
          [
            4.812956,
            52.351204
          ],
          [
            4.812831,
            52.351189
          ],
          [
            4.812729,
            52.351173
          ],
          [
            4.812631,
            52.351158
          ],
          [
            4.812534,
            52.351143
          ],
          [
            4.81246,
            52.351131
          ],
          [
            4.81234,
            52.351112
          ],
          [
            4.812241,
            52.351093
          ],
          [
            4.812135,
            52.351074
          ],
          [
            4.81204,
            52.351055
          ],
          [
            4.811951,
            52.351036
          ],
          [
            4.811853,
            52.351013
          ],
          [
            4.811763,
            52.350986
          ],
          [
            4.811677,
            52.35096
          ],
          [
            4.811588,
            52.350945
          ],
          [
            4.811546,
            52.350948
          ],
          [
            4.811422,
            52.350971
          ],
          [
            4.811367,
            52.350979
          ],
          [
            4.811322,
            52.350994
          ],
          [
            4.811278,
            52.351002
          ],
          [
            4.811275,
            52.351002
          ],
          [
            4.811237,
            52.351002
          ],
          [
            4.811175,
            52.350994
          ],
          [
            4.811054,
            52.350967
          ],
          [
            4.81103,
            52.350956
          ],
          [
            4.81099,
            52.350929
          ],
          [
            4.810955,
            52.35091
          ],
          [
            4.810812,
            52.35083
          ],
          [
            4.810713,
            52.350796
          ],
          [
            4.810636,
            52.35078
          ],
          [
            4.810579,
            52.350769
          ],
          [
            4.810503,
            52.350758
          ],
          [
            4.810437,
            52.35075
          ],
          [
            4.81032,
            52.350731
          ],
          [
            4.810213,
            52.350712
          ],
          [
            4.81011,
            52.350689
          ],
          [
            4.80999,
            52.350662
          ],
          [
            4.809885,
            52.350636
          ],
          [
            4.80975,
            52.350597
          ],
          [
            4.80967,
            52.350582
          ],
          [
            4.809593,
            52.350567
          ],
          [
            4.809492,
            52.350548
          ],
          [
            4.80935,
            52.350517
          ],
          [
            4.809231,
            52.350491
          ],
          [
            4.809136,
            52.350472
          ],
          [
            4.80904,
            52.350449
          ],
          [
            4.808942,
            52.350426
          ],
          [
            4.808907,
            52.350418
          ],
          [
            4.808752,
            52.350388
          ],
          [
            4.808661,
            52.350368
          ],
          [
            4.808563,
            52.350349
          ],
          [
            4.808527,
            52.350342
          ],
          [
            4.808372,
            52.350307
          ],
          [
            4.808278,
            52.350288
          ],
          [
            4.808263,
            52.350285
          ],
          [
            4.808092,
            52.35025
          ],
          [
            4.807987,
            52.350227
          ],
          [
            4.807894,
            52.350204
          ],
          [
            4.807804,
            52.350185
          ],
          [
            4.807703,
            52.350166
          ],
          [
            4.807697,
            52.350166
          ],
          [
            4.807507,
            52.350128
          ],
          [
            4.807406,
            52.350109
          ],
          [
            4.807315,
            52.35009
          ],
          [
            4.807225,
            52.350067
          ],
          [
            4.807209,
            52.350067
          ],
          [
            4.807026,
            52.350025
          ],
          [
            4.806932,
            52.350006
          ],
          [
            4.806912,
            52.350002
          ],
          [
            4.806789,
            52.349972
          ],
          [
            4.806721,
            52.349953
          ],
          [
            4.806619,
            52.34993
          ],
          [
            4.806537,
            52.349911
          ],
          [
            4.80645,
            52.349892
          ],
          [
            4.806457,
            52.349892
          ],
          [
            4.806309,
            52.349861
          ],
          [
            4.806169,
            52.349831
          ],
          [
            4.806074,
            52.349808
          ],
          [
            4.805977,
            52.349789
          ],
          [
            4.805878,
            52.34977
          ],
          [
            4.805801,
            52.349754
          ],
          [
            4.805688,
            52.349731
          ],
          [
            4.805597,
            52.349712
          ],
          [
            4.8055,
            52.349689
          ],
          [
            4.805402,
            52.349667
          ],
          [
            4.805328,
            52.349651
          ],
          [
            4.805214,
            52.349628
          ],
          [
            4.805124,
            52.349609
          ],
          [
            4.805026,
            52.34959
          ],
          [
            4.804931,
            52.349571
          ],
          [
            4.804858,
            52.349556
          ],
          [
            4.80474,
            52.349533
          ],
          [
            4.804645,
            52.349514
          ],
          [
            4.804548,
            52.349495
          ],
          [
            4.80445,
            52.349476
          ],
          [
            4.804374,
            52.349461
          ],
          [
            4.80426,
            52.349442
          ],
          [
            4.804167,
            52.349426
          ],
          [
            4.804069,
            52.349407
          ],
          [
            4.803971,
            52.349388
          ],
          [
            4.803908,
            52.349377
          ],
          [
            4.803782,
            52.34935
          ],
          [
            4.80368,
            52.349331
          ],
          [
            4.803588,
            52.349316
          ],
          [
            4.803457,
            52.349285
          ],
          [
            4.803346,
            52.349266
          ],
          [
            4.803197,
            52.349236
          ],
          [
            4.80309,
            52.349209
          ],
          [
            4.802995,
            52.34919
          ],
          [
            4.802898,
            52.349171
          ],
          [
            4.802818,
            52.349155
          ],
          [
            4.802703,
            52.349133
          ],
          [
            4.802609,
            52.349117
          ],
          [
            4.802511,
            52.349098
          ],
          [
            4.802414,
            52.349079
          ],
          [
            4.802336,
            52.349064
          ],
          [
            4.80222,
            52.349033
          ],
          [
            4.802123,
            52.349018
          ],
          [
            4.80203,
            52.348999
          ],
          [
            4.801932,
            52.34898
          ],
          [
            4.801842,
            52.348961
          ],
          [
            4.801739,
            52.348942
          ],
          [
            4.801643,
            52.348923
          ],
          [
            4.801549,
            52.348904
          ],
          [
            4.801448,
            52.348881
          ],
          [
            4.801377,
            52.348866
          ],
          [
            4.80125,
            52.348843
          ],
          [
            4.801156,
            52.348824
          ],
          [
            4.801059,
            52.348801
          ],
          [
            4.800961,
            52.348778
          ],
          [
            4.800876,
            52.348763
          ],
          [
            4.800768,
            52.348743
          ],
          [
            4.800675,
            52.348728
          ],
          [
            4.800577,
            52.348709
          ],
          [
            4.800482,
            52.348682
          ],
          [
            4.800397,
            52.348667
          ],
          [
            4.800291,
            52.348637
          ],
          [
            4.800201,
            52.348618
          ],
          [
            4.800107,
            52.348591
          ],
          [
            4.800019,
            52.348556
          ],
          [
            4.799931,
            52.348534
          ],
          [
            4.799845,
            52.348499
          ],
          [
            4.79976,
            52.348476
          ],
          [
            4.799673,
            52.34845
          ],
          [
            4.799586,
            52.348412
          ],
          [
            4.799504,
            52.348385
          ],
          [
            4.799406,
            52.348343
          ],
          [
            4.799321,
            52.348316
          ],
          [
            4.799239,
            52.348278
          ],
          [
            4.799151,
            52.348244
          ],
          [
            4.799062,
            52.348217
          ],
          [
            4.798975,
            52.348183
          ],
          [
            4.798893,
            52.348145
          ],
          [
            4.798815,
            52.34811
          ],
          [
            4.798738,
            52.348068
          ],
          [
            4.798657,
            52.34803
          ],
          [
            4.798577,
            52.347992
          ],
          [
            4.7985,
            52.347958
          ],
          [
            4.798412,
            52.347923
          ],
          [
            4.798357,
            52.347916
          ],
          [
            4.798241,
            52.347908
          ],
          [
            4.798124,
            52.347897
          ],
          [
            4.798031,
            52.347885
          ],
          [
            4.797953,
            52.347855
          ],
          [
            4.797927,
            52.347839
          ],
          [
            4.797842,
            52.347771
          ],
          [
            4.79781,
            52.347717
          ],
          [
            4.797799,
            52.347656
          ],
          [
            4.797776,
            52.347599
          ],
          [
            4.79772,
            52.347549
          ],
          [
            4.797656,
            52.3475
          ],
          [
            4.797593,
            52.347454
          ],
          [
            4.797526,
            52.347412
          ],
          [
            4.797452,
            52.347362
          ],
          [
            4.797386,
            52.347313
          ],
          [
            4.797322,
            52.347263
          ],
          [
            4.797258,
            52.347218
          ],
          [
            4.797198,
            52.347172
          ],
          [
            4.797132,
            52.347122
          ],
          [
            4.79707,
            52.347073
          ],
          [
            4.797008,
            52.347019
          ],
          [
            4.796949,
            52.346973
          ],
          [
            4.796892,
            52.34692
          ],
          [
            4.796835,
            52.34687
          ],
          [
            4.796781,
            52.346821
          ],
          [
            4.796728,
            52.346767
          ],
          [
            4.796679,
            52.346718
          ],
          [
            4.796629,
            52.346664
          ],
          [
            4.796576,
            52.346611
          ],
          [
            4.796527,
            52.346554
          ],
          [
            4.796481,
            52.346497
          ],
          [
            4.796442,
            52.346443
          ],
          [
            4.796397,
            52.34639
          ],
          [
            4.796356,
            52.346333
          ],
          [
            4.796317,
            52.346275
          ],
          [
            4.796279,
            52.346218
          ],
          [
            4.796245,
            52.346165
          ],
          [
            4.796209,
            52.346107
          ],
          [
            4.796175,
            52.34605
          ],
          [
            4.796138,
            52.345997
          ],
          [
            4.796101,
            52.34594
          ],
          [
            4.796065,
            52.34589
          ],
          [
            4.796031,
            52.345825
          ],
          [
            4.795997,
            52.345764
          ],
          [
            4.795958,
            52.345707
          ],
          [
            4.795925,
            52.34565
          ],
          [
            4.795893,
            52.345596
          ],
          [
            4.795853,
            52.345539
          ],
          [
            4.795819,
            52.345478
          ],
          [
            4.795781,
            52.345421
          ],
          [
            4.795747,
            52.34536
          ],
          [
            4.795711,
            52.345303
          ],
          [
            4.795677,
            52.345249
          ],
          [
            4.795642,
            52.345192
          ],
          [
            4.795602,
            52.345135
          ],
          [
            4.79557,
            52.345074
          ],
          [
            4.795536,
            52.345016
          ],
          [
            4.795502,
            52.344963
          ],
          [
            4.795465,
            52.344902
          ],
          [
            4.79543,
            52.344845
          ],
          [
            4.795396,
            52.344784
          ],
          [
            4.795368,
            52.344727
          ],
          [
            4.795348,
            52.344673
          ],
          [
            4.795328,
            52.344608
          ],
          [
            4.795314,
            52.344543
          ],
          [
            4.795306,
            52.344482
          ],
          [
            4.795301,
            52.344425
          ],
          [
            4.795294,
            52.344368
          ],
          [
            4.795279,
            52.344303
          ],
          [
            4.795253,
            52.344238
          ],
          [
            4.79522,
            52.344177
          ],
          [
            4.795191,
            52.344124
          ],
          [
            4.795159,
            52.344078
          ],
          [
            4.795125,
            52.344025
          ],
          [
            4.795086,
            52.343967
          ],
          [
            4.795047,
            52.34391
          ],
          [
            4.795012,
            52.343857
          ],
          [
            4.794967,
            52.343788
          ],
          [
            4.794926,
            52.343731
          ],
          [
            4.79489,
            52.343678
          ],
          [
            4.794853,
            52.34362
          ],
          [
            4.79481,
            52.343559
          ],
          [
            4.794771,
            52.343502
          ],
          [
            4.794734,
            52.343452
          ],
          [
            4.794696,
            52.343399
          ],
          [
            4.794655,
            52.343338
          ],
          [
            4.794619,
            52.343292
          ],
          [
            4.794578,
            52.343231
          ],
          [
            4.79452,
            52.343147
          ],
          [
            4.794479,
            52.343086
          ],
          [
            4.794441,
            52.343033
          ],
          [
            4.794401,
            52.342976
          ],
          [
            4.794363,
            52.342915
          ],
          [
            4.794322,
            52.342857
          ],
          [
            4.794281,
            52.3428
          ],
          [
            4.794243,
            52.342747
          ],
          [
            4.794202,
            52.342686
          ],
          [
            4.794164,
            52.342628
          ],
          [
            4.794126,
            52.342571
          ],
          [
            4.794088,
            52.342514
          ],
          [
            4.794047,
            52.342457
          ],
          [
            4.794003,
            52.342396
          ],
          [
            4.793959,
            52.342342
          ],
          [
            4.793912,
            52.342289
          ],
          [
            4.793862,
            52.342236
          ],
          [
            4.793804,
            52.342186
          ],
          [
            4.793735,
            52.342133
          ],
          [
            4.793668,
            52.342087
          ],
          [
            4.793598,
            52.342041
          ],
          [
            4.793531,
            52.341999
          ],
          [
            4.793457,
            52.341957
          ],
          [
            4.79338,
            52.341915
          ],
          [
            4.7933,
            52.341877
          ],
          [
            4.79322,
            52.341839
          ],
          [
            4.793141,
            52.341801
          ],
          [
            4.793067,
            52.341763
          ],
          [
            4.792996,
            52.341713
          ],
          [
            4.792929,
            52.341667
          ],
          [
            4.792868,
            52.341618
          ],
          [
            4.792814,
            52.341568
          ],
          [
            4.792771,
            52.341511
          ],
          [
            4.792725,
            52.341457
          ],
          [
            4.792683,
            52.341404
          ],
          [
            4.79264,
            52.341347
          ],
          [
            4.792597,
            52.34129
          ],
          [
            4.792555,
            52.341232
          ],
          [
            4.792517,
            52.341179
          ],
          [
            4.792477,
            52.341118
          ],
          [
            4.792437,
            52.341057
          ],
          [
            4.792396,
            52.341
          ],
          [
            4.792356,
            52.340946
          ],
          [
            4.79231,
            52.340893
          ],
          [
            4.79226,
            52.340847
          ],
          [
            4.792204,
            52.340805
          ],
          [
            4.792149,
            52.340771
          ],
          [
            4.792091,
            52.34074
          ],
          [
            4.79203,
            52.34071
          ],
          [
            4.79197,
            52.340683
          ],
          [
            4.79191,
            52.34066
          ],
          [
            4.791845,
            52.340652
          ],
          [
            4.791786,
            52.34066
          ],
          [
            4.791757,
            52.340672
          ],
          [
            4.791689,
            52.340721
          ],
          [
            4.791647,
            52.340763
          ],
          [
            4.791596,
            52.340794
          ],
          [
            4.791539,
            52.340839
          ],
          [
            4.791485,
            52.340885
          ],
          [
            4.791438,
            52.340927
          ],
          [
            4.791388,
            52.340977
          ],
          [
            4.791336,
            52.341019
          ],
          [
            4.791269,
            52.341064
          ],
          [
            4.791224,
            52.34108
          ],
          [
            4.791162,
            52.341091
          ],
          [
            4.791125,
            52.341091
          ],
          [
            4.790914,
            52.341076
          ],
          [
            4.790827,
            52.341049
          ],
          [
            4.790745,
            52.341007
          ],
          [
            4.790664,
            52.340961
          ],
          [
            4.790587,
            52.340919
          ],
          [
            4.790504,
            52.340874
          ],
          [
            4.790432,
            52.340828
          ],
          [
            4.790368,
            52.340775
          ],
          [
            4.790292,
            52.340725
          ],
          [
            4.790225,
            52.340679
          ],
          [
            4.790153,
            52.34063
          ],
          [
            4.790079,
            52.34058
          ],
          [
            4.790011,
            52.34053
          ],
          [
            4.789927,
            52.340477
          ],
          [
            4.789856,
            52.340431
          ],
          [
            4.789786,
            52.340382
          ],
          [
            4.789716,
            52.340332
          ],
          [
            4.789649,
            52.340286
          ],
          [
            4.78957,
            52.340233
          ],
          [
            4.789509,
            52.340187
          ],
          [
            4.789433,
            52.340137
          ],
          [
            4.789361,
            52.340088
          ],
          [
            4.789287,
            52.340034
          ],
          [
            4.789216,
            52.339985
          ],
          [
            4.789152,
            52.339939
          ],
          [
            4.789085,
            52.339893
          ],
          [
            4.789014,
            52.339848
          ],
          [
            4.788939,
            52.339794
          ],
          [
            4.78887,
            52.339748
          ],
          [
            4.788803,
            52.339699
          ],
          [
            4.788733,
            52.339649
          ],
          [
            4.788663,
            52.3396
          ],
          [
            4.788594,
            52.33955
          ],
          [
            4.788529,
            52.339504
          ],
          [
            4.788457,
            52.339458
          ],
          [
            4.788387,
            52.339409
          ],
          [
            4.788319,
            52.339367
          ],
          [
            4.788241,
            52.339317
          ],
          [
            4.788164,
            52.339275
          ],
          [
            4.788084,
            52.339237
          ],
          [
            4.788001,
            52.339203
          ],
          [
            4.787928,
            52.339176
          ],
          [
            4.78781,
            52.339138
          ],
          [
            4.787718,
            52.339111
          ],
          [
            4.787629,
            52.339088
          ],
          [
            4.787535,
            52.339073
          ],
          [
            4.787448,
            52.339054
          ],
          [
            4.787345,
            52.339035
          ],
          [
            4.787249,
            52.339012
          ],
          [
            4.78716,
            52.338993
          ],
          [
            4.78706,
            52.33897
          ],
          [
            4.786974,
            52.338955
          ],
          [
            4.786867,
            52.338936
          ],
          [
            4.786775,
            52.338917
          ],
          [
            4.786681,
            52.338898
          ],
          [
            4.786583,
            52.338879
          ],
          [
            4.786513,
            52.33886
          ],
          [
            4.786391,
            52.338829
          ],
          [
            4.786295,
            52.338806
          ],
          [
            4.786202,
            52.338783
          ],
          [
            4.786104,
            52.33876
          ],
          [
            4.786012,
            52.338741
          ],
          [
            4.785909,
            52.338722
          ],
          [
            4.785816,
            52.338703
          ],
          [
            4.785724,
            52.338684
          ],
          [
            4.785626,
            52.338661
          ],
          [
            4.785545,
            52.338646
          ],
          [
            4.785438,
            52.338627
          ],
          [
            4.785347,
            52.338608
          ],
          [
            4.785249,
            52.338585
          ],
          [
            4.785158,
            52.338566
          ],
          [
            4.785068,
            52.338543
          ],
          [
            4.784953,
            52.33852
          ],
          [
            4.784857,
            52.338497
          ],
          [
            4.784762,
            52.338474
          ],
          [
            4.78467,
            52.338455
          ],
          [
            4.784608,
            52.33844
          ],
          [
            4.784469,
            52.338409
          ],
          [
            4.784376,
            52.338387
          ],
          [
            4.784286,
            52.338364
          ],
          [
            4.784195,
            52.338345
          ],
          [
            4.784113,
            52.338325
          ],
          [
            4.783999,
            52.338299
          ],
          [
            4.783903,
            52.338276
          ],
          [
            4.783812,
            52.338253
          ],
          [
            4.783727,
            52.338219
          ],
          [
            4.783641,
            52.338184
          ],
          [
            4.783556,
            52.338146
          ],
          [
            4.78348,
            52.338112
          ],
          [
            4.783408,
            52.33807
          ],
          [
            4.783336,
            52.338024
          ],
          [
            4.783265,
            52.337978
          ],
          [
            4.783195,
            52.337933
          ],
          [
            4.783126,
            52.337887
          ],
          [
            4.783057,
            52.337845
          ],
          [
            4.782986,
            52.337799
          ],
          [
            4.782916,
            52.337753
          ],
          [
            4.78284,
            52.337711
          ],
          [
            4.782767,
            52.337673
          ],
          [
            4.782691,
            52.337643
          ],
          [
            4.782612,
            52.337612
          ],
          [
            4.782532,
            52.337585
          ],
          [
            4.782454,
            52.337563
          ],
          [
            4.782371,
            52.337536
          ],
          [
            4.782283,
            52.337513
          ],
          [
            4.782185,
            52.337498
          ],
          [
            4.782086,
            52.337482
          ],
          [
            4.781988,
            52.337471
          ],
          [
            4.781891,
            52.337467
          ],
          [
            4.781808,
            52.337467
          ],
          [
            4.781693,
            52.337463
          ],
          [
            4.781592,
            52.337463
          ],
          [
            4.781489,
            52.337467
          ],
          [
            4.781403,
            52.337482
          ],
          [
            4.78132,
            52.337498
          ],
          [
            4.781217,
            52.337517
          ],
          [
            4.781126,
            52.337532
          ],
          [
            4.781035,
            52.337551
          ],
          [
            4.780914,
            52.337578
          ],
          [
            4.780824,
            52.337601
          ],
          [
            4.780731,
            52.337624
          ],
          [
            4.780641,
            52.33765
          ],
          [
            4.780549,
            52.337677
          ],
          [
            4.780458,
            52.3377
          ],
          [
            4.780371,
            52.337727
          ],
          [
            4.780272,
            52.337753
          ],
          [
            4.780179,
            52.33778
          ],
          [
            4.780089,
            52.337807
          ],
          [
            4.779998,
            52.337833
          ],
          [
            4.779918,
            52.337856
          ],
          [
            4.779814,
            52.337887
          ],
          [
            4.779723,
            52.337913
          ],
          [
            4.779636,
            52.337936
          ],
          [
            4.779552,
            52.337967
          ],
          [
            4.779475,
            52.337997
          ],
          [
            4.779406,
            52.338036
          ],
          [
            4.779334,
            52.338074
          ],
          [
            4.779258,
            52.338116
          ],
          [
            4.779176,
            52.338158
          ],
          [
            4.7791,
            52.338196
          ],
          [
            4.779021,
            52.338242
          ],
          [
            4.778943,
            52.33828
          ]
        ]
      }
    }
  ]
}