{
  "type": "FeatureCollection",
  "features": [
    {
      "type": "Feature",
      "properties": {
        "id": "amsterdam-ride-11223280-59e6-11f1-8ad1-a40dbc8fa83a",
        "title": "Amsterdam ride",
        "source": "Amsterdam ride-11223280-59e6-11f1-8ad1-a40dbc8fa83a.fit"
      },
      "geometry": {
        "type": "LineString",
        "coordinates": [
          [
            4.873035,
            52.360374
          ],
          [
            4.873035,
            52.360374
          ],
          [
            4.873013,
            52.360386
          ],
          [
            4.873013,
            52.360386
          ],
          [
            4.873013,
            52.360386
          ],
          [
            4.872994,
            52.360371
          ],
          [
            4.872994,
            52.360371
          ],
          [
            4.87299,
            52.360355
          ],
          [
            4.872985,
            52.360344
          ],
          [
            4.872978,
            52.360325
          ],
          [
            4.872966,
            52.360302
          ],
          [
            4.87296,
            52.360283
          ],
          [
            4.872953,
            52.36026
          ],
          [
            4.872952,
            52.360233
          ],
          [
            4.872949,
            52.360207
          ],
          [
            4.872942,
            52.36018
          ],
          [
            4.872944,
            52.360146
          ],
          [
            4.872942,
            52.360115
          ],
          [
            4.872938,
            52.360088
          ],
          [
            4.872943,
            52.360058
          ],
          [
            4.872953,
            52.360031
          ],
          [
            4.872965,
            52.360001
          ],
          [
            4.872973,
            52.359974
          ],
          [
            4.872987,
            52.359936
          ],
          [
            4.872998,
            52.359905
          ],
          [
            4.873006,
            52.359871
          ],
          [
            4.873008,
            52.359829
          ],
          [
            4.873,
            52.359791
          ],
          [
            4.872973,
            52.359756
          ],
          [
            4.872942,
            52.359726
          ],
          [
            4.872896,
            52.359695
          ],
          [
            4.872858,
            52.359676
          ],
          [
            4.872808,
            52.359661
          ],
          [
            4.872753,
            52.359653
          ],
          [
            4.872703,
            52.35965
          ],
          [
            4.872657,
            52.359653
          ],
          [
            4.872609,
            52.359669
          ],
          [
            4.872564,
            52.359684
          ],
          [
            4.872516,
            52.359699
          ],
          [
            4.872466,
            52.359722
          ],
          [
            4.872427,
            52.359741
          ],
          [
            4.872391,
            52.35976
          ],
          [
            4.872345,
            52.359779
          ],
          [
            4.872307,
            52.359791
          ],
          [
            4.872262,
            52.359798
          ],
          [
            4.872222,
            52.359798
          ],
          [
            4.872187,
            52.359798
          ],
          [
            4.872153,
            52.359806
          ],
          [
            4.872153,
            52.359806
          ],
          [
            4.872097,
            52.35981
          ],
          [
            4.872071,
            52.359821
          ],
          [
            4.872041,
            52.359829
          ],
          [
            4.871981,
            52.359833
          ],
          [
            4.871928,
            52.359825
          ],
          [
            4.871871,
            52.35981
          ],
          [
            4.871818,
            52.359791
          ],
          [
            4.87176,
            52.359776
          ],
          [
            4.871708,
            52.35976
          ],
          [
            4.871654,
            52.359741
          ],
          [
            4.87161,
            52.359726
          ],
          [
            4.871564,
            52.359707
          ],
          [
            4.871521,
            52.359688
          ],
          [
            4.87148,
            52.359669
          ],
          [
            4.871442,
            52.359646
          ],
          [
            4.871395,
            52.359623
          ],
          [
            4.871346,
            52.359596
          ],
          [
            4.871307,
            52.359577
          ],
          [
            4.871263,
            52.35955
          ],
          [
            4.87122,
            52.35952
          ],
          [
            4.871178,
            52.359493
          ],
          [
            4.871133,
            52.359467
          ],
          [
            4.871088,
            52.359432
          ],
          [
            4.871034,
            52.359402
          ],
          [
            4.870974,
            52.359375
          ],
          [
            4.87092,
            52.359345
          ],
          [
            4.870854,
            52.359314
          ],
          [
            4.870795,
            52.35928
          ],
          [
            4.870732,
            52.359249
          ],
          [
            4.870658,
            52.359211
          ],
          [
            4.870593,
            52.35918
          ],
          [
            4.870526,
            52.359146
          ],
          [
            4.87045,
            52.359108
          ],
          [
            4.870376,
            52.359089
          ],
          [
            4.870294,
            52.35907
          ],
          [
            4.870238,
            52.359058
          ],
          [
            4.870131,
            52.359051
          ],
          [
            4.870056,
            52.359047
          ],
          [
            4.869976,
            52.359043
          ],
          [
            4.869905,
            52.359043
          ],
          [
            4.869832,
            52.359039
          ],
          [
            4.869769,
            52.359032
          ],
          [
            4.869696,
            52.359024
          ],
          [
            4.869616,
            52.359016
          ],
          [
            4.869549,
            52.359001
          ],
          [
            4.869471,
            52.358982
          ],
          [
            4.869405,
            52.358967
          ],
          [
            4.869338,
            52.35894
          ],
          [
            4.869274,
            52.358917
          ],
          [
            4.86921,
            52.358887
          ],
          [
            4.869152,
            52.358856
          ],
          [
            4.869097,
            52.35883
          ],
          [
            4.86905,
            52.358807
          ],
          [
            4.868996,
            52.35878
          ],
          [
            4.868951,
            52.358757
          ],
          [
            4.868911,
            52.358727
          ],
          [
            4.86887,
            52.3587
          ],
          [
            4.868832,
            52.358673
          ],
          [
            4.868786,
            52.358643
          ],
          [
            4.868742,
            52.358608
          ],
          [
            4.868702,
            52.35857
          ],
          [
            4.868677,
            52.358536
          ],
          [
            4.868658,
            52.358501
          ],
          [
            4.868645,
            52.358463
          ],
          [
            4.868636,
            52.358421
          ],
          [
            4.868625,
            52.358372
          ],
          [
            4.868614,
            52.35833
          ],
          [
            4.868598,
            52.35828
          ],
          [
            4.868569,
            52.358238
          ],
          [
            4.868523,
            52.358196
          ],
          [
            4.868459,
            52.358166
          ],
          [
            4.868391,
            52.358135
          ],
          [
            4.868323,
            52.358101
          ],
          [
            4.868254,
            52.35807
          ],
          [
            4.868182,
            52.35804
          ],
          [
            4.868101,
            52.358013
          ],
          [
            4.868019,
            52.357986
          ],
          [
            4.867938,
            52.35796
          ],
          [
            4.867866,
            52.357941
          ],
          [
            4.867767,
            52.357925
          ],
          [
            4.867687,
            52.357929
          ],
          [
            4.867567,
            52.357937
          ],
          [
            4.867465,
            52.357956
          ],
          [
            4.867385,
            52.357975
          ],
          [
            4.867267,
            52.358013
          ],
          [
            4.867177,
            52.358044
          ],
          [
            4.867095,
            52.358082
          ],
          [
            4.867016,
            52.35812
          ],
          [
            4.86693,
            52.358154
          ],
          [
            4.866836,
            52.358192
          ],
          [
            4.866759,
            52.358234
          ],
          [
            4.86668,
            52.358269
          ],
          [
            4.866606,
            52.358311
          ],
          [
            4.86653,
            52.358356
          ],
          [
            4.866458,
            52.358406
          ],
          [
            4.866396,
            52.358452
          ],
          [
            4.86633,
            52.358498
          ],
          [
            4.866269,
            52.358543
          ],
          [
            4.866198,
            52.358589
          ],
          [
            4.866123,
            52.358631
          ],
          [
            4.866047,
            52.358669
          ],
          [
            4.865963,
            52.3587
          ],
          [
            4.865877,
            52.358723
          ],
          [
            4.865786,
            52.358749
          ],
          [
            4.865709,
            52.358768
          ],
          [
            4.865639,
            52.358799
          ],
          [
            4.865579,
            52.358833
          ],
          [
            4.865529,
            52.358868
          ],
          [
            4.865506,
            52.358902
          ],
          [
            4.865496,
            52.358936
          ],
          [
            4.865484,
            52.358978
          ],
          [
            4.865457,
            52.359016
          ],
          [
            4.865432,
            52.359047
          ],
          [
            4.865401,
            52.359077
          ],
          [
            4.865369,
            52.359116
          ],
          [
            4.865335,
            52.359154
          ],
          [
            4.865301,
            52.359188
          ],
          [
            4.865263,
            52.359226
          ],
          [
            4.865229,
            52.359264
          ],
          [
            4.865201,
            52.359303
          ],
          [
            4.865171,
            52.359337
          ],
          [
            4.865149,
            52.359371
          ],
          [
            4.865134,
            52.359402
          ],
          [
            4.865119,
            52.359428
          ],
          [
            4.865091,
            52.359467
          ],
          [
            4.865066,
            52.359501
          ],
          [
            4.865043,
            52.359531
          ],
          [
            4.86502,
            52.359562
          ],
          [
            4.864999,
            52.359581
          ],
          [
            4.864984,
            52.359615
          ],
          [
            4.864964,
            52.359638
          ],
          [
            4.86495,
            52.359665
          ],
          [
            4.864933,
            52.359688
          ],
          [
            4.864903,
            52.35973
          ],
          [
            4.86489,
            52.35976
          ],
          [
            4.864874,
            52.359779
          ],
          [
            4.864874,
            52.359795
          ],
          [
            4.864861,
            52.359806
          ],
          [
            4.864855,
            52.359829
          ],
          [
            4.864829,
            52.359844
          ],
          [
            4.864817,
            52.359879
          ],
          [
            4.864797,
            52.359894
          ],
          [
            4.864797,
            52.359894
          ],
          [
            4.864772,
            52.359943
          ],
          [
            4.864772,
            52.359943
          ],
          [
            4.864772,
            52.359943
          ],
          [
            4.864737,
            52.359978
          ],
          [
            4.864737,
            52.359978
          ],
          [
            4.864724,
            52.359989
          ],
          [
            4.864726,
            52.359989
          ],
          [
            4.864726,
            52.359989
          ],
          [
            4.864726,
            52.359989
          ],
          [
            4.864726,
            52.359989
          ],
          [
            4.864702,
            52.360012
          ],
          [
            4.864697,
            52.360012
          ],
          [
            4.864697,
            52.36002
          ],
          [
            4.864695,
            52.360027
          ],
          [
            4.864691,
            52.360039
          ],
          [
            4.864686,
            52.360058
          ],
          [
            4.86468,
            52.360073
          ],
          [
            4.864679,
            52.360085
          ],
          [
            4.86467,
            52.360104
          ],
          [
            4.86467,
            52.360104
          ],
          [
            4.864629,
            52.360138
          ],
          [
            4.864605,
            52.360149
          ],
          [
            4.864594,
            52.360149
          ],
          [
            4.864563,
            52.360149
          ],
          [
            4.864529,
            52.360142
          ],
          [
            4.864497,
            52.360138
          ],
          [
            4.864453,
            52.360126
          ],
          [
            4.864407,
            52.360119
          ],
          [
            4.864341,
            52.360104
          ],
          [
            4.864279,
            52.360088
          ],
          [
            4.864254,
            52.360085
          ],
          [
            4.864154,
            52.360062
          ],
          [
            4.864078,
            52.360046
          ],
          [
            4.864054,
            52.360043
          ],
          [
            4.863933,
            52.360016
          ],
          [
            4.863846,
            52.359997
          ],
          [
            4.863764,
            52.359978
          ],
          [
            4.86368,
            52.359959
          ],
          [
            4.863599,
            52.359936
          ],
          [
            4.863512,
            52.359913
          ],
          [
            4.863429,
            52.359894
          ],
          [
            4.863349,
            52.359875
          ],
          [
            4.863268,
            52.359856
          ],
          [
            4.863183,
            52.359833
          ],
          [
            4.863093,
            52.359814
          ],
          [
            4.863008,
            52.359791
          ],
          [
            4.862921,
            52.359772
          ],
          [
            4.862833,
            52.359749
          ],
          [
            4.862741,
            52.35973
          ],
          [
            4.862654,
            52.359711
          ],
          [
            4.862568,
            52.359692
          ],
          [
            4.862555,
            52.359688
          ],
          [
            4.862412,
            52.359657
          ],
          [
            4.862313,
            52.359634
          ],
          [
            4.862225,
            52.359615
          ],
          [
            4.86214,
            52.359596
          ],
          [
            4.862062,
            52.359581
          ],
          [
            4.861987,
            52.359573
          ],
          [
            4.861927,
            52.359566
          ],
          [
            4.861877,
            52.359566
          ],
          [
            4.861831,
            52.359581
          ],
          [
            4.861799,
            52.359604
          ],
          [
            4.861771,
            52.359634
          ],
          [
            4.861745,
            52.359673
          ],
          [
            4.861714,
            52.359711
          ],
          [
            4.861689,
            52.359749
          ],
          [
            4.861662,
            52.359787
          ],
          [
            4.861633,
            52.359829
          ],
          [
            4.861605,
            52.359875
          ],
          [
            4.861581,
            52.359913
          ],
          [
            4.861562,
            52.359951
          ],
          [
            4.861556,
            52.359982
          ],
          [
            4.861567,
            52.360016
          ],
          [
            4.861593,
            52.360046
          ],
          [
            4.861637,
            52.360069
          ],
          [
            4.861688,
            52.360088
          ],
          [
            4.861748,
            52.360107
          ],
          [
            4.861801,
            52.360119
          ],
          [
            4.861869,
            52.360134
          ],
          [
            4.861942,
            52.360153
          ],
          [
            4.862005,
            52.360168
          ],
          [
            4.862081,
            52.360188
          ],
          [
            4.862147,
            52.360203
          ],
          [
            4.862201,
            52.360214
          ],
          [
            4.862293,
            52.360237
          ],
          [
            4.86233,
            52.360245
          ],
          [
            4.862434,
            52.360268
          ],
          [
            4.86251,
            52.360287
          ],
          [
            4.862589,
            52.360302
          ],
          [
            4.862666,
            52.360321
          ],
          [
            4.862727,
            52.360336
          ],
          [
            4.862797,
            52.360359
          ],
          [
            4.862861,
            52.360374
          ],
          [
            4.862922,
            52.36039
          ],
          [
            4.86298,
            52.360405
          ],
          [
            4.863026,
            52.360409
          ],
          [
            4.863076,
            52.360413
          ],
          [
            4.86312,
            52.360409
          ],
          [
            4.863158,
            52.360405
          ],
          [
            4.863205,
            52.360401
          ],
          [
            4.863242,
            52.360401
          ],
          [
            4.863281,
            52.360405
          ],
          [
            4.863316,
            52.360416
          ],
          [
            4.863354,
            52.360439
          ],
          [
            4.863379,
            52.360455
          ],
          [
            4.863403,
            52.360477
          ],
          [
            4.86342,
            52.3605
          ],
          [
            4.863435,
            52.360535
          ],
          [
            4.863448,
            52.360565
          ],
          [
            4.863449,
            52.360592
          ],
          [
            4.86344,
            52.360626
          ],
          [
            4.863427,
            52.360657
          ],
          [
            4.863407,
            52.360691
          ],
          [
            4.863389,
            52.360725
          ],
          [
            4.863365,
            52.36076
          ],
          [
            4.863345,
            52.360794
          ],
          [
            4.863318,
            52.360828
          ],
          [
            4.863291,
            52.360867
          ],
          [
            4.863265,
            52.360897
          ],
          [
            4.863235,
            52.360928
          ],
          [
            4.863212,
            52.360954
          ],
          [
            4.863173,
            52.360985
          ],
          [
            4.863137,
            52.361004
          ],
          [
            4.863093,
            52.361019
          ],
          [
            4.863049,
            52.361027
          ],
          [
            4.862996,
            52.361023
          ],
          [
            4.862957,
            52.361015
          ],
          [
            4.862922,
            52.361004
          ],
          [
            4.862883,
            52.360989
          ],
          [
            4.862849,
            52.360966
          ],
          [
            4.862825,
            52.360939
          ],
          [
            4.862804,
            52.360916
          ],
          [
            4.862779,
            52.360897
          ],
          [
            4.862767,
            52.360878
          ],
          [
            4.862766,
            52.360859
          ],
          [
            4.862769,
            52.360851
          ],
          [
            4.86277,
            52.360825
          ],
          [
            4.86278,
            52.360798
          ],
          [
            4.862789,
            52.360771
          ],
          [
            4.862798,
            52.360756
          ],
          [
            4.862812,
            52.360729
          ],
          [
            4.862828,
            52.360706
          ],
          [
            4.862844,
            52.360687
          ],
          [
            4.862857,
            52.360664
          ],
          [
            4.862874,
            52.360638
          ],
          [
            4.86289,
            52.360619
          ],
          [
            4.862908,
            52.3606
          ],
          [
            4.862916,
            52.36058
          ],
          [
            4.862916,
            52.36058
          ],
          [
            4.862916,
            52.36058
          ],
          [
            4.862916,
            52.36058
          ],
          [
            4.862916,
            52.36058
          ],
          [
            4.862927,
            52.360512
          ],
          [
            4.862927,
            52.360512
          ],
          [
            4.862929,
            52.360497
          ],
          [
            4.862929,
            52.360497
          ],
          [
            4.862929,
            52.360497
          ],
          [
            4.862963,
            52.360474
          ],
          [
            4.862963,
            52.360474
          ],
          [
            4.862991,
            52.360455
          ],
          [
            4.863005,
            52.360443
          ],
          [
            4.86302,
            52.360439
          ],
          [
            4.863044,
            52.360432
          ],
          [
            4.863066,
            52.360424
          ],
          [
            4.863098,
            52.360413
          ],
          [
            4.863134,
            52.360401
          ],
          [
            4.863166,
            52.360397
          ],
          [
            4.863203,
            52.360394
          ],
          [
            4.863242,
            52.360394
          ],
          [
            4.863287,
            52.360401
          ],
          [
            4.86332,
            52.360405
          ],
          [
            4.863357,
            52.360428
          ],
          [
            4.863405,
            52.360462
          ],
          [
            4.863449,
            52.360489
          ],
          [
            4.86349,
            52.360512
          ],
          [
            4.863543,
            52.360542
          ],
          [
            4.863591,
            52.360561
          ],
          [
            4.863602,
            52.360565
          ],
          [
            4.863726,
            52.3606
          ],
          [
            4.863803,
            52.360619
          ],
          [
            4.863881,
            52.360638
          ],
          [
            4.863953,
            52.360657
          ],
          [
            4.864027,
            52.360676
          ],
          [
            4.864065,
            52.360683
          ],
          [
            4.864167,
            52.360714
          ],
          [
            4.86422,
            52.360725
          ],
          [
            4.864324,
            52.360748
          ],
          [
            4.864401,
            52.360771
          ],
          [
            4.864447,
            52.360779
          ],
          [
            4.864551,
            52.360805
          ],
          [
            4.864629,
            52.360825
          ],
          [
            4.86471,
            52.360844
          ],
          [
            4.864784,
            52.360859
          ],
          [
            4.86485,
            52.360878
          ],
          [
            4.864909,
            52.360889
          ],
          [
            4.864959,
            52.360905
          ],
          [
            4.864999,
            52.360916
          ],
          [
            4.865032,
            52.360928
          ],
          [
            4.865065,
            52.360928
          ],
          [
            4.865097,
            52.360924
          ],
          [
            4.865129,
            52.360924
          ],
          [
            4.865159,
            52.360924
          ],
          [
            4.865159,
            52.360924
          ],
          [
            4.865159,
            52.360924
          ],
          [
            4.865159,
            52.360924
          ],
          [
            4.865159,
            52.360924
          ],
          [
            4.865236,
            52.36095
          ],
          [
            4.865239,
            52.360958
          ],
          [
            4.865239,
            52.360958
          ],
          [
            4.865245,
            52.36097
          ],
          [
            4.865254,
            52.360977
          ],
          [
            4.865252,
            52.360977
          ],
          [
            4.86529,
            52.360992
          ],
          [
            4.865348,
            52.361008
          ],
          [
            4.865383,
            52.361015
          ],
          [
            4.865457,
            52.361031
          ],
          [
            4.865525,
            52.361046
          ],
          [
            4.865544,
            52.361046
          ],
          [
            4.865654,
            52.361065
          ],
          [
            4.865736,
            52.361084
          ],
          [
            4.865813,
            52.361103
          ],
          [
            4.865854,
            52.361107
          ],
          [
            4.865969,
            52.361134
          ],
          [
            4.866062,
            52.361156
          ],
          [
            4.866154,
            52.361176
          ],
          [
            4.866238,
            52.361195
          ],
          [
            4.866323,
            52.361214
          ],
          [
            4.866411,
            52.361237
          ],
          [
            4.866504,
            52.361256
          ],
          [
            4.866593,
            52.361279
          ],
          [
            4.866681,
            52.361298
          ],
          [
            4.866726,
            52.361309
          ],
          [
            4.86685,
            52.361332
          ],
          [
            4.866951,
            52.361355
          ],
          [
            4.867046,
            52.361378
          ],
          [
            4.867138,
            52.361397
          ],
          [
            4.867232,
            52.361416
          ],
          [
            4.867322,
            52.361439
          ],
          [
            4.86741,
            52.361462
          ],
          [
            4.867499,
            52.361481
          ],
          [
            4.867593,
            52.361507
          ],
          [
            4.867682,
            52.36153
          ],
          [
            4.867766,
            52.361553
          ],
          [
            4.867858,
            52.361576
          ],
          [
            4.867951,
            52.361599
          ],
          [
            4.868043,
            52.361626
          ],
          [
            4.868133,
            52.361649
          ],
          [
            4.868218,
            52.361671
          ],
          [
            4.868304,
            52.361698
          ],
          [
            4.868393,
            52.361721
          ],
          [
            4.868477,
            52.361744
          ],
          [
            4.868565,
            52.361767
          ],
          [
            4.868649,
            52.36179
          ],
          [
            4.868738,
            52.361813
          ],
          [
            4.868823,
            52.361832
          ],
          [
            4.86885,
            52.361839
          ],
          [
            4.868979,
            52.361874
          ],
          [
            4.869072,
            52.361897
          ],
          [
            4.869151,
            52.361919
          ],
          [
            4.869194,
            52.361931
          ],
          [
            4.869316,
            52.361965
          ],
          [
            4.86941,
            52.361996
          ],
          [
            4.869497,
            52.362019
          ],
          [
            4.869585,
            52.362045
          ],
          [
            4.86967,
            52.362068
          ],
          [
            4.869762,
            52.362095
          ],
          [
            4.869844,
            52.362118
          ],
          [
            4.869924,
            52.362137
          ],
          [
            4.870008,
            52.36216
          ],
          [
            4.870089,
            52.362179
          ],
          [
            4.870165,
            52.362198
          ],
          [
            4.870232,
            52.362217
          ],
          [
            4.870304,
            52.362236
          ],
          [
            4.870373,
            52.362251
          ],
          [
            4.87044,
            52.36227
          ],
          [
            4.870495,
            52.362289
          ],
          [
            4.870561,
            52.362305
          ],
          [
            4.870622,
            52.36232
          ],
          [
            4.870681,
            52.362339
          ],
          [
            4.870736,
            52.36235
          ],
          [
            4.870796,
            52.362366
          ],
          [
            4.870852,
            52.362381
          ],
          [
            4.870914,
            52.362396
          ],
          [
            4.870975,
            52.362412
          ],
          [
            4.871044,
            52.362434
          ],
          [
            4.87111,
            52.36245
          ],
          [
            4.871164,
            52.362461
          ],
          [
            4.871246,
            52.362484
          ],
          [
            4.871311,
            52.362495
          ],
          [
            4.871392,
            52.362518
          ],
          [
            4.871464,
            52.362537
          ],
          [
            4.871542,
            52.362556
          ],
          [
            4.87162,
            52.362572
          ],
          [
            4.8717,
            52.362595
          ],
          [
            4.871777,
            52.362606
          ],
          [
            4.871856,
            52.362629
          ],
          [
            4.871938,
            52.362648
          ],
          [
            4.872015,
            52.362667
          ],
          [
            4.872095,
            52.362694
          ],
          [
            4.872172,
            52.362717
          ],
          [
            4.872256,
            52.36274
          ],
          [
            4.872335,
            52.362762
          ],
          [
            4.872409,
            52.362785
          ],
          [
            4.872489,
            52.362808
          ],
          [
            4.872563,
            52.362831
          ],
          [
            4.872638,
            52.36285
          ],
          [
            4.872706,
            52.362869
          ],
          [
            4.872782,
            52.362888
          ],
          [
            4.87285,
            52.362904
          ],
          [
            4.872912,
            52.362923
          ],
          [
            4.872976,
            52.362942
          ],
          [
            4.873043,
            52.362953
          ],
          [
            4.8731,
            52.362961
          ],
          [
            4.873151,
            52.362957
          ],
          [
            4.873195,
            52.362946
          ],
          [
            4.873236,
            52.362915
          ],
          [
            4.873262,
            52.362892
          ],
          [
            4.873289,
            52.362862
          ],
          [
            4.873312,
            52.362831
          ],
          [
            4.873337,
            52.362793
          ],
          [
            4.873359,
            52.362762
          ],
          [
            4.873379,
            52.362728
          ],
          [
            4.8734,
            52.362698
          ],
          [
            4.873419,
            52.362663
          ],
          [
            4.873433,
            52.362633
          ],
          [
            4.873453,
            52.362595
          ],
          [
            4.873471,
            52.362568
          ],
          [
            4.873487,
            52.362541
          ],
          [
            4.873508,
            52.362511
          ],
          [
            4.873521,
            52.362484
          ],
          [
            4.873522,
            52.362469
          ],
          [
            4.873513,
            52.362446
          ],
          [
            4.873473,
            52.362423
          ],
          [
            4.873455,
            52.362415
          ],
          [
            4.873366,
            52.362389
          ],
          [
            4.873298,
            52.362373
          ],
          [
            4.873223,
            52.362354
          ],
          [
            4.873157,
            52.362339
          ],
          [
            4.873081,
            52.36232
          ],
          [
            4.873009,
            52.362301
          ],
          [
            4.872934,
            52.362282
          ],
          [
            4.872858,
            52.362263
          ],
          [
            4.87279,
            52.362244
          ],
          [
            4.872719,
            52.362221
          ],
          [
            4.872648,
            52.362202
          ],
          [
            4.872584,
            52.362183
          ],
          [
            4.872523,
            52.362164
          ],
          [
            4.87245,
            52.362144
          ],
          [
            4.872382,
            52.362125
          ],
          [
            4.872314,
            52.362106
          ],
          [
            4.872242,
            52.362087
          ],
          [
            4.872171,
            52.362072
          ],
          [
            4.872111,
            52.362057
          ],
          [
            4.872042,
            52.362038
          ],
          [
            4.871973,
            52.362019
          ],
          [
            4.871909,
            52.361999
          ],
          [
            4.871848,
            52.361984
          ],
          [
            4.87178,
            52.361965
          ],
          [
            4.871709,
            52.361946
          ],
          [
            4.871647,
            52.361931
          ],
          [
            4.871574,
            52.361912
          ],
          [
            4.871502,
            52.361889
          ],
          [
            4.871437,
            52.36187
          ],
          [
            4.871361,
            52.361851
          ],
          [
            4.871294,
            52.361832
          ],
          [
            4.87122,
            52.361813
          ],
          [
            4.87115,
            52.361794
          ],
          [
            4.871078,
            52.361774
          ],
          [
            4.871014,
            52.361752
          ],
          [
            4.870944,
            52.361733
          ],
          [
            4.870877,
            52.36171
          ],
          [
            4.870809,
            52.361691
          ],
          [
            4.870748,
            52.361675
          ],
          [
            4.870675,
            52.361656
          ],
          [
            4.870609,
            52.361637
          ],
          [
            4.870545,
            52.361622
          ],
          [
            4.870471,
            52.361603
          ],
          [
            4.870401,
            52.361584
          ],
          [
            4.870333,
            52.361568
          ],
          [
            4.870261,
            52.361553
          ],
          [
            4.87019,
            52.361538
          ],
          [
            4.870126,
            52.361523
          ],
          [
            4.870055,
            52.361507
          ],
          [
            4.869981,
            52.361488
          ],
          [
            4.869915,
            52.361473
          ],
          [
            4.869842,
            52.361454
          ],
          [
            4.869777,
            52.361435
          ],
          [
            4.869705,
            52.361412
          ],
          [
            4.869638,
            52.361393
          ],
          [
            4.869568,
            52.361374
          ],
          [
            4.869497,
            52.361355
          ],
          [
            4.869431,
            52.36134
          ],
          [
            4.869365,
            52.361324
          ],
          [
            4.869288,
            52.361301
          ],
          [
            4.869215,
            52.361279
          ],
          [
            4.869134,
            52.361256
          ],
          [
            4.869047,
            52.361229
          ],
          [
            4.868956,
            52.36121
          ],
          [
            4.868862,
            52.361183
          ],
          [
            4.868768,
            52.361164
          ],
          [
            4.868702,
            52.361145
          ],
          [
            4.868585,
            52.361115
          ],
          [
            4.868484,
            52.361092
          ],
          [
            4.868389,
            52.361069
          ],
          [
            4.868295,
            52.361042
          ],
          [
            4.868228,
            52.361027
          ],
          [
            4.868112,
            52.361
          ],
          [
            4.868014,
            52.360973
          ],
          [
            4.867922,
            52.36095
          ],
          [
            4.867831,
            52.360931
          ],
          [
            4.86774,
            52.360908
          ],
          [
            4.867653,
            52.360886
          ],
          [
            4.867567,
            52.360867
          ],
          [
            4.867482,
            52.360847
          ],
          [
            4.867394,
            52.360828
          ],
          [
            4.867306,
            52.360809
          ],
          [
            4.867226,
            52.360794
          ],
          [
            4.867143,
            52.360775
          ],
          [
            4.867071,
            52.36076
          ],
          [
            4.866974,
            52.360741
          ],
          [
            4.866887,
            52.360722
          ],
          [
            4.866807,
            52.360706
          ],
          [
            4.866738,
            52.360691
          ],
          [
            4.866648,
            52.360672
          ],
          [
            4.866576,
            52.360657
          ],
          [
            4.866499,
            52.360638
          ],
          [
            4.866426,
            52.360622
          ],
          [
            4.866363,
            52.360611
          ],
          [
            4.8663,
            52.3606
          ],
          [
            4.866246,
            52.360592
          ],
          [
            4.866194,
            52.36058
          ],
          [
            4.866194,
            52.36058
          ],
          [
            4.866102,
            52.360573
          ],
          [
            4.86608,
            52.360569
          ],
          [
            4.86608,
            52.360569
          ],
          [
            4.866034,
            52.360558
          ],
          [
            4.866021,
            52.360554
          ],
          [
            4.866021,
            52.360554
          ],
          [
            4.865979,
            52.360539
          ],
          [
            4.865956,
            52.360535
          ],
          [
            4.865937,
            52.360531
          ],
          [
            4.865916,
            52.360523
          ],
          [
            4.865895,
            52.360516
          ],
          [
            4.865864,
            52.360508
          ],
          [
            4.865832,
            52.3605
          ],
          [
            4.8658,
            52.360493
          ],
          [
            4.865771,
            52.360489
          ],
          [
            4.86574,
            52.360485
          ],
          [
            4.86571,
            52.360477
          ],
          [
            4.865684,
            52.360474
          ],
          [
            4.865664,
            52.36047
          ],
          [
            4.865664,
            52.36047
          ],
          [
            4.865603,
            52.360458
          ],
          [
            4.865587,
            52.360458
          ],
          [
            4.865574,
            52.360462
          ],
          [
            4.865559,
            52.36047
          ],
          [
            4.865539,
            52.360481
          ],
          [
            4.865523,
            52.360497
          ],
          [
            4.86551,
            52.360531
          ],
          [
            4.865492,
            52.360569
          ],
          [
            4.865473,
            52.360607
          ],
          [
            4.865446,
            52.360645
          ],
          [
            4.865423,
            52.36068
          ],
          [
            4.865395,
            52.360714
          ],
          [
            4.865368,
            52.360744
          ],
          [
            4.865339,
            52.360775
          ],
          [
            4.865315,
            52.360805
          ],
          [
            4.865296,
            52.360832
          ],
          [
            4.865283,
            52.360859
          ],
          [
            4.865273,
            52.360878
          ],
          [
            4.865265,
            52.360897
          ],
          [
            4.865265,
            52.360897
          ],
          [
            4.865234,
            52.36095
          ],
          [
            4.865221,
            52.36097
          ],
          [
            4.865204,
            52.360989
          ],
          [
            4.86519,
            52.361008
          ],
          [
            4.865171,
            52.361031
          ],
          [
            4.865146,
            52.361065
          ],
          [
            4.865127,
            52.361092
          ],
          [
            4.865108,
            52.361122
          ],
          [
            4.865088,
            52.361149
          ],
          [
            4.865067,
            52.361183
          ],
          [
            4.865046,
            52.361225
          ],
          [
            4.865027,
            52.361252
          ],
          [
            4.865008,
            52.361286
          ],
          [
            4.864986,
            52.361317
          ],
          [
            4.864969,
            52.361355
          ],
          [
            4.864945,
            52.361389
          ],
          [
            4.864924,
            52.361427
          ],
          [
            4.864904,
            52.361462
          ],
          [
            4.864881,
            52.361496
          ],
          [
            4.864857,
            52.36153
          ],
          [
            4.864834,
            52.361561
          ],
          [
            4.864816,
            52.361591
          ],
          [
            4.864791,
            52.361622
          ],
          [
            4.864768,
            52.36166
          ],
          [
            4.864743,
            52.361691
          ],
          [
            4.864719,
            52.361725
          ],
          [
            4.864697,
            52.361755
          ],
          [
            4.864671,
            52.36179
          ],
          [
            4.864649,
            52.361824
          ],
          [
            4.864638,
            52.361847
          ],
          [
            4.864636,
            52.36187
          ],
          [
            4.864642,
            52.361893
          ],
          [
            4.864663,
            52.361912
          ],
          [
            4.864693,
            52.361923
          ],
          [
            4.864724,
            52.361931
          ],
          [
            4.864753,
            52.361938
          ],
          [
            4.864788,
            52.36195
          ],
          [
            4.864823,
            52.361958
          ],
          [
            4.864866,
            52.361969
          ],
          [
            4.86491,
            52.361977
          ],
          [
            4.864957,
            52.361988
          ],
          [
            4.864994,
            52.361996
          ],
          [
            4.86503,
            52.362011
          ],
          [
            4.86503,
            52.362011
          ],
          [
            4.865049,
            52.362026
          ],
          [
            4.865049,
            52.362026
          ],
          [
            4.865037,
            52.362026
          ],
          [
            4.86503,
            52.362022
          ],
          [
            4.86502,
            52.362019
          ],
          [
            4.865003,
            52.362011
          ],
          [
            4.864979,
            52.362007
          ],
          [
            4.86495,
            52.361999
          ],
          [
            4.864909,
            52.361992
          ],
          [
            4.864872,
            52.361984
          ],
          [
            4.864838,
            52.361973
          ],
          [
            4.864798,
            52.361961
          ],
          [
            4.864764,
            52.361954
          ],
          [
            4.864764,
            52.361954
          ],
          [
            4.864764,
            52.361954
          ],
          [
            4.864625,
            52.361927
          ],
          [
            4.864625,
            52.361927
          ],
          [
            4.864603,
            52.361919
          ],
          [
            4.864603,
            52.361919
          ],
          [
            4.864603,
            52.361919
          ],
          [
            4.864559,
            52.3619
          ],
          [
            4.864557,
            52.361897
          ],
          [
            4.86453,
            52.361889
          ],
          [
            4.864525,
            52.361885
          ],
          [
            4.864511,
            52.361874
          ],
          [
            4.864493,
            52.361847
          ],
          [
            4.864493,
            52.361824
          ],
          [
            4.864498,
            52.361801
          ],
          [
            4.864519,
            52.361774
          ],
          [
            4.864546,
            52.36174
          ],
          [
            4.864595,
            52.361679
          ],
          [
            4.864618,
            52.361652
          ],
          [
            4.864637,
            52.361626
          ],
          [
            4.864666,
            52.361588
          ],
          [
            4.864698,
            52.361542
          ],
          [
            4.864725,
            52.361507
          ],
          [
            4.864746,
            52.361477
          ],
          [
            4.864764,
            52.361443
          ],
          [
            4.864835,
            52.361412
          ],
          [
            4.864885,
            52.361423
          ],
          [
            4.864903,
            52.361435
          ],
          [
            4.864922,
            52.36145
          ],
          [
            4.864922,
            52.36145
          ],
          [
            4.864922,
            52.36145
          ],
          [
            4.864955,
            52.361484
          ],
          [
            4.864955,
            52.361484
          ],
          [
            4.864952,
            52.361481
          ],
          [
            4.864952,
            52.361481
          ],
          [
            4.864952,
            52.361481
          ],
          [
            4.864952,
            52.361481
          ],
          [
            4.864952,
            52.361481
          ],
          [
            4.864913,
            52.361469
          ],
          [
            4.864913,
            52.361469
          ],
          [
            4.864899,
            52.361458
          ],
          [
            4.864887,
            52.36145
          ],
          [
            4.864869,
            52.361439
          ],
          [
            4.864849,
            52.361431
          ],
          [
            4.864834,
            52.36142
          ],
          [
            4.864812,
            52.361401
          ],
          [
            4.864793,
            52.361382
          ],
          [
            4.864781,
            52.36137
          ],
          [
            4.864778,
            52.36134
          ],
          [
            4.86479,
            52.361309
          ],
          [
            4.864804,
            52.361282
          ],
          [
            4.864817,
            52.361259
          ],
          [
            4.864843,
            52.361229
          ],
          [
            4.864863,
            52.361198
          ],
          [
            4.864894,
            52.361156
          ],
          [
            4.864921,
            52.361122
          ],
          [
            4.864946,
            52.361088
          ],
          [
            4.864973,
            52.36105
          ],
          [
            4.864998,
            52.361019
          ],
          [
            4.865025,
            52.360981
          ],
          [
            4.865048,
            52.360947
          ],
          [
            4.865074,
            52.360916
          ],
          [
            4.865095,
            52.360886
          ],
          [
            4.865119,
            52.360851
          ],
          [
            4.865139,
            52.360817
          ],
          [
            4.865166,
            52.360783
          ],
          [
            4.865193,
            52.360744
          ],
          [
            4.865221,
            52.360706
          ],
          [
            4.865241,
            52.360668
          ],
          [
            4.86527,
            52.36063
          ],
          [
            4.865295,
            52.360596
          ],
          [
            4.865309,
            52.360561
          ],
          [
            4.865348,
            52.360535
          ],
          [
            4.865363,
            52.360497
          ],
          [
            4.865363,
            52.360497
          ],
          [
            4.865407,
            52.360432
          ],
          [
            4.865407,
            52.360432
          ],
          [
            4.865407,
            52.360432
          ],
          [
            4.865407,
            52.360432
          ],
          [
            4.865488,
            52.360363
          ],
          [
            4.865488,
            52.360363
          ],
          [
            4.865504,
            52.360336
          ],
          [
            4.86551,
            52.360325
          ],
          [
            4.865513,
            52.360317
          ],
          [
            4.865521,
            52.360302
          ],
          [
            4.865531,
            52.360287
          ],
          [
            4.865543,
            52.360264
          ],
          [
            4.865554,
            52.360245
          ],
          [
            4.865564,
            52.360218
          ],
          [
            4.865568,
            52.360199
          ],
          [
            4.865557,
            52.360172
          ],
          [
            4.865532,
            52.360149
          ],
          [
            4.865509,
            52.36013
          ],
          [
            4.865464,
            52.360115
          ],
          [
            4.86542,
            52.360104
          ],
          [
            4.865375,
            52.360096
          ],
          [
            4.865321,
            52.360088
          ],
          [
            4.865268,
            52.360081
          ],
          [
            4.86521,
            52.360069
          ],
          [
            4.865154,
            52.360058
          ],
          [
            4.865096,
            52.360046
          ],
          [
            4.865035,
            52.360035
          ],
          [
            4.864983,
            52.360024
          ],
          [
            4.864933,
            52.360008
          ],
          [
            4.864933,
            52.360008
          ],
          [
            4.864844,
            52.359982
          ],
          [
            4.864844,
            52.359982
          ],
          [
            4.864803,
            52.359959
          ],
          [
            4.864794,
            52.359951
          ],
          [
            4.864788,
            52.359951
          ],
          [
            4.864789,
            52.359932
          ],
          [
            4.864807,
            52.359921
          ],
          [
            4.864814,
            52.359886
          ],
          [
            4.864826,
            52.359863
          ],
          [
            4.864855,
            52.359837
          ],
          [
            4.864862,
            52.359798
          ],
          [
            4.864889,
            52.359768
          ],
          [
            4.864916,
            52.35973
          ],
          [
            4.864944,
            52.35968
          ],
          [
            4.864967,
            52.359642
          ],
          [
            4.864993,
            52.359611
          ],
          [
            4.865022,
            52.35957
          ],
          [
            4.865054,
            52.359528
          ],
          [
            4.865075,
            52.359486
          ],
          [
            4.865106,
            52.359444
          ],
          [
            4.865131,
            52.359398
          ],
          [
            4.865154,
            52.359364
          ],
          [
            4.865183,
            52.359318
          ],
          [
            4.865222,
            52.359272
          ],
          [
            4.865254,
            52.359234
          ],
          [
            4.865291,
            52.359196
          ],
          [
            4.865326,
            52.359161
          ],
          [
            4.865362,
            52.359123
          ],
          [
            4.865394,
            52.359093
          ],
          [
            4.865421,
            52.359058
          ],
          [
            4.865446,
            52.359032
          ],
          [
            4.865461,
            52.358997
          ],
          [
            4.865476,
            52.358971
          ],
          [
            4.865468,
            52.358944
          ],
          [
            4.865459,
            52.358913
          ],
          [
            4.865432,
            52.358879
          ],
          [
            4.865403,
            52.358852
          ],
          [
            4.86536,
            52.358826
          ],
          [
            4.865311,
            52.358807
          ],
          [
            4.865252,
            52.358788
          ],
          [
            4.865195,
            52.358768
          ],
          [
            4.865153,
            52.358761
          ],
          [
            4.865068,
            52.358742
          ],
          [
            4.865047,
            52.358734
          ],
          [
            4.864932,
            52.358707
          ],
          [
            4.864845,
            52.358688
          ],
          [
            4.86477,
            52.358665
          ],
          [
            4.86469,
            52.358643
          ],
          [
            4.864611,
            52.35862
          ],
          [
            4.86453,
            52.358597
          ],
          [
            4.864492,
            52.358585
          ],
          [
            4.864374,
            52.358551
          ],
          [
            4.864282,
            52.358528
          ],
          [
            4.864199,
            52.358505
          ],
          [
            4.864116,
            52.358486
          ],
          [
            4.864033,
            52.358467
          ],
          [
            4.863963,
            52.358448
          ],
          [
            4.863873,
            52.358425
          ],
          [
            4.863793,
            52.358402
          ],
          [
            4.863715,
            52.358383
          ],
          [
            4.863649,
            52.35836
          ],
          [
            4.863579,
            52.358334
          ],
          [
            4.863521,
            52.358311
          ],
          [
            4.863478,
            52.358288
          ],
          [
            4.863445,
            52.358265
          ],
          [
            4.863436,
            52.358234
          ],
          [
            4.863448,
            52.358204
          ],
          [
            4.863477,
            52.358177
          ],
          [
            4.863505,
            52.358158
          ],
          [
            4.863536,
            52.358131
          ],
          [
            4.863565,
            52.358116
          ],
          [
            4.86359,
            52.358086
          ],
          [
            4.863606,
            52.358063
          ],
          [
            4.863619,
            52.358036
          ],
          [
            4.86362,
            52.358002
          ],
          [
            4.863624,
            52.357975
          ],
          [
            4.86363,
            52.357952
          ],
          [
            4.863628,
            52.357933
          ],
          [
            4.863628,
            52.357933
          ],
          [
            4.863602,
            52.35788
          ],
          [
            4.863587,
            52.357868
          ],
          [
            4.863574,
            52.357868
          ],
          [
            4.86356,
            52.357872
          ],
          [
            4.863536,
            52.35788
          ],
          [
            4.863506,
            52.357887
          ],
          [
            4.863477,
            52.357899
          ],
          [
            4.863454,
            52.35791
          ],
          [
            4.863419,
            52.357922
          ],
          [
            4.863389,
            52.357925
          ],
          [
            4.863389,
            52.357925
          ],
          [
            4.863389,
            52.357925
          ],
          [
            4.863389,
            52.357925
          ],
          [
            4.863313,
            52.357922
          ],
          [
            4.863313,
            52.357922
          ],
          [
            4.863313,
            52.357922
          ]
        ]
      }
    }
  ]
}