{
  "type": "FeatureCollection",
  "features": [
    {
      "type": "Feature",
      "properties": {
        "id": "amsterdam-to-badhoevedorp-ride-443a4780-733f-11f1-8ad1-a40dbc8fa83a",
        "title": "Amsterdam to Badhoevedorp ride",
        "source": "Amsterdam to Badhoevedorp ride-443a4780-733f-11f1-8ad1-a40dbc8fa83a.fit"
      },
      "geometry": {
        "type": "LineString",
        "coordinates": [
          [
            4.890424,
            52.367718
          ],
          [
            4.890424,
            52.367718
          ],
          [
            4.890424,
            52.367718
          ],
          [
            4.890534,
            52.367615
          ],
          [
            4.890534,
            52.367615
          ],
          [
            4.890537,
            52.367611
          ],
          [
            4.890537,
            52.367611
          ],
          [
            4.89053,
            52.367619
          ],
          [
            4.890532,
            52.367615
          ],
          [
            4.890549,
            52.367607
          ],
          [
            4.890538,
            52.3676
          ],
          [
            4.890539,
            52.367592
          ],
          [
            4.890524,
            52.367577
          ],
          [
            4.890508,
            52.367565
          ],
          [
            4.890485,
            52.36755
          ],
          [
            4.890465,
            52.367535
          ],
          [
            4.890431,
            52.367519
          ],
          [
            4.890397,
            52.367504
          ],
          [
            4.890354,
            52.367485
          ],
          [
            4.890314,
            52.367477
          ],
          [
            4.890269,
            52.367458
          ],
          [
            4.890233,
            52.367447
          ],
          [
            4.890168,
            52.367424
          ],
          [
            4.890118,
            52.367413
          ],
          [
            4.890063,
            52.367401
          ],
          [
            4.890005,
            52.367386
          ],
          [
            4.889964,
            52.367367
          ],
          [
            4.88992,
            52.367351
          ],
          [
            4.889884,
            52.367344
          ],
          [
            4.889848,
            52.367329
          ],
          [
            4.889815,
            52.367306
          ],
          [
            4.889776,
            52.367279
          ],
          [
            4.889734,
            52.367252
          ],
          [
            4.889687,
            52.367222
          ],
          [
            4.889659,
            52.367203
          ],
          [
            4.889578,
            52.367161
          ],
          [
            4.88951,
            52.36713
          ],
          [
            4.889438,
            52.367104
          ],
          [
            4.88936,
            52.367077
          ],
          [
            4.889286,
            52.36705
          ],
          [
            4.889197,
            52.367024
          ],
          [
            4.889113,
            52.366997
          ],
          [
            4.889024,
            52.36697
          ],
          [
            4.888945,
            52.366943
          ],
          [
            4.888875,
            52.366917
          ],
          [
            4.888801,
            52.366894
          ],
          [
            4.88873,
            52.366871
          ],
          [
            4.888668,
            52.366848
          ],
          [
            4.88861,
            52.366829
          ],
          [
            4.888551,
            52.36681
          ],
          [
            4.888505,
            52.366795
          ],
          [
            4.888466,
            52.366783
          ],
          [
            4.888422,
            52.366768
          ],
          [
            4.888389,
            52.366756
          ],
          [
            4.888355,
            52.366745
          ],
          [
            4.888323,
            52.36673
          ],
          [
            4.88829,
            52.366722
          ],
          [
            4.888264,
            52.366714
          ],
          [
            4.888222,
            52.366711
          ],
          [
            4.888208,
            52.366707
          ],
          [
            4.888135,
            52.366703
          ],
          [
            4.888084,
            52.366695
          ],
          [
            4.888035,
            52.366692
          ],
          [
            4.887982,
            52.366676
          ],
          [
            4.887871,
            52.366631
          ],
          [
            4.887822,
            52.366608
          ],
          [
            4.887766,
            52.366581
          ],
          [
            4.887698,
            52.36655
          ],
          [
            4.887638,
            52.366524
          ],
          [
            4.887579,
            52.366493
          ],
          [
            4.887514,
            52.366463
          ],
          [
            4.887439,
            52.366428
          ],
          [
            4.887315,
            52.366364
          ],
          [
            4.887242,
            52.366329
          ],
          [
            4.887181,
            52.366302
          ],
          [
            4.88712,
            52.366272
          ],
          [
            4.887054,
            52.366234
          ],
          [
            4.886994,
            52.366207
          ],
          [
            4.886923,
            52.366169
          ],
          [
            4.886862,
            52.366138
          ],
          [
            4.88679,
            52.366112
          ],
          [
            4.886723,
            52.366089
          ],
          [
            4.886655,
            52.366066
          ],
          [
            4.886587,
            52.366043
          ],
          [
            4.886524,
            52.366028
          ],
          [
            4.886463,
            52.366005
          ],
          [
            4.886407,
            52.365982
          ],
          [
            4.886355,
            52.365955
          ],
          [
            4.886311,
            52.36594
          ],
          [
            4.886259,
            52.36591
          ],
          [
            4.886205,
            52.365875
          ],
          [
            4.886095,
            52.365799
          ],
          [
            4.886034,
            52.365761
          ],
          [
            4.885974,
            52.365723
          ],
          [
            4.885911,
            52.365684
          ],
          [
            4.885845,
            52.365646
          ],
          [
            4.885774,
            52.365608
          ],
          [
            4.885708,
            52.36557
          ],
          [
            4.885636,
            52.365536
          ],
          [
            4.885564,
            52.365498
          ],
          [
            4.885491,
            52.365459
          ],
          [
            4.885422,
            52.365425
          ],
          [
            4.88535,
            52.365391
          ],
          [
            4.885283,
            52.365356
          ],
          [
            4.88522,
            52.365322
          ],
          [
            4.885156,
            52.365284
          ],
          [
            4.88508,
            52.365246
          ],
          [
            4.885017,
            52.365215
          ],
          [
            4.885016,
            52.365215
          ],
          [
            4.884883,
            52.365173
          ],
          [
            4.88479,
            52.365147
          ],
          [
            4.884701,
            52.365128
          ],
          [
            4.884622,
            52.365108
          ],
          [
            4.884559,
            52.365093
          ],
          [
            4.884489,
            52.36507
          ],
          [
            4.884429,
            52.365044
          ],
          [
            4.884371,
            52.365013
          ],
          [
            4.884318,
            52.364986
          ],
          [
            4.884268,
            52.364956
          ],
          [
            4.884206,
            52.364918
          ],
          [
            4.884151,
            52.364883
          ],
          [
            4.884097,
            52.364845
          ],
          [
            4.884028,
            52.364811
          ],
          [
            4.883955,
            52.364769
          ],
          [
            4.883889,
            52.364731
          ],
          [
            4.883743,
            52.364662
          ],
          [
            4.883687,
            52.364639
          ],
          [
            4.883587,
            52.364605
          ],
          [
            4.883513,
            52.364571
          ],
          [
            4.883444,
            52.36454
          ],
          [
            4.883375,
            52.36451
          ],
          [
            4.883296,
            52.364475
          ],
          [
            4.883229,
            52.364445
          ],
          [
            4.883166,
            52.36441
          ],
          [
            4.883098,
            52.364376
          ],
          [
            4.883046,
            52.364342
          ],
          [
            4.883006,
            52.364307
          ],
          [
            4.882974,
            52.364285
          ],
          [
            4.882945,
            52.364243
          ],
          [
            4.882922,
            52.364204
          ],
          [
            4.882892,
            52.36417
          ],
          [
            4.882864,
            52.364136
          ],
          [
            4.882834,
            52.364098
          ],
          [
            4.882803,
            52.364067
          ],
          [
            4.882762,
            52.364033
          ],
          [
            4.88273,
            52.364006
          ],
          [
            4.882694,
            52.363976
          ],
          [
            4.882663,
            52.363949
          ],
          [
            4.882624,
            52.363922
          ],
          [
            4.882594,
            52.363899
          ],
          [
            4.882561,
            52.36388
          ],
          [
            4.882521,
            52.363861
          ],
          [
            4.882487,
            52.363846
          ],
          [
            4.882451,
            52.363834
          ],
          [
            4.88241,
            52.363823
          ],
          [
            4.882373,
            52.363815
          ],
          [
            4.882325,
            52.363804
          ],
          [
            4.882277,
            52.363792
          ],
          [
            4.88223,
            52.363785
          ],
          [
            4.882176,
            52.363773
          ],
          [
            4.882119,
            52.363758
          ],
          [
            4.882072,
            52.36375
          ],
          [
            4.882022,
            52.363735
          ],
          [
            4.881971,
            52.363716
          ],
          [
            4.881914,
            52.363693
          ],
          [
            4.881858,
            52.363667
          ],
          [
            4.881799,
            52.363636
          ],
          [
            4.881746,
            52.363613
          ],
          [
            4.881685,
            52.363579
          ],
          [
            4.881627,
            52.363548
          ],
          [
            4.881496,
            52.363483
          ],
          [
            4.881433,
            52.363449
          ],
          [
            4.881371,
            52.363422
          ],
          [
            4.881304,
            52.363392
          ],
          [
            4.881242,
            52.363361
          ],
          [
            4.881177,
            52.363331
          ],
          [
            4.881111,
            52.3633
          ],
          [
            4.881053,
            52.363274
          ],
          [
            4.880986,
            52.363243
          ],
          [
            4.880922,
            52.363216
          ],
          [
            4.880855,
            52.36319
          ],
          [
            4.880802,
            52.363171
          ],
          [
            4.880715,
            52.363136
          ],
          [
            4.880644,
            52.363113
          ],
          [
            4.880573,
            52.363087
          ],
          [
            4.880491,
            52.363068
          ],
          [
            4.880453,
            52.363064
          ],
          [
            4.880341,
            52.363056
          ],
          [
            4.880261,
            52.363064
          ],
          [
            4.880191,
            52.363079
          ],
          [
            4.880117,
            52.36311
          ],
          [
            4.880054,
            52.363136
          ],
          [
            4.879993,
            52.363174
          ],
          [
            4.879932,
            52.363216
          ],
          [
            4.87987,
            52.363255
          ],
          [
            4.879799,
            52.363304
          ],
          [
            4.87973,
            52.363354
          ],
          [
            4.879663,
            52.3634
          ],
          [
            4.879596,
            52.363445
          ],
          [
            4.879529,
            52.363483
          ],
          [
            4.879449,
            52.363529
          ],
          [
            4.879373,
            52.363571
          ],
          [
            4.879305,
            52.363613
          ],
          [
            4.879239,
            52.363651
          ],
          [
            4.879169,
            52.363693
          ],
          [
            4.87911,
            52.363731
          ],
          [
            4.879053,
            52.36377
          ],
          [
            4.879004,
            52.363796
          ],
          [
            4.878964,
            52.363823
          ],
          [
            4.878928,
            52.36385
          ],
          [
            4.878844,
            52.363899
          ],
          [
            4.878806,
            52.363914
          ],
          [
            4.878761,
            52.363918
          ],
          [
            4.878708,
            52.363914
          ],
          [
            4.878608,
            52.363884
          ],
          [
            4.878556,
            52.363865
          ],
          [
            4.878495,
            52.363842
          ],
          [
            4.878433,
            52.363819
          ],
          [
            4.878376,
            52.363789
          ],
          [
            4.878314,
            52.363758
          ],
          [
            4.878254,
            52.363728
          ],
          [
            4.878181,
            52.363697
          ],
          [
            4.878109,
            52.363667
          ],
          [
            4.878071,
            52.363651
          ],
          [
            4.877953,
            52.363609
          ],
          [
            4.877869,
            52.363575
          ],
          [
            4.877789,
            52.363548
          ],
          [
            4.877709,
            52.363522
          ],
          [
            4.877548,
            52.363464
          ],
          [
            4.877468,
            52.363434
          ],
          [
            4.877389,
            52.363403
          ],
          [
            4.877222,
            52.363346
          ],
          [
            4.877137,
            52.363319
          ],
          [
            4.877049,
            52.363293
          ],
          [
            4.876958,
            52.363266
          ],
          [
            4.876872,
            52.363239
          ],
          [
            4.876786,
            52.363213
          ],
          [
            4.876699,
            52.363186
          ],
          [
            4.876626,
            52.363167
          ],
          [
            4.876523,
            52.36314
          ],
          [
            4.876428,
            52.363117
          ],
          [
            4.876336,
            52.363091
          ],
          [
            4.876244,
            52.363064
          ],
          [
            4.876149,
            52.363041
          ],
          [
            4.876059,
            52.363014
          ],
          [
            4.875972,
            52.362991
          ],
          [
            4.875889,
            52.362968
          ],
          [
            4.875807,
            52.362949
          ],
          [
            4.875739,
            52.36293
          ],
          [
            4.875672,
            52.362915
          ],
          [
            4.875613,
            52.3629
          ],
          [
            4.87556,
            52.362888
          ],
          [
            4.87552,
            52.362881
          ],
          [
            4.875486,
            52.362873
          ],
          [
            4.875454,
            52.362869
          ],
          [
            4.875421,
            52.362865
          ],
          [
            4.875385,
            52.362865
          ],
          [
            4.875283,
            52.362858
          ],
          [
            4.875234,
            52.362846
          ],
          [
            4.875178,
            52.362827
          ],
          [
            4.875116,
            52.362808
          ],
          [
            4.875091,
            52.362801
          ],
          [
            4.874982,
            52.36277
          ],
          [
            4.8749,
            52.362747
          ],
          [
            4.87482,
            52.362724
          ],
          [
            4.874732,
            52.362701
          ],
          [
            4.874645,
            52.362682
          ],
          [
            4.874558,
            52.362656
          ],
          [
            4.874469,
            52.362633
          ],
          [
            4.874375,
            52.36261
          ],
          [
            4.874283,
            52.362591
          ],
          [
            4.874193,
            52.362572
          ],
          [
            4.874107,
            52.362549
          ],
          [
            4.874018,
            52.362526
          ],
          [
            4.873916,
            52.362499
          ],
          [
            4.873819,
            52.362476
          ],
          [
            4.873727,
            52.362453
          ],
          [
            4.873641,
            52.362431
          ],
          [
            4.873546,
            52.362404
          ],
          [
            4.873359,
            52.362354
          ],
          [
            4.873268,
            52.362331
          ],
          [
            4.873178,
            52.362309
          ],
          [
            4.873083,
            52.362282
          ],
          [
            4.872996,
            52.362263
          ],
          [
            4.872901,
            52.36224
          ],
          [
            4.872805,
            52.362213
          ],
          [
            4.872711,
            52.362186
          ],
          [
            4.872525,
            52.362137
          ],
          [
            4.872442,
            52.36211
          ],
          [
            4.872349,
            52.362087
          ],
          [
            4.872286,
            52.362072
          ],
          [
            4.872165,
            52.362045
          ],
          [
            4.872066,
            52.362022
          ],
          [
            4.871975,
            52.361999
          ],
          [
            4.871889,
            52.361977
          ],
          [
            4.871798,
            52.36195
          ],
          [
            4.871703,
            52.361923
          ],
          [
            4.871612,
            52.361897
          ],
          [
            4.87144,
            52.361851
          ],
          [
            4.871337,
            52.361824
          ],
          [
            4.871154,
            52.361774
          ],
          [
            4.871064,
            52.361748
          ],
          [
            4.870975,
            52.361721
          ],
          [
            4.870798,
            52.361668
          ],
          [
            4.870718,
            52.361645
          ],
          [
            4.87064,
            52.361622
          ],
          [
            4.870555,
            52.361599
          ],
          [
            4.870482,
            52.36158
          ],
          [
            4.870405,
            52.361557
          ],
          [
            4.870319,
            52.361538
          ],
          [
            4.870234,
            52.361515
          ],
          [
            4.870146,
            52.361492
          ],
          [
            4.870073,
            52.361473
          ],
          [
            4.869964,
            52.36145
          ],
          [
            4.869871,
            52.361427
          ],
          [
            4.869777,
            52.361404
          ],
          [
            4.869683,
            52.361378
          ],
          [
            4.869596,
            52.361355
          ],
          [
            4.869493,
            52.361332
          ],
          [
            4.869398,
            52.361309
          ],
          [
            4.869306,
            52.361282
          ],
          [
            4.869219,
            52.361259
          ],
          [
            4.86915,
            52.36124
          ],
          [
            4.869036,
            52.36121
          ],
          [
            4.868937,
            52.361179
          ],
          [
            4.868841,
            52.361153
          ],
          [
            4.868749,
            52.36113
          ],
          [
            4.868676,
            52.361111
          ],
          [
            4.868565,
            52.361084
          ],
          [
            4.868466,
            52.361057
          ],
          [
            4.868281,
            52.361008
          ],
          [
            4.868195,
            52.360989
          ],
          [
            4.868094,
            52.360966
          ],
          [
            4.867997,
            52.360943
          ],
          [
            4.867827,
            52.360901
          ],
          [
            4.867718,
            52.360878
          ],
          [
            4.867627,
            52.360859
          ],
          [
            4.867529,
            52.360836
          ],
          [
            4.867433,
            52.360813
          ],
          [
            4.867366,
            52.360798
          ],
          [
            4.867247,
            52.360775
          ],
          [
            4.867153,
            52.360752
          ],
          [
            4.866957,
            52.36071
          ],
          [
            4.86688,
            52.360695
          ],
          [
            4.866768,
            52.360672
          ],
          [
            4.866677,
            52.360649
          ],
          [
            4.866581,
            52.360626
          ],
          [
            4.866483,
            52.360607
          ],
          [
            4.866293,
            52.360565
          ],
          [
            4.8662,
            52.360546
          ],
          [
            4.866105,
            52.360523
          ],
          [
            4.865917,
            52.360481
          ],
          [
            4.865825,
            52.360458
          ],
          [
            4.865741,
            52.360439
          ],
          [
            4.865685,
            52.360428
          ],
          [
            4.865492,
            52.36039
          ],
          [
            4.865413,
            52.360371
          ],
          [
            4.865381,
            52.360363
          ],
          [
            4.865249,
            52.360332
          ],
          [
            4.865155,
            52.360306
          ],
          [
            4.865066,
            52.360287
          ],
          [
            4.864987,
            52.360271
          ],
          [
            4.864883,
            52.360249
          ],
          [
            4.864787,
            52.360226
          ],
          [
            4.86469,
            52.360207
          ],
          [
            4.864635,
            52.360191
          ],
          [
            4.86451,
            52.360161
          ],
          [
            4.864418,
            52.360138
          ],
          [
            4.864222,
            52.360092
          ],
          [
            4.864141,
            52.360077
          ],
          [
            4.864028,
            52.360054
          ],
          [
            4.863936,
            52.360031
          ],
          [
            4.863739,
            52.359993
          ],
          [
            4.86366,
            52.35997
          ],
          [
            4.863552,
            52.359943
          ],
          [
            4.863464,
            52.359921
          ],
          [
            4.86337,
            52.359894
          ],
          [
            4.863276,
            52.359871
          ],
          [
            4.863183,
            52.359848
          ],
          [
            4.863089,
            52.359825
          ],
          [
            4.86291,
            52.359779
          ],
          [
            4.862812,
            52.359756
          ],
          [
            4.862725,
            52.359737
          ],
          [
            4.862618,
            52.359711
          ],
          [
            4.862524,
            52.359692
          ],
          [
            4.862438,
            52.359673
          ],
          [
            4.86234,
            52.359653
          ],
          [
            4.862249,
            52.359634
          ],
          [
            4.862147,
            52.359611
          ],
          [
            4.86196,
            52.359562
          ],
          [
            4.861874,
            52.359539
          ],
          [
            4.861782,
            52.359512
          ],
          [
            4.861683,
            52.359486
          ],
          [
            4.86159,
            52.359463
          ],
          [
            4.861406,
            52.359413
          ],
          [
            4.861362,
            52.359406
          ],
          [
            4.861228,
            52.359371
          ],
          [
            4.861126,
            52.359345
          ],
          [
            4.861031,
            52.359318
          ],
          [
            4.860937,
            52.359295
          ],
          [
            4.860849,
            52.359272
          ],
          [
            4.860753,
            52.359245
          ],
          [
            4.860659,
            52.359222
          ],
          [
            4.860564,
            52.359203
          ],
          [
            4.860474,
            52.35918
          ],
          [
            4.86039,
            52.359158
          ],
          [
            4.860316,
            52.359135
          ],
          [
            4.860232,
            52.359112
          ],
          [
            4.860152,
            52.359089
          ],
          [
            4.860072,
            52.35907
          ],
          [
            4.859902,
            52.359028
          ],
          [
            4.85981,
            52.359001
          ],
          [
            4.859718,
            52.358978
          ],
          [
            4.859623,
            52.358955
          ],
          [
            4.859529,
            52.358932
          ],
          [
            4.859442,
            52.358906
          ],
          [
            4.859344,
            52.358879
          ],
          [
            4.859252,
            52.358852
          ],
          [
            4.859066,
            52.358803
          ],
          [
            4.858996,
            52.358788
          ],
          [
            4.858883,
            52.358757
          ],
          [
            4.858782,
            52.358734
          ],
          [
            4.858594,
            52.358685
          ],
          [
            4.858508,
            52.358662
          ],
          [
            4.85841,
            52.358635
          ],
          [
            4.858317,
            52.358612
          ],
          [
            4.858225,
            52.358585
          ],
          [
            4.858132,
            52.358562
          ],
          [
            4.858065,
            52.358543
          ],
          [
            4.85795,
            52.358513
          ],
          [
            4.85785,
            52.35849
          ],
          [
            4.857665,
            52.35844
          ],
          [
            4.857602,
            52.358425
          ],
          [
            4.857484,
            52.358391
          ],
          [
            4.857383,
            52.358368
          ],
          [
            4.85729,
            52.358345
          ],
          [
            4.857104,
            52.358295
          ],
          [
            4.857017,
            52.358276
          ],
          [
            4.856922,
            52.358253
          ],
          [
            4.856826,
            52.358231
          ],
          [
            4.856641,
            52.358181
          ],
          [
            4.856555,
            52.358158
          ],
          [
            4.856462,
            52.358135
          ],
          [
            4.856371,
            52.358112
          ],
          [
            4.85628,
            52.358086
          ],
          [
            4.8561,
            52.358036
          ],
          [
            4.856013,
            52.358017
          ],
          [
            4.855927,
            52.357994
          ],
          [
            4.85584,
            52.357975
          ],
          [
            4.855761,
            52.35796
          ],
          [
            4.855684,
            52.357941
          ],
          [
            4.855606,
            52.357925
          ],
          [
            4.855535,
            52.357914
          ],
          [
            4.855468,
            52.357899
          ],
          [
            4.855356,
            52.357876
          ],
          [
            4.855309,
            52.357861
          ],
          [
            4.855263,
            52.357845
          ],
          [
            4.855223,
            52.357822
          ],
          [
            4.855176,
            52.357788
          ],
          [
            4.855136,
            52.357765
          ],
          [
            4.855094,
            52.357731
          ],
          [
            4.855054,
            52.357697
          ],
          [
            4.855017,
            52.357655
          ],
          [
            4.854984,
            52.357616
          ],
          [
            4.854948,
            52.357574
          ],
          [
            4.854907,
            52.357525
          ],
          [
            4.854867,
            52.357475
          ],
          [
            4.854821,
            52.357422
          ],
          [
            4.854774,
            52.357365
          ],
          [
            4.854725,
            52.357304
          ],
          [
            4.854686,
            52.357254
          ],
          [
            4.854643,
            52.357197
          ],
          [
            4.854604,
            52.357136
          ],
          [
            4.854576,
            52.357082
          ],
          [
            4.854563,
            52.357067
          ],
          [
            4.854528,
            52.356957
          ],
          [
            4.854506,
            52.356861
          ],
          [
            4.854496,
            52.356773
          ],
          [
            4.854504,
            52.356678
          ],
          [
            4.854524,
            52.356613
          ],
          [
            4.854548,
            52.356548
          ],
          [
            4.854574,
            52.356491
          ],
          [
            4.854609,
            52.35643
          ],
          [
            4.854638,
            52.356373
          ],
          [
            4.854667,
            52.356316
          ],
          [
            4.854697,
            52.356255
          ],
          [
            4.854725,
            52.356197
          ],
          [
            4.854756,
            52.356132
          ],
          [
            4.854788,
            52.356075
          ],
          [
            4.854813,
            52.356014
          ],
          [
            4.854867,
            52.355904
          ],
          [
            4.854892,
            52.355843
          ],
          [
            4.85492,
            52.355782
          ],
          [
            4.854954,
            52.355721
          ],
          [
            4.854971,
            52.355656
          ],
          [
            4.854983,
            52.355602
          ],
          [
            4.85501,
            52.355545
          ],
          [
            4.85504,
            52.355476
          ],
          [
            4.855077,
            52.355351
          ],
          [
            4.8551,
            52.355293
          ],
          [
            4.85511,
            52.355244
          ],
          [
            4.855131,
            52.355202
          ],
          [
            4.855149,
            52.355156
          ],
          [
            4.855165,
            52.355106
          ],
          [
            4.855197,
            52.355003
          ],
          [
            4.855215,
            52.354946
          ],
          [
            4.85526,
            52.354824
          ],
          [
            4.855284,
            52.354771
          ],
          [
            4.855314,
            52.35471
          ],
          [
            4.855343,
            52.354649
          ],
          [
            4.85537,
            52.354588
          ],
          [
            4.855395,
            52.354534
          ],
          [
            4.855421,
            52.354473
          ],
          [
            4.855443,
            52.354416
          ],
          [
            4.855487,
            52.354298
          ],
          [
            4.855515,
            52.354237
          ],
          [
            4.855541,
            52.354179
          ],
          [
            4.855565,
            52.35413
          ],
          [
            4.855595,
            52.354073
          ],
          [
            4.855652,
            52.353954
          ],
          [
            4.85568,
            52.353893
          ],
          [
            4.855699,
            52.353847
          ],
          [
            4.855721,
            52.353794
          ],
          [
            4.855747,
            52.353722
          ],
          [
            4.855769,
            52.353653
          ],
          [
            4.855793,
            52.353588
          ],
          [
            4.855809,
            52.353539
          ],
          [
            4.855818,
            52.353508
          ],
          [
            4.855836,
            52.353458
          ],
          [
            4.855851,
            52.353413
          ],
          [
            4.855883,
            52.353352
          ],
          [
            4.855902,
            52.353279
          ],
          [
            4.855954,
            52.353146
          ],
          [
            4.855969,
            52.353104
          ],
          [
            4.855988,
            52.353039
          ],
          [
            4.856008,
            52.352997
          ],
          [
            4.856028,
            52.352932
          ],
          [
            4.856051,
            52.35286
          ],
          [
            4.856075,
            52.352795
          ],
          [
            4.856108,
            52.352646
          ],
          [
            4.856123,
            52.352573
          ],
          [
            4.856133,
            52.352509
          ],
          [
            4.856141,
            52.352448
          ],
          [
            4.856149,
            52.35239
          ],
          [
            4.85616,
            52.352325
          ],
          [
            4.856172,
            52.352257
          ],
          [
            4.856188,
            52.352188
          ],
          [
            4.856209,
            52.352127
          ],
          [
            4.856231,
            52.352066
          ],
          [
            4.856255,
            52.352013
          ],
          [
            4.856278,
            52.351963
          ],
          [
            4.8563,
            52.351913
          ],
          [
            4.856322,
            52.35186
          ],
          [
            4.856344,
            52.351807
          ],
          [
            4.856359,
            52.351769
          ],
          [
            4.856378,
            52.351727
          ],
          [
            4.856384,
            52.351688
          ],
          [
            4.856394,
            52.351662
          ],
          [
            4.856395,
            52.351631
          ],
          [
            4.856395,
            52.351631
          ],
          [
            4.856395,
            52.351631
          ],
          [
            4.856395,
            52.351631
          ],
          [
            4.856329,
            52.351566
          ],
          [
            4.856329,
            52.351566
          ],
          [
            4.856313,
            52.35154
          ],
          [
            4.856305,
            52.351536
          ],
          [
            4.856254,
            52.351501
          ],
          [
            4.856207,
            52.351475
          ],
          [
            4.85615,
            52.351448
          ],
          [
            4.85609,
            52.351425
          ],
          [
            4.856025,
            52.351402
          ],
          [
            4.855956,
            52.351379
          ],
          [
            4.855871,
            52.351353
          ],
          [
            4.855789,
            52.35133
          ],
          [
            4.855708,
            52.351311
          ],
          [
            4.855624,
            52.351288
          ],
          [
            4.855443,
            52.351238
          ],
          [
            4.855358,
            52.351212
          ],
          [
            4.855263,
            52.351185
          ],
          [
            4.85517,
            52.351158
          ],
          [
            4.855078,
            52.351131
          ],
          [
            4.854986,
            52.351105
          ],
          [
            4.854899,
            52.351078
          ],
          [
            4.854814,
            52.351055
          ],
          [
            4.854732,
            52.351032
          ],
          [
            4.854642,
            52.351006
          ],
          [
            4.854546,
            52.350979
          ],
          [
            4.854454,
            52.350948
          ],
          [
            4.854363,
            52.350922
          ],
          [
            4.854269,
            52.350903
          ],
          [
            4.854228,
            52.350895
          ],
          [
            4.854086,
            52.350876
          ],
          [
            4.853979,
            52.350868
          ],
          [
            4.853878,
            52.350861
          ],
          [
            4.85369,
            52.350853
          ],
          [
            4.853588,
            52.350853
          ],
          [
            4.85349,
            52.350857
          ],
          [
            4.853397,
            52.350861
          ],
          [
            4.853327,
            52.350868
          ],
          [
            4.853201,
            52.35088
          ],
          [
            4.8531,
            52.350891
          ],
          [
            4.853003,
            52.350906
          ],
          [
            4.852946,
            52.350914
          ],
          [
            4.852818,
            52.350933
          ],
          [
            4.852721,
            52.350948
          ],
          [
            4.8527,
            52.350952
          ],
          [
            4.852546,
            52.350979
          ],
          [
            4.852437,
            52.350994
          ],
          [
            4.852342,
            52.351009
          ],
          [
            4.852246,
            52.351021
          ],
          [
            4.852146,
            52.351032
          ],
          [
            4.852107,
            52.351036
          ],
          [
            4.851953,
            52.351051
          ],
          [
            4.8519,
            52.351059
          ],
          [
            4.851737,
            52.35107
          ],
          [
            4.851683,
            52.351074
          ],
          [
            4.85152,
            52.351082
          ],
          [
            4.851406,
            52.351086
          ],
          [
            4.851299,
            52.351086
          ],
          [
            4.851201,
            52.351086
          ],
          [
            4.851115,
            52.351086
          ],
          [
            4.851027,
            52.351086
          ],
          [
            4.850944,
            52.351086
          ],
          [
            4.850862,
            52.351086
          ],
          [
            4.850784,
            52.351086
          ],
          [
            4.850722,
            52.35109
          ],
          [
            4.85066,
            52.351101
          ],
          [
            4.850604,
            52.351112
          ],
          [
            4.850563,
            52.351128
          ],
          [
            4.850535,
            52.351147
          ],
          [
            4.850514,
            52.35117
          ],
          [
            4.850502,
            52.351212
          ],
          [
            4.850499,
            52.351246
          ],
          [
            4.850498,
            52.351322
          ],
          [
            4.850498,
            52.351364
          ],
          [
            4.850498,
            52.351398
          ],
          [
            4.850498,
            52.351448
          ],
          [
            4.85049,
            52.351486
          ],
          [
            4.850474,
            52.351528
          ],
          [
            4.850447,
            52.351566
          ],
          [
            4.850409,
            52.351601
          ],
          [
            4.850359,
            52.351627
          ],
          [
            4.850296,
            52.351646
          ],
          [
            4.850241,
            52.351654
          ],
          [
            4.85016,
            52.351658
          ],
          [
            4.850071,
            52.351662
          ],
          [
            4.849897,
            52.351666
          ],
          [
            4.849799,
            52.351666
          ],
          [
            4.849709,
            52.351669
          ],
          [
            4.849603,
            52.351673
          ],
          [
            4.849541,
            52.351677
          ],
          [
            4.849405,
            52.351685
          ],
          [
            4.849302,
            52.351685
          ],
          [
            4.849196,
            52.351685
          ],
          [
            4.849105,
            52.351685
          ],
          [
            4.84899,
            52.351685
          ],
          [
            4.848934,
            52.351685
          ],
          [
            4.848795,
            52.351681
          ],
          [
            4.848681,
            52.351681
          ],
          [
            4.848578,
            52.351681
          ],
          [
            4.848478,
            52.351681
          ],
          [
            4.848435,
            52.351685
          ],
          [
            4.848289,
            52.351685
          ],
          [
            4.848176,
            52.351685
          ],
          [
            4.848072,
            52.351688
          ],
          [
            4.847975,
            52.351688
          ],
          [
            4.84791,
            52.351688
          ],
          [
            4.847775,
            52.351688
          ],
          [
            4.847668,
            52.351688
          ],
          [
            4.847567,
            52.351688
          ],
          [
            4.847429,
            52.351685
          ],
          [
            4.84728,
            52.351685
          ],
          [
            4.847169,
            52.351685
          ],
          [
            4.847066,
            52.351685
          ],
          [
            4.846998,
            52.351688
          ],
          [
            4.846872,
            52.351685
          ],
          [
            4.846774,
            52.351685
          ],
          [
            4.846673,
            52.351685
          ],
          [
            4.846575,
            52.351681
          ],
          [
            4.846498,
            52.351681
          ],
          [
            4.846383,
            52.351681
          ],
          [
            4.846284,
            52.351681
          ],
          [
            4.84619,
            52.351688
          ],
          [
            4.846096,
            52.351692
          ],
          [
            4.846,
            52.351692
          ],
          [
            4.845934,
            52.351692
          ],
          [
            4.845824,
            52.351688
          ],
          [
            4.84573,
            52.351688
          ],
          [
            4.845643,
            52.351688
          ],
          [
            4.845551,
            52.351688
          ],
          [
            4.845466,
            52.351685
          ],
          [
            4.84536,
            52.351685
          ],
          [
            4.845272,
            52.351685
          ],
          [
            4.845182,
            52.351681
          ],
          [
            4.845057,
            52.351681
          ],
          [
            4.845041,
            52.351681
          ],
          [
            4.844852,
            52.351681
          ],
          [
            4.8448,
            52.351681
          ],
          [
            4.844624,
            52.351685
          ],
          [
            4.8445,
            52.351685
          ],
          [
            4.844469,
            52.351685
          ],
          [
            4.844281,
            52.351685
          ],
          [
            4.844161,
            52.351688
          ],
          [
            4.844031,
            52.351688
          ],
          [
            4.843909,
            52.351685
          ],
          [
            4.843897,
            52.351685
          ],
          [
            4.843686,
            52.351681
          ],
          [
            4.843547,
            52.351677
          ],
          [
            4.843467,
            52.351677
          ],
          [
            4.843312,
            52.351673
          ],
          [
            4.843295,
            52.351673
          ],
          [
            4.843082,
            52.351669
          ],
          [
            4.842947,
            52.351666
          ],
          [
            4.842946,
            52.351654
          ],
          [
            4.842916,
            52.351662
          ],
          [
            4.842768,
            52.351608
          ],
          [
            4.842538,
            52.351566
          ],
          [
            4.842454,
            52.351543
          ],
          [
            4.842387,
            52.351543
          ],
          [
            4.842177,
            52.351582
          ],
          [
            4.842064,
            52.351589
          ],
          [
            4.841942,
            52.351593
          ],
          [
            4.84169,
            52.351601
          ],
          [
            4.841618,
            52.351604
          ],
          [
            4.841486,
            52.351608
          ],
          [
            4.841393,
            52.351612
          ],
          [
            4.841274,
            52.351616
          ],
          [
            4.841172,
            52.35162
          ],
          [
            4.841107,
            52.351616
          ],
          [
            4.840875,
            52.351616
          ],
          [
            4.840786,
            52.35162
          ],
          [
            4.840692,
            52.351624
          ],
          [
            4.84045,
            52.351627
          ],
          [
            4.840327,
            52.351631
          ],
          [
            4.840254,
            52.351631
          ],
          [
            4.840172,
            52.351631
          ],
          [
            4.84011,
            52.351631
          ],
          [
            4.840004,
            52.351627
          ],
          [
            4.839909,
            52.351624
          ],
          [
            4.839815,
            52.351616
          ],
          [
            4.839722,
            52.351616
          ],
          [
            4.83967,
            52.351616
          ],
          [
            4.839539,
            52.351612
          ],
          [
            4.839434,
            52.351612
          ],
          [
            4.839335,
            52.351612
          ],
          [
            4.839239,
            52.351608
          ],
          [
            4.839203,
            52.351608
          ],
          [
            4.838945,
            52.351601
          ],
          [
            4.838855,
            52.351601
          ],
          [
            4.838706,
            52.351601
          ],
          [
            4.83855,
            52.351597
          ],
          [
            4.838436,
            52.351597
          ],
          [
            4.838331,
            52.351597
          ],
          [
            4.838266,
            52.351593
          ],
          [
            4.838036,
            52.351589
          ],
          [
            4.837933,
            52.351589
          ],
          [
            4.83783,
            52.351585
          ],
          [
            4.83773,
            52.351585
          ],
          [
            4.837696,
            52.351585
          ],
          [
            4.837543,
            52.351585
          ],
          [
            4.837392,
            52.351585
          ],
          [
            4.837253,
            52.351585
          ],
          [
            4.837017,
            52.351589
          ],
          [
            4.836905,
            52.351589
          ],
          [
            4.8368,
            52.351589
          ],
          [
            4.836699,
            52.351593
          ],
          [
            4.836615,
            52.351593
          ],
          [
            4.836495,
            52.351597
          ],
          [
            4.836397,
            52.351597
          ],
          [
            4.836188,
            52.351593
          ],
          [
            4.836116,
            52.351593
          ],
          [
            4.835983,
            52.351597
          ],
          [
            4.835888,
            52.351589
          ],
          [
            4.835781,
            52.351589
          ],
          [
            4.835679,
            52.351593
          ],
          [
            4.835601,
            52.351593
          ],
          [
            4.835479,
            52.351593
          ],
          [
            4.835381,
            52.351593
          ],
          [
            4.83528,
            52.351593
          ],
          [
            4.835184,
            52.351593
          ],
          [
            4.835102,
            52.351593
          ],
          [
            4.834884,
            52.351585
          ],
          [
            4.834784,
            52.351589
          ],
          [
            4.834702,
            52.351593
          ],
          [
            4.834615,
            52.351593
          ],
          [
            4.834483,
            52.351597
          ],
          [
            4.834369,
            52.351601
          ],
          [
            4.834272,
            52.351597
          ],
          [
            4.834176,
            52.351589
          ],
          [
            4.833979,
            52.351578
          ],
          [
            4.833875,
            52.351578
          ],
          [
            4.833802,
            52.351582
          ],
          [
            4.833665,
            52.351585
          ],
          [
            4.83359,
            52.351585
          ],
          [
            4.833452,
            52.351585
          ],
          [
            4.833351,
            52.351589
          ],
          [
            4.833246,
            52.351582
          ],
          [
            4.833145,
            52.351585
          ],
          [
            4.833072,
            52.351585
          ],
          [
            4.832945,
            52.351589
          ],
          [
            4.832845,
            52.351589
          ],
          [
            4.832743,
            52.351585
          ],
          [
            4.832644,
            52.351582
          ],
          [
            4.83258,
            52.351582
          ],
          [
            4.832347,
            52.351578
          ],
          [
            4.832248,
            52.351582
          ],
          [
            4.832091,
            52.351578
          ],
          [
            4.831949,
            52.351574
          ],
          [
            4.831837,
            52.351574
          ],
          [
            4.831737,
            52.351574
          ],
          [
            4.831635,
            52.351559
          ],
          [
            4.831529,
            52.351551
          ],
          [
            4.831452,
            52.351547
          ],
          [
            4.831331,
            52.351536
          ],
          [
            4.83123,
            52.351536
          ],
          [
            4.83113,
            52.351532
          ],
          [
            4.831032,
            52.351532
          ],
          [
            4.830951,
            52.351524
          ],
          [
            4.83073,
            52.351524
          ],
          [
            4.83063,
            52.351524
          ],
          [
            4.830459,
            52.351528
          ],
          [
            4.830337,
            52.351532
          ],
          [
            4.830221,
            52.351524
          ],
          [
            4.830119,
            52.351524
          ],
          [
            4.830018,
            52.351521
          ],
          [
            4.829937,
            52.351521
          ],
          [
            4.82982,
            52.351517
          ],
          [
            4.829722,
            52.351517
          ],
          [
            4.829609,
            52.351517
          ],
          [
            4.829432,
            52.351513
          ],
          [
            4.829303,
            52.351509
          ],
          [
            4.829199,
            52.351509
          ],
          [
            4.829101,
            52.351505
          ],
          [
            4.829001,
            52.351505
          ],
          [
            4.828931,
            52.351509
          ],
          [
            4.828798,
            52.351513
          ],
          [
            4.828695,
            52.351513
          ],
          [
            4.828595,
            52.351513
          ],
          [
            4.82841,
            52.351513
          ],
          [
            4.828296,
            52.351513
          ],
          [
            4.828196,
            52.351509
          ],
          [
            4.828095,
            52.351509
          ],
          [
            4.828002,
            52.351505
          ],
          [
            4.827917,
            52.351509
          ],
          [
            4.82784,
            52.351509
          ],
          [
            4.827767,
            52.351509
          ],
          [
            4.827705,
            52.351509
          ],
          [
            4.827646,
            52.351509
          ],
          [
            4.827582,
            52.351513
          ],
          [
            4.82744,
            52.351517
          ],
          [
            4.827359,
            52.351513
          ],
          [
            4.827277,
            52.351509
          ],
          [
            4.827185,
            52.351505
          ],
          [
            4.827116,
            52.351501
          ],
          [
            4.826988,
            52.351498
          ],
          [
            4.826908,
            52.351501
          ],
          [
            4.826838,
            52.351501
          ],
          [
            4.826704,
            52.351501
          ],
          [
            4.826591,
            52.351501
          ],
          [
            4.826553,
            52.351501
          ],
          [
            4.826427,
            52.351505
          ],
          [
            4.826305,
            52.351501
          ],
          [
            4.826166,
            52.351498
          ],
          [
            4.826061,
            52.351494
          ],
          [
            4.825979,
            52.351475
          ],
          [
            4.825863,
            52.351467
          ],
          [
            4.825763,
            52.351463
          ],
          [
            4.825669,
            52.351463
          ],
          [
            4.825572,
            52.351456
          ],
          [
            4.825367,
            52.351456
          ],
          [
            4.825264,
            52.351456
          ],
          [
            4.825066,
            52.351456
          ],
          [
            4.824985,
            52.351456
          ],
          [
            4.824865,
            52.351456
          ],
          [
            4.824765,
            52.351456
          ],
          [
            4.824666,
            52.351456
          ],
          [
            4.824564,
            52.351459
          ],
          [
            4.824362,
            52.351459
          ],
          [
            4.824251,
            52.351456
          ],
          [
            4.824153,
            52.351452
          ],
          [
            4.824048,
            52.351452
          ],
          [
            4.823971,
            52.351456
          ],
          [
            4.823843,
            52.351456
          ],
          [
            4.823738,
            52.351452
          ],
          [
            4.823638,
            52.351452
          ],
          [
            4.823539,
            52.35144
          ],
          [
            4.823444,
            52.35144
          ],
          [
            4.823342,
            52.351437
          ],
          [
            4.823246,
            52.351433
          ],
          [
            4.823148,
            52.351437
          ],
          [
            4.823048,
            52.351437
          ],
          [
            4.822965,
            52.35144
          ],
          [
            4.822847,
            52.351433
          ],
          [
            4.822647,
            52.351437
          ],
          [
            4.822551,
            52.351429
          ],
          [
            4.822477,
            52.351429
          ],
          [
            4.822357,
            52.351425
          ],
          [
            4.822239,
            52.351421
          ],
          [
            4.822133,
            52.351421
          ],
          [
            4.822034,
            52.351425
          ],
          [
            4.821943,
            52.351421
          ],
          [
            4.82175,
            52.351421
          ],
          [
            4.821629,
            52.351425
          ],
          [
            4.821544,
            52.351425
          ],
          [
            4.821466,
            52.351425
          ],
          [
            4.821324,
            52.351421
          ],
          [
            4.821206,
            52.351425
          ],
          [
            4.821106,
            52.351429
          ],
          [
            4.820941,
            52.351429
          ],
          [
            4.820805,
            52.351425
          ],
          [
            4.820702,
            52.351421
          ],
          [
            4.820596,
            52.351421
          ],
          [
            4.820505,
            52.351418
          ],
          [
            4.820425,
            52.351414
          ],
          [
            4.820283,
            52.351406
          ],
          [
            4.820179,
            52.351398
          ],
          [
            4.820089,
            52.351398
          ],
          [
            4.819975,
            52.351395
          ],
          [
            4.819902,
            52.351391
          ],
          [
            4.819761,
            52.351395
          ],
          [
            4.81966,
            52.351398
          ],
          [
            4.819555,
            52.351402
          ],
          [
            4.819461,
            52.351406
          ],
          [
            4.819284,
            52.351402
          ],
          [
            4.819142,
            52.351398
          ],
          [
            4.819038,
            52.351398
          ],
          [
            4.818834,
            52.351395
          ],
          [
            4.818767,
            52.351395
          ],
          [
            4.81863,
            52.351395
          ],
          [
            4.818528,
            52.351391
          ],
          [
            4.818426,
            52.351387
          ],
          [
            4.818328,
            52.351387
          ],
          [
            4.818251,
            52.351387
          ],
          [
            4.818127,
            52.351387
          ],
          [
            4.818025,
            52.351383
          ],
          [
            4.817924,
            52.351383
          ],
          [
            4.817856,
            52.351379
          ],
          [
            4.817721,
            52.351379
          ],
          [
            4.817625,
            52.351376
          ],
          [
            4.817523,
            52.351376
          ],
          [
            4.817421,
            52.351376
          ],
          [
            4.81722,
            52.351372
          ],
          [
            4.817122,
            52.351368
          ],
          [
            4.81702,
            52.351368
          ],
          [
            4.816921,
            52.351372
          ],
          [
            4.816846,
            52.351368
          ],
          [
            4.816718,
            52.351368
          ],
          [
            4.816617,
            52.351368
          ],
          [
            4.816517,
            52.351368
          ],
          [
            4.81642,
            52.351372
          ],
          [
            4.816344,
            52.351372
          ],
          [
            4.816211,
            52.351376
          ],
          [
            4.816108,
            52.351376
          ],
          [
            4.81601,
            52.351376
          ],
          [
            4.815906,
            52.351372
          ],
          [
            4.81583,
            52.351368
          ],
          [
            4.815704,
            52.351368
          ],
          [
            4.815606,
            52.351364
          ],
          [
            4.815507,
            52.351364
          ],
          [
            4.815414,
            52.351364
          ],
          [
            4.81521,
            52.351368
          ],
          [
            4.815108,
            52.351364
          ],
          [
            4.815004,
            52.351353
          ],
          [
            4.814905,
            52.351349
          ],
          [
            4.814829,
            52.351345
          ],
          [
            4.814705,
            52.351341
          ],
          [
            4.814599,
            52.351334
          ],
          [
            4.814497,
            52.35133
          ],
          [
            4.8144,
            52.351326
          ],
          [
            4.814328,
            52.351322
          ],
          [
            4.814196,
            52.351315
          ],
          [
            4.814094,
            52.351307
          ],
          [
            4.813995,
            52.351299
          ],
          [
            4.813893,
            52.351292
          ],
          [
            4.813815,
            52.351288
          ],
          [
            4.813693,
            52.351276
          ],
          [
            4.813499,
            52.351257
          ],
          [
            4.813399,
            52.351246
          ],
          [
            4.813324,
            52.351242
          ],
          [
            4.813199,
            52.351227
          ],
          [
            4.8131,
            52.351212
          ],
          [
            4.813005,
            52.351196
          ],
          [
            4.812822,
            52.351166
          ],
          [
            4.81271,
            52.351151
          ],
          [
            4.812616,
            52.351135
          ],
          [
            4.812518,
            52.35112
          ],
          [
            4.81242,
            52.351101
          ],
          [
            4.81234,
            52.351086
          ],
          [
            4.812228,
            52.351063
          ],
          [
            4.812135,
            52.351048
          ],
          [
            4.812027,
            52.351025
          ],
          [
            4.811931,
            52.351006
          ],
          [
            4.811844,
            52.350986
          ],
          [
            4.811743,
            52.350956
          ],
          [
            4.811649,
            52.350937
          ],
          [
            4.811556,
            52.350925
          ],
          [
            4.811485,
            52.350937
          ],
          [
            4.811401,
            52.350948
          ],
          [
            4.81132,
            52.35096
          ],
          [
            4.811242,
            52.350967
          ],
          [
            4.811059,
            52.350945
          ],
          [
            4.811014,
            52.350918
          ],
          [
            4.810888,
            52.35083
          ],
          [
            4.810799,
            52.350792
          ],
          [
            4.810704,
            52.350769
          ],
          [
            4.810607,
            52.35075
          ],
          [
            4.810464,
            52.350731
          ],
          [
            4.810353,
            52.350712
          ],
          [
            4.810226,
            52.350681
          ],
          [
            4.810051,
            52.350639
          ],
          [
            4.809941,
            52.350605
          ],
          [
            4.809854,
            52.350575
          ],
          [
            4.809761,
            52.350555
          ],
          [
            4.809667,
            52.350536
          ],
          [
            4.809588,
            52.350521
          ],
          [
            4.809477,
            52.350498
          ],
          [
            4.809379,
            52.350483
          ],
          [
            4.809188,
            52.350445
          ],
          [
            4.809105,
            52.350426
          ],
          [
            4.808903,
            52.350391
          ],
          [
            4.808712,
            52.350349
          ],
          [
            4.808643,
            52.350334
          ],
          [
            4.808517,
            52.350307
          ],
          [
            4.80842,
            52.350288
          ],
          [
            4.808323,
            52.350269
          ],
          [
            4.808228,
            52.35025
          ],
          [
            4.80804,
            52.350212
          ],
          [
            4.807942,
            52.350193
          ],
          [
            4.807752,
            52.350155
          ],
          [
            4.807684,
            52.350143
          ],
          [
            4.807559,
            52.350113
          ],
          [
            4.807459,
            52.350094
          ],
          [
            4.807362,
            52.350075
          ],
          [
            4.807266,
            52.350056
          ],
          [
            4.807075,
            52.350014
          ],
          [
            4.806978,
            52.349998
          ],
          [
            4.806885,
            52.349976
          ],
          [
            4.806807,
            52.349964
          ],
          [
            4.806601,
            52.349918
          ],
          [
            4.806502,
            52.349903
          ],
          [
            4.806428,
            52.349888
          ],
          [
            4.806369,
            52.349873
          ],
          [
            4.806271,
            52.349854
          ],
          [
            4.806188,
            52.349838
          ],
          [
            4.806096,
            52.349819
          ],
          [
            4.806004,
            52.3498
          ],
          [
            4.805936,
            52.349785
          ],
          [
            4.805822,
            52.349758
          ],
          [
            4.805732,
            52.349739
          ],
          [
            4.805637,
            52.349716
          ],
          [
            4.80554,
            52.349693
          ],
          [
            4.805491,
            52.349682
          ],
          [
            4.805356,
            52.349655
          ],
          [
            4.805159,
            52.349617
          ],
          [
            4.805061,
            52.349598
          ],
          [
            4.805003,
            52.349586
          ],
          [
            4.804873,
            52.34956
          ],
          [
            4.804775,
            52.349541
          ],
          [
            4.804679,
            52.349518
          ],
          [
            4.804585,
            52.349499
          ],
          [
            4.804513,
            52.349483
          ],
          [
            4.8044,
            52.349457
          ],
          [
            4.804309,
            52.349438
          ],
          [
            4.804111,
            52.349392
          ],
          [
            4.804017,
            52.349373
          ],
          [
            4.803827,
            52.349339
          ],
          [
            4.80373,
            52.349319
          ],
          [
            4.80363,
            52.349304
          ],
          [
            4.803546,
            52.349285
          ],
          [
            4.803396,
            52.349262
          ],
          [
            4.803278,
            52.349243
          ],
          [
            4.803038,
            52.349201
          ],
          [
            4.80296,
            52.349182
          ],
          [
            4.802834,
            52.349159
          ],
          [
            4.802735,
            52.349144
          ],
          [
            4.802633,
            52.349125
          ],
          [
            4.802541,
            52.349098
          ],
          [
            4.802458,
            52.349083
          ],
          [
            4.802351,
            52.34906
          ],
          [
            4.802162,
            52.349026
          ],
          [
            4.802064,
            52.349007
          ],
          [
            4.801975,
            52.348988
          ],
          [
            4.801872,
            52.348968
          ],
          [
            4.801778,
            52.348949
          ],
          [
            4.801689,
            52.348927
          ],
          [
            4.801588,
            52.348911
          ],
          [
            4.801511,
            52.348896
          ],
          [
            4.801295,
            52.34885
          ],
          [
            4.801202,
            52.348831
          ],
          [
            4.801103,
            52.348816
          ],
          [
            4.80101,
            52.348789
          ],
          [
            4.800911,
            52.34877
          ],
          [
            4.800815,
            52.348747
          ],
          [
            4.800628,
            52.348709
          ],
          [
            4.800434,
            52.348667
          ],
          [
            4.800334,
            52.348648
          ],
          [
            4.800157,
            52.348595
          ],
          [
            4.800065,
            52.348568
          ],
          [
            4.799972,
            52.348545
          ],
          [
            4.799797,
            52.348488
          ],
          [
            4.799716,
            52.348453
          ],
          [
            4.799631,
            52.348431
          ],
          [
            4.799539,
            52.348389
          ],
          [
            4.799447,
            52.348366
          ],
          [
            4.799278,
            52.348297
          ],
          [
            4.799189,
            52.348267
          ],
          [
            4.799107,
            52.348228
          ],
          [
            4.798938,
            52.348164
          ],
          [
            4.798864,
            52.348125
          ],
          [
            4.79878,
            52.348091
          ],
          [
            4.798699,
            52.348053
          ],
          [
            4.798621,
            52.348015
          ],
          [
            4.798543,
            52.347977
          ],
          [
            4.79847,
            52.347939
          ],
          [
            4.798396,
            52.347919
          ],
          [
            4.798275,
            52.347908
          ],
          [
            4.798175,
            52.3479
          ],
          [
            4.797993,
            52.347862
          ],
          [
            4.79792,
            52.347828
          ],
          [
            4.797825,
            52.347729
          ],
          [
            4.797813,
            52.347672
          ],
          [
            4.797795,
            52.347614
          ],
          [
            4.797751,
            52.347561
          ],
          [
            4.797688,
            52.347511
          ],
          [
            4.797624,
            52.347462
          ],
          [
            4.797556,
            52.347416
          ],
          [
            4.797422,
            52.347328
          ],
          [
            4.797352,
            52.347279
          ],
          [
            4.797286,
            52.347229
          ],
          [
            4.797229,
            52.347187
          ],
          [
            4.797168,
            52.347145
          ],
          [
            4.797104,
            52.347092
          ],
          [
            4.796977,
            52.346996
          ],
          [
            4.796918,
            52.346947
          ],
          [
            4.796861,
            52.346897
          ],
          [
            4.796807,
            52.346844
          ],
          [
            4.796753,
            52.34679
          ],
          [
            4.796701,
            52.346737
          ],
          [
            4.796649,
            52.346687
          ],
          [
            4.796577,
            52.346611
          ],
          [
            4.796502,
            52.346519
          ],
          [
            4.796417,
            52.346413
          ],
          [
            4.796375,
            52.346352
          ],
          [
            4.796331,
            52.346294
          ],
          [
            4.796298,
            52.346237
          ],
          [
            4.796264,
            52.346188
          ],
          [
            4.796226,
            52.346127
          ],
          [
            4.796187,
            52.346065
          ],
          [
            4.796148,
            52.346012
          ],
          [
            4.796116,
            52.345951
          ],
          [
            4.796079,
            52.345894
          ],
          [
            4.796042,
            52.345837
          ],
          [
            4.795966,
            52.345718
          ],
          [
            4.795933,
            52.345669
          ],
          [
            4.795902,
            52.345612
          ],
          [
            4.795864,
            52.34555
          ],
          [
            4.795828,
            52.345489
          ],
          [
            4.795794,
            52.345436
          ],
          [
            4.795757,
            52.345379
          ],
          [
            4.795679,
            52.345261
          ],
          [
            4.795641,
            52.345207
          ],
          [
            4.79561,
            52.34515
          ],
          [
            4.795538,
            52.345028
          ],
          [
            4.795474,
            52.344917
          ],
          [
            4.795439,
            52.34486
          ],
          [
            4.795407,
            52.344803
          ],
          [
            4.795376,
            52.344746
          ],
          [
            4.795348,
            52.344685
          ],
          [
            4.795327,
            52.344631
          ],
          [
            4.795292,
            52.344502
          ],
          [
            4.795282,
            52.34444
          ],
          [
            4.795276,
            52.344379
          ],
          [
            4.795268,
            52.344322
          ],
          [
            4.795226,
            52.344212
          ],
          [
            4.795197,
            52.344151
          ],
          [
            4.795165,
            52.344097
          ],
          [
            4.795139,
            52.344063
          ],
          [
            4.795058,
            52.343941
          ],
          [
            4.795019,
            52.343884
          ],
          [
            4.79498,
            52.343826
          ],
          [
            4.794946,
            52.343777
          ],
          [
            4.794908,
            52.343727
          ],
          [
            4.794869,
            52.343674
          ],
          [
            4.79483,
            52.343616
          ],
          [
            4.794789,
            52.343559
          ],
          [
            4.794716,
            52.343456
          ],
          [
            4.794676,
            52.343399
          ],
          [
            4.794594,
            52.343281
          ],
          [
            4.794555,
            52.343224
          ],
          [
            4.794478,
            52.343121
          ],
          [
            4.794396,
            52.342999
          ],
          [
            4.794357,
            52.342941
          ],
          [
            4.79432,
            52.342884
          ],
          [
            4.794284,
            52.342831
          ],
          [
            4.794207,
            52.342712
          ],
          [
            4.794166,
            52.342655
          ],
          [
            4.794128,
            52.342598
          ],
          [
            4.794091,
            52.342548
          ],
          [
            4.794013,
            52.342426
          ],
          [
            4.793972,
            52.342369
          ],
          [
            4.793928,
            52.342316
          ],
          [
            4.793875,
            52.342262
          ],
          [
            4.793818,
            52.342209
          ],
          [
            4.793692,
            52.34211
          ],
          [
            4.793625,
            52.342064
          ],
          [
            4.793556,
            52.342018
          ],
          [
            4.79341,
            52.341938
          ],
          [
            4.793331,
            52.341896
          ],
          [
            4.793253,
            52.341854
          ],
          [
            4.793174,
            52.341816
          ],
          [
            4.793098,
            52.341774
          ],
          [
            4.793031,
            52.341736
          ],
          [
            4.79296,
            52.34169
          ],
          [
            4.792896,
            52.341648
          ],
          [
            4.79279,
            52.341549
          ],
          [
            4.792747,
            52.341496
          ],
          [
            4.792708,
            52.341446
          ],
          [
            4.792667,
            52.341396
          ],
          [
            4.792585,
            52.341286
          ],
          [
            4.792547,
            52.341232
          ],
          [
            4.792467,
            52.341126
          ],
          [
            4.792423,
            52.341068
          ],
          [
            4.792384,
            52.341011
          ],
          [
            4.792304,
            52.340908
          ],
          [
            4.792252,
            52.340862
          ],
          [
            4.792197,
            52.340816
          ],
          [
            4.792139,
            52.340778
          ],
          [
            4.792075,
            52.340744
          ],
          [
            4.792006,
            52.340713
          ],
          [
            4.791947,
            52.340687
          ],
          [
            4.791887,
            52.340668
          ],
          [
            4.791824,
            52.34066
          ],
          [
            4.791762,
            52.340672
          ],
          [
            4.79171,
            52.340706
          ],
          [
            4.791612,
            52.340782
          ],
          [
            4.791554,
            52.340828
          ],
          [
            4.791506,
            52.34087
          ],
          [
            4.791456,
            52.340916
          ],
          [
            4.7914,
            52.340961
          ],
          [
            4.791347,
            52.341011
          ],
          [
            4.791282,
            52.341053
          ],
          [
            4.791231,
            52.341072
          ],
          [
            4.791171,
            52.341087
          ],
          [
            4.791061,
            52.341095
          ],
          [
            4.790837,
            52.341053
          ],
          [
            4.790751,
            52.341015
          ],
          [
            4.790677,
            52.340973
          ],
          [
            4.790526,
            52.340889
          ],
          [
            4.790455,
            52.340843
          ],
          [
            4.790393,
            52.340797
          ],
          [
            4.790331,
            52.340752
          ],
          [
            4.790264,
            52.340702
          ],
          [
            4.790198,
            52.340652
          ],
          [
            4.790138,
            52.340603
          ],
          [
            4.790077,
            52.340561
          ],
          [
            4.790015,
            52.340508
          ],
          [
            4.789938,
            52.340466
          ],
          [
            4.789876,
            52.340424
          ],
          [
            4.789805,
            52.340382
          ],
          [
            4.789737,
            52.340332
          ],
          [
            4.789663,
            52.340286
          ],
          [
            4.789592,
            52.340237
          ],
          [
            4.789522,
            52.340195
          ],
          [
            4.789459,
            52.340149
          ],
          [
            4.789393,
            52.340103
          ],
          [
            4.789322,
            52.340057
          ],
          [
            4.789255,
            52.340008
          ],
          [
            4.789189,
            52.339966
          ],
          [
            4.789119,
            52.33992
          ],
          [
            4.78905,
            52.339874
          ],
          [
            4.788978,
            52.339825
          ],
          [
            4.78891,
            52.339779
          ],
          [
            4.788849,
            52.339733
          ],
          [
            4.788778,
            52.339687
          ],
          [
            4.788712,
            52.339642
          ],
          [
            4.788645,
            52.339596
          ],
          [
            4.788579,
            52.33955
          ],
          [
            4.788507,
            52.339504
          ],
          [
            4.788432,
            52.339458
          ],
          [
            4.788362,
            52.339405
          ],
          [
            4.788293,
            52.339359
          ],
          [
            4.788217,
            52.339314
          ],
          [
            4.788138,
            52.339275
          ],
          [
            4.788064,
            52.339245
          ],
          [
            4.787981,
            52.339211
          ],
          [
            4.787897,
            52.33918
          ],
          [
            4.787798,
            52.339149
          ],
          [
            4.787701,
            52.339123
          ],
          [
            4.78761,
            52.3391
          ],
          [
            4.787515,
            52.339077
          ],
          [
            4.787434,
            52.339058
          ],
          [
            4.787325,
            52.339031
          ],
          [
            4.787116,
            52.338982
          ],
          [
            4.787023,
            52.338963
          ],
          [
            4.786938,
            52.338947
          ],
          [
            4.786825,
            52.338924
          ],
          [
            4.786729,
            52.338902
          ],
          [
            4.786636,
            52.338879
          ],
          [
            4.786544,
            52.33886
          ],
          [
            4.786474,
            52.338844
          ],
          [
            4.786353,
            52.338818
          ],
          [
            4.786254,
            52.338795
          ],
          [
            4.786158,
            52.338772
          ],
          [
            4.78606,
            52.338757
          ],
          [
            4.785985,
            52.338745
          ],
          [
            4.785868,
            52.338718
          ],
          [
            4.785773,
            52.338696
          ],
          [
            4.785679,
            52.338676
          ],
          [
            4.785583,
            52.338654
          ],
          [
            4.785511,
            52.338638
          ],
          [
            4.785391,
            52.338612
          ],
          [
            4.785295,
            52.338589
          ],
          [
            4.785198,
            52.338566
          ],
          [
            4.785107,
            52.338551
          ],
          [
            4.785019,
            52.338531
          ],
          [
            4.784923,
            52.338512
          ],
          [
            4.784827,
            52.338489
          ],
          [
            4.78464,
            52.338432
          ],
          [
            4.78455,
            52.338421
          ],
          [
            4.784454,
            52.338402
          ],
          [
            4.784363,
            52.338383
          ],
          [
            4.784272,
            52.33836
          ],
          [
            4.784179,
            52.338337
          ],
          [
            4.784115,
            52.338325
          ],
          [
            4.783892,
            52.338268
          ],
          [
            4.7838,
            52.338238
          ],
          [
            4.783712,
            52.338203
          ],
          [
            4.783627,
            52.338165
          ],
          [
            4.78355,
            52.338127
          ],
          [
            4.783472,
            52.338085
          ],
          [
            4.783398,
            52.338047
          ],
          [
            4.783315,
            52.338009
          ],
          [
            4.783176,
            52.337925
          ],
          [
            4.783104,
            52.337879
          ],
          [
            4.783036,
            52.337833
          ],
          [
            4.782967,
            52.337788
          ],
          [
            4.782822,
            52.3377
          ],
          [
            4.782739,
            52.337662
          ],
          [
            4.782566,
            52.337597
          ],
          [
            4.782475,
            52.337566
          ],
          [
            4.782388,
            52.33754
          ],
          [
            4.782291,
            52.337517
          ],
          [
            4.782194,
            52.337502
          ],
          [
            4.78211,
            52.337486
          ],
          [
            4.782,
            52.337471
          ],
          [
            4.781906,
            52.337463
          ],
          [
            4.781704,
            52.33746
          ],
          [
            4.781638,
            52.33746
          ],
          [
            4.781397,
            52.337467
          ],
          [
            4.781301,
            52.337475
          ],
          [
            4.781199,
            52.33749
          ],
          [
            4.781116,
            52.337505
          ],
          [
            4.780918,
            52.337559
          ],
          [
            4.780831,
            52.337585
          ],
          [
            4.780657,
            52.337643
          ],
          [
            4.780553,
            52.337673
          ],
          [
            4.78037,
            52.337727
          ],
          [
            4.780277,
            52.337757
          ],
          [
            4.780184,
            52.337784
          ],
          [
            4.78009,
            52.33781
          ],
          [
            4.780002,
            52.337837
          ],
          [
            4.779913,
            52.337864
          ],
          [
            4.77982,
            52.337887
          ],
          [
            4.779736,
            52.33791
          ],
          [
            4.779546,
            52.337967
          ],
          [
            4.77947,
            52.338001
          ],
          [
            4.77932,
            52.338081
          ],
          [
            4.779237,
            52.338123
          ],
          [
            4.779077,
            52.338207
          ],
          [
            4.778992,
            52.338249
          ],
          [
            4.778907,
            52.338291
          ],
          [
            4.778828,
            52.338333
          ],
          [
            4.778744,
            52.338375
          ],
          [
            4.778665,
            52.338417
          ],
          [
            4.778582,
            52.338451
          ],
          [
            4.778498,
            52.338486
          ],
          [
            4.778413,
            52.338516
          ],
          [
            4.778321,
            52.338547
          ],
          [
            4.778232,
            52.338581
          ],
          [
            4.77806,
            52.338654
          ],
          [
            4.777978,
            52.338684
          ],
          [
            4.777895,
            52.338722
          ],
          [
            4.777817,
            52.33876
          ],
          [
            4.777738,
            52.338795
          ],
          [
            4.777576,
            52.338863
          ],
          [
            4.777499,
            52.338894
          ],
          [
            4.777418,
            52.338924
          ],
          [
            4.777356,
            52.338963
          ],
          [
            4.777334,
            52.339004
          ],
          [
            4.777332,
            52.339039
          ],
          [
            4.777359,
            52.339081
          ],
          [
            4.777411,
            52.339123
          ],
          [
            4.777531,
            52.339195
          ],
          [
            4.777584,
            52.339237
          ],
          [
            4.777636,
            52.339279
          ],
          [
            4.777689,
            52.339325
          ],
          [
            4.777746,
            52.339375
          ],
          [
            4.777845,
            52.339466
          ],
          [
            4.777907,
            52.339504
          ],
          [
            4.777981,
            52.339527
          ],
          [
            4.778021,
            52.339531
          ],
          [
            4.778235,
            52.339497
          ],
          [
            4.778311,
            52.339462
          ],
          [
            4.778381,
            52.33942
          ],
          [
            4.778449,
            52.339382
          ],
          [
            4.778514,
            52.33934
          ],
          [
            4.778586,
            52.339302
          ],
          [
            4.778662,
            52.339275
          ],
          [
            4.778741,
            52.33926
          ],
          [
            4.778789,
            52.339264
          ],
          [
            4.778905,
            52.339275
          ],
          [
            4.778962,
            52.339298
          ],
          [
            4.778983,
            52.339329
          ],
          [
            4.778983,
            52.339352
          ],
          [
            4.778975,
            52.339371
          ],
          [
            4.778985,
            52.339375
          ],
          [
            4.778995,
            52.339405
          ],
          [
            4.779028,
            52.339424
          ],
          [
            4.779057,
            52.339439
          ],
          [
            4.779082,
            52.339455
          ],
          [
            4.779078,
            52.33947
          ],
          [
            4.779062,
            52.339474
          ],
          [
            4.779062,
            52.339474
          ],
          [
            4.779062,
            52.339474
          ]
        ]
      }
    }
  ]
}