{
  "type": "FeatureCollection",
  "features": [
    {
      "type": "Feature",
      "properties": {
        "id": "amsterdam-ride-988b9800-5a1e-11f1-8ad1-a40dbc8fa83a",
        "title": "Amsterdam ride",
        "source": "Amsterdam ride-988b9800-5a1e-11f1-8ad1-a40dbc8fa83a.fit"
      },
      "geometry": {
        "type": "LineString",
        "coordinates": [
          [
            4.895955,
            52.375954
          ],
          [
            4.896047,
            52.375904
          ],
          [
            4.896253,
            52.375828
          ],
          [
            4.896278,
            52.375809
          ],
          [
            4.896278,
            52.375809
          ],
          [
            4.896278,
            52.375809
          ],
          [
            4.896278,
            52.375809
          ],
          [
            4.896278,
            52.375809
          ],
          [
            4.896362,
            52.375713
          ],
          [
            4.896362,
            52.375713
          ],
          [
            4.896359,
            52.375717
          ],
          [
            4.896383,
            52.375725
          ],
          [
            4.896383,
            52.375725
          ],
          [
            4.896391,
            52.375729
          ],
          [
            4.896394,
            52.375725
          ],
          [
            4.89609,
            52.375458
          ],
          [
            4.895666,
            52.375134
          ],
          [
            4.895713,
            52.375172
          ],
          [
            4.895607,
            52.375103
          ],
          [
            4.895546,
            52.375065
          ],
          [
            4.895498,
            52.37503
          ],
          [
            4.895459,
            52.375
          ],
          [
            4.895399,
            52.374962
          ],
          [
            4.895348,
            52.374916
          ],
          [
            4.895291,
            52.374878
          ],
          [
            4.895245,
            52.37484
          ],
          [
            4.89518,
            52.374798
          ],
          [
            4.895069,
            52.37471
          ],
          [
            4.894989,
            52.374649
          ],
          [
            4.89492,
            52.374596
          ],
          [
            4.894859,
            52.374554
          ],
          [
            4.894789,
            52.374504
          ],
          [
            4.894721,
            52.374451
          ],
          [
            4.894656,
            52.374405
          ],
          [
            4.894604,
            52.374351
          ],
          [
            4.894532,
            52.374306
          ],
          [
            4.89447,
            52.374249
          ],
          [
            4.894402,
            52.374199
          ],
          [
            4.894343,
            52.374153
          ],
          [
            4.894285,
            52.374111
          ],
          [
            4.894219,
            52.374058
          ],
          [
            4.894156,
            52.374004
          ],
          [
            4.894089,
            52.373955
          ],
          [
            4.894031,
            52.373913
          ],
          [
            4.893965,
            52.373859
          ],
          [
            4.893897,
            52.37381
          ],
          [
            4.893832,
            52.373764
          ],
          [
            4.893771,
            52.373718
          ],
          [
            4.893702,
            52.373665
          ],
          [
            4.893636,
            52.373619
          ],
          [
            4.89357,
            52.37357
          ],
          [
            4.893508,
            52.37352
          ],
          [
            4.893452,
            52.373478
          ],
          [
            4.89339,
            52.373425
          ],
          [
            4.893335,
            52.373371
          ],
          [
            4.893286,
            52.373318
          ],
          [
            4.893241,
            52.373264
          ],
          [
            4.893201,
            52.373219
          ],
          [
            4.893159,
            52.373157
          ],
          [
            4.893123,
            52.373096
          ],
          [
            4.893087,
            52.373039
          ],
          [
            4.893053,
            52.372986
          ],
          [
            4.893018,
            52.372929
          ],
          [
            4.892989,
            52.372875
          ],
          [
            4.892961,
            52.372822
          ],
          [
            4.892935,
            52.372768
          ],
          [
            4.892911,
            52.372707
          ],
          [
            4.892889,
            52.372646
          ],
          [
            4.892875,
            52.372593
          ],
          [
            4.892857,
            52.37254
          ],
          [
            4.892853,
            52.372494
          ],
          [
            4.892847,
            52.372444
          ],
          [
            4.892828,
            52.372398
          ],
          [
            4.892823,
            52.372349
          ],
          [
            4.892812,
            52.372295
          ],
          [
            4.892807,
            52.37225
          ],
          [
            4.8928,
            52.3722
          ],
          [
            4.892791,
            52.372143
          ],
          [
            4.892788,
            52.372089
          ],
          [
            4.892781,
            52.372036
          ],
          [
            4.892781,
            52.371983
          ],
          [
            4.892773,
            52.371918
          ],
          [
            4.892767,
            52.371853
          ],
          [
            4.892763,
            52.371788
          ],
          [
            4.892756,
            52.371735
          ],
          [
            4.892747,
            52.371674
          ],
          [
            4.892739,
            52.371609
          ],
          [
            4.89273,
            52.371544
          ],
          [
            4.89272,
            52.371487
          ],
          [
            4.892708,
            52.371429
          ],
          [
            4.8927,
            52.371372
          ],
          [
            4.892685,
            52.371304
          ],
          [
            4.892673,
            52.371254
          ],
          [
            4.892659,
            52.371201
          ],
          [
            4.892645,
            52.37114
          ],
          [
            4.892628,
            52.37109
          ],
          [
            4.892613,
            52.371037
          ],
          [
            4.892597,
            52.370979
          ],
          [
            4.892582,
            52.370918
          ],
          [
            4.892571,
            52.370865
          ],
          [
            4.892555,
            52.370811
          ],
          [
            4.892543,
            52.370758
          ],
          [
            4.892528,
            52.370701
          ],
          [
            4.892511,
            52.37064
          ],
          [
            4.892494,
            52.370586
          ],
          [
            4.892479,
            52.370529
          ],
          [
            4.892462,
            52.37048
          ],
          [
            4.892443,
            52.370419
          ],
          [
            4.892421,
            52.370354
          ],
          [
            4.892396,
            52.370293
          ],
          [
            4.892369,
            52.370228
          ],
          [
            4.892348,
            52.370174
          ],
          [
            4.89232,
            52.370117
          ],
          [
            4.892288,
            52.370056
          ],
          [
            4.892255,
            52.369999
          ],
          [
            4.892222,
            52.369934
          ],
          [
            4.892194,
            52.369877
          ],
          [
            4.892166,
            52.369823
          ],
          [
            4.89214,
            52.369774
          ],
          [
            4.89211,
            52.369709
          ],
          [
            4.892086,
            52.36964
          ],
          [
            4.892063,
            52.369579
          ],
          [
            4.892036,
            52.369522
          ],
          [
            4.892016,
            52.369473
          ],
          [
            4.892001,
            52.369408
          ],
          [
            4.89198,
            52.369339
          ],
          [
            4.891962,
            52.369278
          ],
          [
            4.891951,
            52.369217
          ],
          [
            4.891946,
            52.36916
          ],
          [
            4.891941,
            52.369102
          ],
          [
            4.891949,
            52.369034
          ],
          [
            4.891965,
            52.368969
          ],
          [
            4.891983,
            52.368912
          ],
          [
            4.892008,
            52.368847
          ],
          [
            4.892038,
            52.368782
          ],
          [
            4.892074,
            52.368717
          ],
          [
            4.892104,
            52.368664
          ],
          [
            4.892144,
            52.368603
          ],
          [
            4.892186,
            52.368542
          ],
          [
            4.892231,
            52.368484
          ],
          [
            4.892276,
            52.368427
          ],
          [
            4.892315,
            52.368381
          ],
          [
            4.892355,
            52.368336
          ],
          [
            4.892389,
            52.368294
          ],
          [
            4.892389,
            52.368294
          ],
          [
            4.892389,
            52.368294
          ],
          [
            4.892481,
            52.368176
          ],
          [
            4.892484,
            52.368172
          ],
          [
            4.892491,
            52.368168
          ],
          [
            4.892501,
            52.368156
          ],
          [
            4.892519,
            52.368141
          ],
          [
            4.892551,
            52.368114
          ],
          [
            4.89259,
            52.368088
          ],
          [
            4.892625,
            52.368057
          ],
          [
            4.892667,
            52.368023
          ],
          [
            4.892719,
            52.367985
          ],
          [
            4.892766,
            52.367943
          ],
          [
            4.892814,
            52.367905
          ],
          [
            4.892864,
            52.367863
          ],
          [
            4.89291,
            52.367821
          ],
          [
            4.892964,
            52.367771
          ],
          [
            4.89302,
            52.367722
          ],
          [
            4.893075,
            52.367672
          ],
          [
            4.893129,
            52.367619
          ],
          [
            4.893188,
            52.367569
          ],
          [
            4.893234,
            52.367523
          ],
          [
            4.893284,
            52.367477
          ],
          [
            4.893316,
            52.367432
          ],
          [
            4.893352,
            52.36739
          ],
          [
            4.893373,
            52.367351
          ],
          [
            4.89339,
            52.367306
          ],
          [
            4.893403,
            52.36726
          ],
          [
            4.89341,
            52.36721
          ],
          [
            4.893409,
            52.367157
          ],
          [
            4.893402,
            52.367092
          ],
          [
            4.893385,
            52.367035
          ],
          [
            4.893362,
            52.366978
          ],
          [
            4.893325,
            52.366913
          ],
          [
            4.893289,
            52.366852
          ],
          [
            4.893256,
            52.366798
          ],
          [
            4.893222,
            52.366741
          ],
          [
            4.893201,
            52.366665
          ],
          [
            4.89318,
            52.366592
          ],
          [
            4.893167,
            52.366528
          ],
          [
            4.893168,
            52.366451
          ],
          [
            4.89316,
            52.366383
          ],
          [
            4.893161,
            52.366322
          ],
          [
            4.893162,
            52.366245
          ],
          [
            4.893155,
            52.36618
          ],
          [
            4.893147,
            52.366127
          ],
          [
            4.89313,
            52.366062
          ],
          [
            4.893128,
            52.365994
          ],
          [
            4.893114,
            52.365921
          ],
          [
            4.893105,
            52.365849
          ],
          [
            4.893095,
            52.365791
          ],
          [
            4.893104,
            52.365723
          ],
          [
            4.893094,
            52.365658
          ],
          [
            4.893084,
            52.365589
          ],
          [
            4.893064,
            52.365528
          ],
          [
            4.89305,
            52.365463
          ],
          [
            4.893017,
            52.365417
          ],
          [
            4.892985,
            52.365353
          ],
          [
            4.892945,
            52.365295
          ],
          [
            4.892907,
            52.365242
          ],
          [
            4.892867,
            52.365189
          ],
          [
            4.892831,
            52.365135
          ],
          [
            4.892798,
            52.365078
          ],
          [
            4.892771,
            52.365028
          ],
          [
            4.892744,
            52.364967
          ],
          [
            4.892719,
            52.364906
          ],
          [
            4.892692,
            52.364841
          ],
          [
            4.892667,
            52.36478
          ],
          [
            4.892644,
            52.364712
          ],
          [
            4.892625,
            52.364643
          ],
          [
            4.892603,
            52.364582
          ],
          [
            4.892588,
            52.36451
          ],
          [
            4.892564,
            52.364445
          ],
          [
            4.892551,
            52.364387
          ],
          [
            4.892536,
            52.364319
          ],
          [
            4.892521,
            52.36425
          ],
          [
            4.892512,
            52.364182
          ],
          [
            4.892488,
            52.364121
          ],
          [
            4.892468,
            52.364052
          ],
          [
            4.892437,
            52.363995
          ],
          [
            4.892405,
            52.363945
          ],
          [
            4.892377,
            52.363899
          ],
          [
            4.892344,
            52.363842
          ],
          [
            4.892312,
            52.363781
          ],
          [
            4.892287,
            52.363728
          ],
          [
            4.892266,
            52.363667
          ],
          [
            4.892237,
            52.363594
          ],
          [
            4.89222,
            52.363533
          ],
          [
            4.8922,
            52.363464
          ],
          [
            4.892175,
            52.3634
          ],
          [
            4.892152,
            52.363338
          ],
          [
            4.892128,
            52.36327
          ],
          [
            4.892094,
            52.363201
          ],
          [
            4.89207,
            52.363148
          ],
          [
            4.892036,
            52.363083
          ],
          [
            4.892002,
            52.363022
          ],
          [
            4.891968,
            52.362961
          ],
          [
            4.891949,
            52.362892
          ],
          [
            4.891922,
            52.362831
          ],
          [
            4.891904,
            52.362762
          ],
          [
            4.891896,
            52.362698
          ],
          [
            4.891902,
            52.362633
          ],
          [
            4.891891,
            52.362564
          ],
          [
            4.891878,
            52.362492
          ],
          [
            4.891862,
            52.362431
          ],
          [
            4.891845,
            52.362366
          ],
          [
            4.891819,
            52.362309
          ],
          [
            4.891787,
            52.362255
          ],
          [
            4.891758,
            52.362202
          ],
          [
            4.891729,
            52.362152
          ],
          [
            4.891705,
            52.362102
          ],
          [
            4.891677,
            52.362038
          ],
          [
            4.891653,
            52.36198
          ],
          [
            4.891625,
            52.361919
          ],
          [
            4.891593,
            52.361843
          ],
          [
            4.89157,
            52.361782
          ],
          [
            4.891541,
            52.36171
          ],
          [
            4.891518,
            52.361645
          ],
          [
            4.891491,
            52.361576
          ],
          [
            4.891469,
            52.361515
          ],
          [
            4.891442,
            52.361446
          ],
          [
            4.891417,
            52.361378
          ],
          [
            4.891395,
            52.36132
          ],
          [
            4.891371,
            52.361256
          ],
          [
            4.891348,
            52.361191
          ],
          [
            4.891325,
            52.36113
          ],
          [
            4.891304,
            52.361073
          ],
          [
            4.89128,
            52.361004
          ],
          [
            4.891258,
            52.360943
          ],
          [
            4.891237,
            52.360882
          ],
          [
            4.891216,
            52.360821
          ],
          [
            4.8912,
            52.360767
          ],
          [
            4.891175,
            52.360703
          ],
          [
            4.891154,
            52.360641
          ],
          [
            4.891129,
            52.36058
          ],
          [
            4.891101,
            52.360519
          ],
          [
            4.891072,
            52.360455
          ],
          [
            4.891044,
            52.360397
          ],
          [
            4.891015,
            52.360344
          ],
          [
            4.890987,
            52.36029
          ],
          [
            4.890962,
            52.360233
          ],
          [
            4.890939,
            52.360176
          ],
          [
            4.890922,
            52.36013
          ],
          [
            4.890905,
            52.360077
          ],
          [
            4.890892,
            52.360024
          ],
          [
            4.890877,
            52.359978
          ],
          [
            4.89086,
            52.359928
          ],
          [
            4.890836,
            52.359875
          ],
          [
            4.890808,
            52.359825
          ],
          [
            4.890762,
            52.359776
          ],
          [
            4.890706,
            52.35973
          ],
          [
            4.89065,
            52.359695
          ],
          [
            4.890587,
            52.359661
          ],
          [
            4.890538,
            52.359631
          ],
          [
            4.890487,
            52.359596
          ],
          [
            4.89043,
            52.35955
          ],
          [
            4.890387,
            52.359512
          ],
          [
            4.890351,
            52.35947
          ],
          [
            4.89032,
            52.359425
          ],
          [
            4.890296,
            52.359379
          ],
          [
            4.89028,
            52.359325
          ],
          [
            4.890281,
            52.359272
          ],
          [
            4.8903,
            52.359215
          ],
          [
            4.890329,
            52.359161
          ],
          [
            4.890368,
            52.359112
          ],
          [
            4.890419,
            52.359066
          ],
          [
            4.890468,
            52.359016
          ],
          [
            4.890521,
            52.358974
          ],
          [
            4.890564,
            52.358932
          ],
          [
            4.890602,
            52.358887
          ],
          [
            4.890637,
            52.358833
          ],
          [
            4.890659,
            52.358791
          ],
          [
            4.890678,
            52.358742
          ],
          [
            4.890689,
            52.358685
          ],
          [
            4.890695,
            52.358635
          ],
          [
            4.890698,
            52.358578
          ],
          [
            4.890703,
            52.358532
          ],
          [
            4.890705,
            52.358482
          ],
          [
            4.890705,
            52.358437
          ],
          [
            4.890705,
            52.358391
          ],
          [
            4.890704,
            52.35836
          ],
          [
            4.890703,
            52.35833
          ],
          [
            4.890699,
            52.358307
          ],
          [
            4.890699,
            52.358307
          ],
          [
            4.890696,
            52.35825
          ],
          [
            4.890696,
            52.35825
          ],
          [
            4.890696,
            52.35825
          ],
          [
            4.890696,
            52.35825
          ],
          [
            4.890694,
            52.3582
          ],
          [
            4.890693,
            52.358189
          ],
          [
            4.890692,
            52.358181
          ],
          [
            4.890701,
            52.358173
          ],
          [
            4.890707,
            52.358151
          ],
          [
            4.890716,
            52.358124
          ],
          [
            4.890729,
            52.358089
          ],
          [
            4.89074,
            52.358059
          ],
          [
            4.890756,
            52.358013
          ],
          [
            4.890766,
            52.357975
          ],
          [
            4.890773,
            52.357929
          ],
          [
            4.89077,
            52.35788
          ],
          [
            4.890767,
            52.357826
          ],
          [
            4.890762,
            52.357777
          ],
          [
            4.890767,
            52.357727
          ],
          [
            4.890753,
            52.357666
          ],
          [
            4.890753,
            52.357597
          ],
          [
            4.890746,
            52.357533
          ],
          [
            4.890749,
            52.357464
          ],
          [
            4.890746,
            52.357403
          ],
          [
            4.89074,
            52.357349
          ],
          [
            4.890726,
            52.357296
          ],
          [
            4.890713,
            52.357243
          ],
          [
            4.890703,
            52.357185
          ],
          [
            4.890692,
            52.357132
          ],
          [
            4.890681,
            52.357082
          ],
          [
            4.890678,
            52.357029
          ],
          [
            4.890659,
            52.356972
          ],
          [
            4.890649,
            52.356922
          ],
          [
            4.890634,
            52.356869
          ],
          [
            4.890626,
            52.356812
          ],
          [
            4.890619,
            52.35675
          ],
          [
            4.890612,
            52.356686
          ],
          [
            4.890605,
            52.356625
          ],
          [
            4.890611,
            52.35656
          ],
          [
            4.890609,
            52.356495
          ],
          [
            4.890604,
            52.356442
          ],
          [
            4.890594,
            52.356377
          ],
          [
            4.890593,
            52.356312
          ],
          [
            4.890582,
            52.356247
          ],
          [
            4.890575,
            52.356178
          ],
          [
            4.890564,
            52.356125
          ],
          [
            4.89055,
            52.35606
          ],
          [
            4.890539,
            52.355995
          ],
          [
            4.890536,
            52.355927
          ],
          [
            4.890526,
            52.355866
          ],
          [
            4.890512,
            52.355793
          ],
          [
            4.890506,
            52.355728
          ],
          [
            4.890498,
            52.355667
          ],
          [
            4.890485,
            52.355606
          ],
          [
            4.890466,
            52.355553
          ],
          [
            4.890458,
            52.355484
          ],
          [
            4.890439,
            52.355427
          ],
          [
            4.890423,
            52.35537
          ],
          [
            4.890406,
            52.355312
          ],
          [
            4.890388,
            52.355248
          ],
          [
            4.890361,
            52.355187
          ],
          [
            4.890326,
            52.355125
          ],
          [
            4.890293,
            52.355083
          ],
          [
            4.890276,
            52.355061
          ],
          [
            4.890146,
            52.355003
          ],
          [
            4.890043,
            52.354965
          ],
          [
            4.889952,
            52.354935
          ],
          [
            4.889853,
            52.354908
          ],
          [
            4.889789,
            52.354897
          ],
          [
            4.889677,
            52.354874
          ],
          [
            4.889561,
            52.354851
          ],
          [
            4.889461,
            52.354832
          ],
          [
            4.889355,
            52.354813
          ],
          [
            4.889306,
            52.354801
          ],
          [
            4.889167,
            52.354774
          ],
          [
            4.889055,
            52.354755
          ],
          [
            4.888957,
            52.354736
          ],
          [
            4.888854,
            52.354713
          ],
          [
            4.888804,
            52.354702
          ],
          [
            4.888668,
            52.354675
          ],
          [
            4.888673,
            52.354679
          ],
          [
            4.888488,
            52.354645
          ],
          [
            4.888407,
            52.354633
          ],
          [
            4.888333,
            52.354622
          ],
          [
            4.888315,
            52.354618
          ],
          [
            4.888095,
            52.354614
          ],
          [
            4.888055,
            52.354614
          ],
          [
            4.887932,
            52.354614
          ],
          [
            4.887844,
            52.354614
          ],
          [
            4.887768,
            52.354618
          ],
          [
            4.887559,
            52.354618
          ],
          [
            4.88744,
            52.354614
          ],
          [
            4.887322,
            52.354614
          ],
          [
            4.887215,
            52.354618
          ],
          [
            4.887204,
            52.354614
          ],
          [
            4.887037,
            52.354622
          ],
          [
            4.886931,
            52.354622
          ],
          [
            4.886855,
            52.354626
          ],
          [
            4.886784,
            52.35463
          ],
          [
            4.886714,
            52.354637
          ],
          [
            4.886663,
            52.354641
          ],
          [
            4.88662,
            52.354645
          ],
          [
            4.88662,
            52.354645
          ],
          [
            4.88653,
            52.354664
          ],
          [
            4.886495,
            52.354668
          ],
          [
            4.886466,
            52.354664
          ],
          [
            4.886446,
            52.354652
          ],
          [
            4.88642,
            52.354633
          ],
          [
            4.886399,
            52.354614
          ],
          [
            4.886381,
            52.354588
          ],
          [
            4.886369,
            52.354546
          ],
          [
            4.886359,
            52.354504
          ],
          [
            4.886361,
            52.354454
          ],
          [
            4.886366,
            52.354401
          ],
          [
            4.886365,
            52.354347
          ],
          [
            4.886369,
            52.354279
          ],
          [
            4.88637,
            52.354214
          ],
          [
            4.886372,
            52.35416
          ],
          [
            4.886374,
            52.354095
          ],
          [
            4.886372,
            52.354031
          ],
          [
            4.886373,
            52.353966
          ],
          [
            4.886374,
            52.353905
          ],
          [
            4.886374,
            52.353851
          ],
          [
            4.886374,
            52.353786
          ],
          [
            4.886374,
            52.353722
          ],
          [
            4.88637,
            52.353657
          ],
          [
            4.886364,
            52.353596
          ],
          [
            4.886358,
            52.353539
          ],
          [
            4.886341,
            52.35347
          ],
          [
            4.886319,
            52.353405
          ],
          [
            4.886297,
            52.353348
          ],
          [
            4.886263,
            52.353279
          ],
          [
            4.886234,
            52.353218
          ],
          [
            4.886206,
            52.353165
          ],
          [
            4.886182,
            52.3531
          ],
          [
            4.886159,
            52.353039
          ],
          [
            4.886142,
            52.35297
          ],
          [
            4.886123,
            52.352917
          ],
          [
            4.886115,
            52.352852
          ],
          [
            4.886109,
            52.352791
          ],
          [
            4.886105,
            52.35273
          ],
          [
            4.886097,
            52.352669
          ],
          [
            4.886097,
            52.352615
          ],
          [
            4.886088,
            52.352558
          ],
          [
            4.886086,
            52.352512
          ],
          [
            4.886072,
            52.352478
          ],
          [
            4.886052,
            52.352436
          ],
          [
            4.886034,
            52.352402
          ],
          [
            4.886009,
            52.352367
          ],
          [
            4.885986,
            52.352337
          ],
          [
            4.885966,
            52.352303
          ],
          [
            4.885948,
            52.352264
          ],
          [
            4.885934,
            52.352234
          ],
          [
            4.885925,
            52.352192
          ],
          [
            4.885916,
            52.352142
          ],
          [
            4.885912,
            52.352089
          ],
          [
            4.885903,
            52.352032
          ],
          [
            4.885899,
            52.351974
          ],
          [
            4.885899,
            52.35191
          ],
          [
            4.885897,
            52.351849
          ],
          [
            4.885896,
            52.351795
          ],
          [
            4.885895,
            52.35173
          ],
          [
            4.885895,
            52.351669
          ],
          [
            4.885898,
            52.351608
          ],
          [
            4.885897,
            52.35154
          ],
          [
            4.885895,
            52.351475
          ],
          [
            4.885894,
            52.351414
          ],
          [
            4.885892,
            52.351356
          ],
          [
            4.885894,
            52.351292
          ],
          [
            4.885889,
            52.351227
          ],
          [
            4.885884,
            52.351162
          ],
          [
            4.885884,
            52.351097
          ],
          [
            4.885881,
            52.351044
          ],
          [
            4.885878,
            52.350979
          ],
          [
            4.885875,
            52.350914
          ],
          [
            4.885875,
            52.350849
          ],
          [
            4.885875,
            52.350792
          ],
          [
            4.885875,
            52.350735
          ],
          [
            4.885878,
            52.350674
          ],
          [
            4.885879,
            52.35062
          ],
          [
            4.885883,
            52.350559
          ],
          [
            4.885887,
            52.350502
          ],
          [
            4.885889,
            52.350449
          ],
          [
            4.885884,
            52.350395
          ],
          [
            4.885875,
            52.350338
          ],
          [
            4.885857,
            52.350277
          ],
          [
            4.885827,
            52.35022
          ],
          [
            4.88579,
            52.350162
          ],
          [
            4.885749,
            52.350117
          ],
          [
            4.885708,
            52.350075
          ],
          [
            4.885668,
            52.350044
          ],
          [
            4.885632,
            52.350018
          ],
          [
            4.885614,
            52.349991
          ],
          [
            4.885614,
            52.349991
          ],
          [
            4.885608,
            52.349941
          ],
          [
            4.885609,
            52.349918
          ],
          [
            4.885618,
            52.349903
          ],
          [
            4.885639,
            52.349896
          ],
          [
            4.885664,
            52.349884
          ],
          [
            4.885716,
            52.349869
          ],
          [
            4.885767,
            52.349854
          ],
          [
            4.885827,
            52.349838
          ],
          [
            4.885887,
            52.349827
          ],
          [
            4.885948,
            52.349812
          ],
          [
            4.886012,
            52.349792
          ],
          [
            4.88609,
            52.349773
          ],
          [
            4.886169,
            52.349758
          ],
          [
            4.886246,
            52.349743
          ],
          [
            4.886264,
            52.349739
          ],
          [
            4.886397,
            52.349728
          ],
          [
            4.88648,
            52.34972
          ],
          [
            4.886547,
            52.349709
          ],
          [
            4.886606,
            52.349697
          ],
          [
            4.886652,
            52.349678
          ],
          [
            4.886683,
            52.349644
          ],
          [
            4.886706,
            52.349613
          ],
          [
            4.886717,
            52.349571
          ],
          [
            4.886719,
            52.349514
          ],
          [
            4.886718,
            52.349457
          ],
          [
            4.886714,
            52.3494
          ],
          [
            4.886708,
            52.349319
          ],
          [
            4.886698,
            52.349239
          ],
          [
            4.886691,
            52.349148
          ],
          [
            4.886687,
            52.349064
          ],
          [
            4.886689,
            52.349018
          ],
          [
            4.8867,
            52.348968
          ],
          [
            4.886739,
            52.348888
          ],
          [
            4.886778,
            52.348827
          ],
          [
            4.88681,
            52.348797
          ],
          [
            4.886854,
            52.348759
          ],
          [
            4.886876,
            52.34874
          ],
          [
            4.886914,
            52.348721
          ],
          [
            4.886949,
            52.348702
          ],
          [
            4.886979,
            52.34869
          ],
          [
            4.887012,
            52.348679
          ],
          [
            4.887046,
            52.348671
          ],
          [
            4.887077,
            52.348663
          ],
          [
            4.887103,
            52.34866
          ],
          [
            4.887132,
            52.348656
          ],
          [
            4.887148,
            52.348648
          ],
          [
            4.887148,
            52.348648
          ],
          [
            4.887184,
            52.348652
          ],
          [
            4.887173,
            52.348652
          ],
          [
            4.887159,
            52.348656
          ],
          [
            4.887136,
            52.34866
          ],
          [
            4.887109,
            52.348663
          ],
          [
            4.887083,
            52.348667
          ],
          [
            4.887057,
            52.348671
          ],
          [
            4.887032,
            52.348675
          ],
          [
            4.887006,
            52.348682
          ],
          [
            4.88698,
            52.34869
          ],
          [
            4.886947,
            52.348705
          ],
          [
            4.886917,
            52.348721
          ],
          [
            4.886896,
            52.348732
          ],
          [
            4.886865,
            52.348751
          ],
          [
            4.886865,
            52.348751
          ],
          [
            4.886794,
            52.348774
          ],
          [
            4.886794,
            52.348774
          ],
          [
            4.88678,
            52.348755
          ],
          [
            4.88678,
            52.348755
          ],
          [
            4.886791,
            52.348743
          ],
          [
            4.886791,
            52.348743
          ],
          [
            4.886791,
            52.348743
          ],
          [
            4.886791,
            52.348743
          ],
          [
            4.886791,
            52.348743
          ],
          [
            4.886833,
            52.348724
          ],
          [
            4.886848,
            52.348721
          ],
          [
            4.886863,
            52.348717
          ],
          [
            4.886883,
            52.348709
          ],
          [
            4.886925,
            52.348702
          ],
          [
            4.886975,
            52.34869
          ],
          [
            4.887039,
            52.348679
          ],
          [
            4.887104,
            52.348663
          ],
          [
            4.887136,
            52.348656
          ],
          [
            4.887246,
            52.348644
          ],
          [
            4.887328,
            52.34864
          ],
          [
            4.887415,
            52.348633
          ],
          [
            4.887503,
            52.348629
          ],
          [
            4.887553,
            52.348629
          ],
          [
            4.887677,
            52.348625
          ],
          [
            4.887782,
            52.348621
          ],
          [
            4.887877,
            52.348618
          ],
          [
            4.887967,
            52.348614
          ],
          [
            4.888038,
            52.34861
          ],
          [
            4.888159,
            52.348602
          ],
          [
            4.888255,
            52.348598
          ],
          [
            4.888349,
            52.348595
          ],
          [
            4.888432,
            52.348587
          ],
          [
            4.888533,
            52.348583
          ],
          [
            4.888641,
            52.348576
          ],
          [
            4.888751,
            52.348568
          ],
          [
            4.888827,
            52.348564
          ],
          [
            4.888918,
            52.348556
          ],
          [
            4.889052,
            52.348549
          ],
          [
            4.889142,
            52.348545
          ],
          [
            4.889218,
            52.348541
          ],
          [
            4.889292,
            52.348537
          ],
          [
            4.889456,
            52.348534
          ],
          [
            4.889555,
            52.34853
          ],
          [
            4.889668,
            52.348526
          ],
          [
            4.889754,
            52.348522
          ],
          [
            4.88985,
            52.348511
          ],
          [
            4.889983,
            52.348503
          ],
          [
            4.890095,
            52.348495
          ],
          [
            4.890201,
            52.348492
          ],
          [
            4.890291,
            52.34848
          ],
          [
            4.890319,
            52.34848
          ],
          [
            4.890483,
            52.348476
          ],
          [
            4.890582,
            52.348473
          ],
          [
            4.890676,
            52.348469
          ],
          [
            4.890759,
            52.348465
          ],
          [
            4.890829,
            52.348461
          ],
          [
            4.890894,
            52.348457
          ],
          [
            4.890959,
            52.348453
          ],
          [
            4.891016,
            52.34845
          ],
          [
            4.891051,
            52.34845
          ],
          [
            4.891051,
            52.34845
          ],
          [
            4.891051,
            52.34845
          ],
          [
            4.891051,
            52.34845
          ],
          [
            4.891051,
            52.34845
          ],
          [
            4.891113,
            52.348469
          ],
          [
            4.891118,
            52.348461
          ],
          [
            4.891115,
            52.348453
          ],
          [
            4.891114,
            52.348434
          ],
          [
            4.891115,
            52.348415
          ],
          [
            4.89111,
            52.348385
          ],
          [
            4.891105,
            52.348354
          ],
          [
            4.891101,
            52.348328
          ],
          [
            4.891095,
            52.348289
          ],
          [
            4.891091,
            52.348259
          ],
          [
            4.89109,
            52.348236
          ],
          [
            4.891085,
            52.348202
          ],
          [
            4.891081,
            52.348167
          ],
          [
            4.891081,
            52.348167
          ],
          [
            4.891073,
            52.348114
          ],
          [
            4.891073,
            52.348114
          ],
          [
            4.891073,
            52.348114
          ],
          [
            4.891073,
            52.348114
          ],
          [
            4.891112,
            52.348034
          ],
          [
            4.891109,
            52.34803
          ],
          [
            4.891108,
            52.348022
          ],
          [
            4.891108,
            52.348011
          ],
          [
            4.891105,
            52.347992
          ],
          [
            4.891098,
            52.347965
          ],
          [
            4.891096,
            52.347927
          ],
          [
            4.891087,
            52.347885
          ],
          [
            4.891083,
            52.347836
          ],
          [
            4.891072,
            52.347786
          ],
          [
            4.891067,
            52.34774
          ],
          [
            4.891057,
            52.347694
          ],
          [
            4.891056,
            52.347652
          ],
          [
            4.891049,
            52.347603
          ],
          [
            4.891049,
            52.347557
          ],
          [
            4.891048,
            52.347511
          ],
          [
            4.891047,
            52.347469
          ],
          [
            4.891042,
            52.347416
          ],
          [
            4.891039,
            52.34737
          ],
          [
            4.891029,
            52.347321
          ],
          [
            4.891017,
            52.347275
          ],
          [
            4.891006,
            52.347244
          ],
          [
            4.891006,
            52.347244
          ],
          [
            4.891006,
            52.347244
          ],
          [
            4.891006,
            52.347244
          ],
          [
            4.891006,
            52.347244
          ],
          [
            4.891006,
            52.347244
          ],
          [
            4.890954,
            52.347195
          ],
          [
            4.890954,
            52.347195
          ],
          [
            4.890955,
            52.347179
          ],
          [
            4.890955,
            52.347179
          ],
          [
            4.890957,
            52.34716
          ],
          [
            4.890958,
            52.347145
          ],
          [
            4.890959,
            52.347141
          ],
          [
            4.890959,
            52.347126
          ],
          [
            4.890958,
            52.347107
          ],
          [
            4.890958,
            52.347092
          ],
          [
            4.890953,
            52.347076
          ],
          [
            4.890942,
            52.347061
          ],
          [
            4.890928,
            52.34705
          ],
          [
            4.890915,
            52.34705
          ],
          [
            4.89091,
            52.347054
          ],
          [
            4.890908,
            52.347069
          ],
          [
            4.890914,
            52.347095
          ],
          [
            4.890919,
            52.347115
          ],
          [
            4.890927,
            52.347141
          ],
          [
            4.890931,
            52.347168
          ],
          [
            4.890928,
            52.347198
          ],
          [
            4.890917,
            52.347233
          ],
          [
            4.890897,
            52.347267
          ],
          [
            4.890874,
            52.347294
          ],
          [
            4.890838,
            52.347317
          ],
          [
            4.890791,
            52.347336
          ],
          [
            4.890725,
            52.347355
          ],
          [
            4.89071,
            52.347359
          ],
          [
            4.890597,
            52.347374
          ],
          [
            4.890514,
            52.347385
          ],
          [
            4.890469,
            52.347389
          ],
          [
            4.890353,
            52.347401
          ],
          [
            4.890256,
            52.347412
          ],
          [
            4.890207,
            52.347416
          ],
          [
            4.890134,
            52.347424
          ],
          [
            4.889983,
            52.347427
          ],
          [
            4.889891,
            52.347435
          ],
          [
            4.889772,
            52.347439
          ],
          [
            4.889657,
            52.347446
          ],
          [
            4.889548,
            52.34745
          ],
          [
            4.889519,
            52.34745
          ],
          [
            4.889366,
            52.347454
          ],
          [
            4.889245,
            52.347458
          ],
          [
            4.889134,
            52.347462
          ],
          [
            4.889031,
            52.347466
          ],
          [
            4.888995,
            52.347469
          ],
          [
            4.888854,
            52.347477
          ],
          [
            4.88874,
            52.347485
          ],
          [
            4.888636,
            52.347492
          ],
          [
            4.888534,
            52.3475
          ],
          [
            4.888482,
            52.3475
          ],
          [
            4.888434,
            52.347504
          ],
          [
            4.888266,
            52.347508
          ],
          [
            4.888139,
            52.347508
          ],
          [
            4.888066,
            52.347508
          ],
          [
            4.887937,
            52.347515
          ],
          [
            4.887834,
            52.347523
          ],
          [
            4.88773,
            52.34753
          ],
          [
            4.887653,
            52.347534
          ],
          [
            4.887561,
            52.347538
          ],
          [
            4.887435,
            52.347542
          ],
          [
            4.887328,
            52.347542
          ],
          [
            4.887229,
            52.347542
          ],
          [
            4.887138,
            52.347542
          ],
          [
            4.887064,
            52.347538
          ],
          [
            4.886946,
            52.34753
          ],
          [
            4.886843,
            52.347523
          ],
          [
            4.886745,
            52.347515
          ],
          [
            4.88666,
            52.347508
          ],
          [
            4.886556,
            52.3475
          ],
          [
            4.886462,
            52.347492
          ],
          [
            4.886449,
            52.347488
          ],
          [
            4.886297,
            52.347488
          ],
          [
            4.886187,
            52.347488
          ],
          [
            4.886089,
            52.347488
          ],
          [
            4.885993,
            52.347488
          ],
          [
            4.885962,
            52.347488
          ],
          [
            4.885854,
            52.347492
          ],
          [
            4.885716,
            52.3475
          ],
          [
            4.885601,
            52.347504
          ],
          [
            4.885502,
            52.347508
          ],
          [
            4.885439,
            52.347511
          ],
          [
            4.885258,
            52.34753
          ],
          [
            4.885129,
            52.347546
          ],
          [
            4.885013,
            52.347569
          ],
          [
            4.88491,
            52.347595
          ],
          [
            4.884817,
            52.347626
          ],
          [
            4.884735,
            52.34766
          ],
          [
            4.884649,
            52.347706
          ],
          [
            4.884566,
            52.347755
          ],
          [
            4.884485,
            52.347809
          ],
          [
            4.884407,
            52.347862
          ],
          [
            4.884314,
            52.347931
          ],
          [
            4.884228,
            52.347992
          ],
          [
            4.884183,
            52.348026
          ],
          [
            4.884123,
            52.348068
          ],
          [
            4.884041,
            52.348129
          ],
          [
            4.883987,
            52.348167
          ],
          [
            4.88394,
            52.348202
          ],
          [
            4.883877,
            52.348251
          ],
          [
            4.883793,
            52.348312
          ],
          [
            4.883706,
            52.348377
          ],
          [
            4.883623,
            52.348438
          ],
          [
            4.88355,
            52.348499
          ],
          [
            4.883491,
            52.348541
          ],
          [
            4.883443,
            52.348583
          ],
          [
            4.88341,
            52.348637
          ],
          [
            4.883388,
            52.348675
          ],
          [
            4.883379,
            52.348717
          ],
          [
            4.883369,
            52.348747
          ],
          [
            4.883357,
            52.348793
          ],
          [
            4.883343,
            52.348831
          ],
          [
            4.883307,
            52.348877
          ],
          [
            4.883256,
            52.348927
          ],
          [
            4.883205,
            52.348972
          ],
          [
            4.883167,
            52.348999
          ],
          [
            4.883115,
            52.349037
          ],
          [
            4.883057,
            52.349083
          ],
          [
            4.88299,
            52.349133
          ],
          [
            4.882951,
            52.349167
          ],
          [
            4.882877,
            52.34922
          ],
          [
            4.882801,
            52.349281
          ],
          [
            4.88274,
            52.349331
          ],
          [
            4.882684,
            52.349373
          ],
          [
            4.882632,
            52.349415
          ],
          [
            4.882573,
            52.349461
          ],
          [
            4.882511,
            52.34951
          ],
          [
            4.882447,
            52.34956
          ],
          [
            4.882387,
            52.349606
          ],
          [
            4.882329,
            52.349647
          ],
          [
            4.882263,
            52.349697
          ],
          [
            4.882198,
            52.349751
          ],
          [
            4.88213,
            52.349796
          ],
          [
            4.882069,
            52.349846
          ],
          [
            4.882013,
            52.349884
          ],
          [
            4.881953,
            52.349934
          ],
          [
            4.881876,
            52.349987
          ],
          [
            4.88181,
            52.350037
          ],
          [
            4.881741,
            52.350086
          ],
          [
            4.881669,
            52.350128
          ],
          [
            4.881601,
            52.35017
          ],
          [
            4.881546,
            52.350197
          ],
          [
            4.881436,
            52.350235
          ],
          [
            4.881332,
            52.350269
          ],
          [
            4.88124,
            52.350292
          ],
          [
            4.881148,
            52.350315
          ],
          [
            4.881041,
            52.350338
          ],
          [
            4.880941,
            52.350357
          ],
          [
            4.880844,
            52.350372
          ],
          [
            4.880755,
            52.350388
          ],
          [
            4.880699,
            52.350399
          ],
          [
            4.880572,
            52.350422
          ],
          [
            4.880467,
            52.350441
          ],
          [
            4.880364,
            52.35046
          ],
          [
            4.880272,
            52.350479
          ],
          [
            4.880177,
            52.350502
          ],
          [
            4.880129,
            52.35051
          ],
          [
            4.879997,
            52.350533
          ],
          [
            4.879885,
            52.350552
          ],
          [
            4.879788,
            52.350567
          ],
          [
            4.879763,
            52.350575
          ],
          [
            4.87961,
            52.350597
          ],
          [
            4.879477,
            52.35062
          ],
          [
            4.879351,
            52.350643
          ],
          [
            4.87926,
            52.350655
          ],
          [
            4.879156,
            52.350674
          ],
          [
            4.87907,
            52.350689
          ],
          [
            4.878993,
            52.3507
          ],
          [
            4.87892,
            52.350712
          ],
          [
            4.878853,
            52.350723
          ],
          [
            4.878753,
            52.350742
          ],
          [
            4.878671,
            52.350758
          ],
          [
            4.878587,
            52.350777
          ],
          [
            4.878503,
            52.350792
          ],
          [
            4.87842,
            52.350807
          ],
          [
            4.87833,
            52.350822
          ],
          [
            4.878285,
            52.350834
          ],
          [
            4.87819,
            52.350849
          ],
          [
            4.87805,
            52.350872
          ],
          [
            4.877934,
            52.350891
          ],
          [
            4.877833,
            52.35091
          ],
          [
            4.877723,
            52.350933
          ],
          [
            4.877676,
            52.350941
          ],
          [
            4.877518,
            52.350964
          ],
          [
            4.877387,
            52.350975
          ],
          [
            4.877282,
            52.350983
          ],
          [
            4.877176,
            52.350986
          ],
          [
            4.877156,
            52.350986
          ],
          [
            4.877025,
            52.350986
          ],
          [
            4.876967,
            52.350983
          ],
          [
            4.876856,
            52.350983
          ],
          [
            4.876703,
            52.350979
          ],
          [
            4.876639,
            52.350975
          ],
          [
            4.876463,
            52.350971
          ],
          [
            4.876354,
            52.350964
          ],
          [
            4.87624,
            52.35096
          ],
          [
            4.876122,
            52.350956
          ],
          [
            4.876053,
            52.350956
          ],
          [
            4.875959,
            52.350952
          ],
          [
            4.875906,
            52.350952
          ],
          [
            4.875796,
            52.350948
          ],
          [
            4.875703,
            52.350941
          ],
          [
            4.875641,
            52.350941
          ],
          [
            4.875501,
            52.350937
          ],
          [
            4.875454,
            52.350937
          ],
          [
            4.875285,
            52.350929
          ],
          [
            4.875166,
            52.350925
          ],
          [
            4.875071,
            52.350914
          ],
          [
            4.87498,
            52.350918
          ],
          [
            4.874869,
            52.35091
          ],
          [
            4.874778,
            52.350903
          ],
          [
            4.874715,
            52.350899
          ],
          [
            4.87464,
            52.350899
          ],
          [
            4.874476,
            52.350895
          ],
          [
            4.874423,
            52.350895
          ],
          [
            4.874341,
            52.350891
          ],
          [
            4.87426,
            52.350887
          ],
          [
            4.874172,
            52.350883
          ],
          [
            4.874154,
            52.350887
          ],
          [
            4.873951,
            52.35088
          ],
          [
            4.873814,
            52.350872
          ],
          [
            4.873671,
            52.350864
          ],
          [
            4.873576,
            52.350861
          ],
          [
            4.873409,
            52.350853
          ],
          [
            4.873322,
            52.350853
          ],
          [
            4.873239,
            52.350849
          ],
          [
            4.873058,
            52.350841
          ],
          [
            4.872933,
            52.350838
          ],
          [
            4.872907,
            52.350838
          ],
          [
            4.872816,
            52.350838
          ],
          [
            4.872727,
            52.350834
          ],
          [
            4.872577,
            52.350826
          ],
          [
            4.872491,
            52.350826
          ],
          [
            4.872458,
            52.350826
          ],
          [
            4.872387,
            52.350822
          ],
          [
            4.872199,
            52.350815
          ],
          [
            4.872053,
            52.350807
          ],
          [
            4.871953,
            52.350803
          ],
          [
            4.871924,
            52.3508
          ],
          [
            4.871765,
            52.350796
          ],
          [
            4.871648,
            52.350792
          ],
          [
            4.871536,
            52.350788
          ],
          [
            4.871485,
            52.350784
          ],
          [
            4.871424,
            52.35078
          ],
          [
            4.871301,
            52.35078
          ],
          [
            4.871177,
            52.350777
          ],
          [
            4.87105,
            52.350773
          ],
          [
            4.870965,
            52.350769
          ],
          [
            4.870899,
            52.350769
          ],
          [
            4.870728,
            52.350758
          ],
          [
            4.870699,
            52.350758
          ],
          [
            4.870592,
            52.350754
          ],
          [
            4.870507,
            52.35075
          ],
          [
            4.870394,
            52.350742
          ],
          [
            4.870277,
            52.350739
          ],
          [
            4.870168,
            52.350735
          ],
          [
            4.87005,
            52.350735
          ],
          [
            4.870012,
            52.350731
          ],
          [
            4.869924,
            52.350727
          ],
          [
            4.869814,
            52.350727
          ],
          [
            4.86976,
            52.350723
          ],
          [
            4.869673,
            52.350719
          ],
          [
            4.869475,
            52.350712
          ],
          [
            4.869343,
            52.350708
          ],
          [
            4.869251,
            52.350704
          ],
          [
            4.869143,
            52.3507
          ],
          [
            4.86905,
            52.350697
          ],
          [
            4.868954,
            52.350693
          ],
          [
            4.86889,
            52.350689
          ],
          [
            4.868773,
            52.350685
          ],
          [
            4.868644,
            52.350681
          ],
          [
            4.868552,
            52.350677
          ],
          [
            4.868449,
            52.350677
          ],
          [
            4.868335,
            52.35067
          ],
          [
            4.868285,
            52.35067
          ],
          [
            4.868144,
            52.350666
          ],
          [
            4.868055,
            52.350662
          ],
          [
            4.867969,
            52.350658
          ],
          [
            4.867833,
            52.350651
          ],
          [
            4.86779,
            52.350651
          ],
          [
            4.867679,
            52.350643
          ],
          [
            4.867572,
            52.350639
          ],
          [
            4.867505,
            52.350636
          ],
          [
            4.867383,
            52.350632
          ],
          [
            4.867301,
            52.350632
          ],
          [
            4.867159,
            52.350624
          ],
          [
            4.867021,
            52.35062
          ],
          [
            4.866902,
            52.350613
          ],
          [
            4.866807,
            52.350609
          ],
          [
            4.866765,
            52.350609
          ],
          [
            4.866595,
            52.350597
          ],
          [
            4.866457,
            52.350586
          ],
          [
            4.866356,
            52.350578
          ],
          [
            4.866267,
            52.350571
          ],
          [
            4.866161,
            52.350563
          ],
          [
            4.866086,
            52.350555
          ],
          [
            4.866001,
            52.350548
          ],
          [
            4.86593,
            52.350544
          ],
          [
            4.865793,
            52.350533
          ],
          [
            4.865669,
            52.350517
          ],
          [
            4.865574,
            52.350502
          ],
          [
            4.865473,
            52.350479
          ],
          [
            4.865424,
            52.350464
          ],
          [
            4.865303,
            52.350422
          ],
          [
            4.865195,
            52.35038
          ],
          [
            4.865131,
            52.350349
          ],
          [
            4.865057,
            52.350315
          ],
          [
            4.864965,
            52.350269
          ],
          [
            4.864846,
            52.350208
          ],
          [
            4.86477,
            52.35017
          ],
          [
            4.86472,
            52.350143
          ],
          [
            4.864596,
            52.350075
          ],
          [
            4.864499,
            52.350021
          ],
          [
            4.864411,
            52.349976
          ],
          [
            4.864365,
            52.349949
          ],
          [
            4.864294,
            52.349911
          ],
          [
            4.86421,
            52.349861
          ],
          [
            4.864118,
            52.349812
          ],
          [
            4.864031,
            52.349766
          ],
          [
            4.863946,
            52.349716
          ],
          [
            4.863892,
            52.349689
          ],
          [
            4.863782,
            52.349628
          ],
          [
            4.863698,
            52.349583
          ],
          [
            4.863621,
            52.349525
          ],
          [
            4.86354,
            52.349483
          ],
          [
            4.863473,
            52.349434
          ],
          [
            4.863398,
            52.349388
          ],
          [
            4.863327,
            52.349339
          ],
          [
            4.863255,
            52.349293
          ],
          [
            4.863192,
            52.349251
          ],
          [
            4.863121,
            52.349201
          ],
          [
            4.86305,
            52.349155
          ],
          [
            4.862984,
            52.349106
          ],
          [
            4.862926,
            52.34906
          ],
          [
            4.862874,
            52.349014
          ],
          [
            4.862821,
            52.348961
          ],
          [
            4.862767,
            52.348907
          ],
          [
            4.862715,
            52.348858
          ],
          [
            4.862657,
            52.348801
          ],
          [
            4.862601,
            52.348743
          ],
          [
            4.862545,
            52.348694
          ],
          [
            4.862489,
            52.34864
          ],
          [
            4.862435,
            52.348587
          ],
          [
            4.862387,
            52.348541
          ],
          [
            4.86233,
            52.348488
          ],
          [
            4.862275,
            52.348434
          ],
          [
            4.862213,
            52.348381
          ],
          [
            4.862149,
            52.348328
          ],
          [
            4.862094,
            52.348282
          ],
          [
            4.862034,
            52.348232
          ],
          [
            4.861976,
            52.348183
          ],
          [
            4.861926,
            52.348137
          ],
          [
            4.861879,
            52.348099
          ],
          [
            4.861836,
            52.348068
          ],
          [
            4.861783,
            52.348038
          ],
          [
            4.861746,
            52.348022
          ],
          [
            4.861713,
            52.348019
          ],
          [
            4.861702,
            52.348019
          ],
          [
            4.861702,
            52.348019
          ],
          [
            4.861702,
            52.348019
          ],
          [
            4.861702,
            52.348019
          ],
          [
            4.861702,
            52.348019
          ]
        ]
      }
    }
  ]
}