{
  "type": "FeatureCollection",
  "features": [
    {
      "type": "Feature",
      "properties": {
        "id": "amsterdam-to-badhoevedorp-ride-fc028e00-8162-11f1-8ad1-a40dbc8fa83a",
        "title": "Amsterdam to Badhoevedorp ride",
        "source": "Amsterdam to Badhoevedorp ride-fc028e00-8162-11f1-8ad1-a40dbc8fa83a.fit"
      },
      "geometry": {
        "type": "LineString",
        "coordinates": [
          [
            4.866301,
            52.360504
          ],
          [
            4.866296,
            52.360504
          ],
          [
            4.866294,
            52.360504
          ],
          [
            4.866273,
            52.360504
          ],
          [
            4.866242,
            52.360504
          ],
          [
            4.866191,
            52.360504
          ],
          [
            4.866134,
            52.360508
          ],
          [
            4.866134,
            52.360508
          ],
          [
            4.866134,
            52.360508
          ],
          [
            4.866119,
            52.360497
          ],
          [
            4.866119,
            52.360497
          ],
          [
            4.866101,
            52.360477
          ],
          [
            4.866087,
            52.36047
          ],
          [
            4.86607,
            52.360466
          ],
          [
            4.866043,
            52.360458
          ],
          [
            4.866,
            52.360451
          ],
          [
            4.865987,
            52.360447
          ],
          [
            4.865904,
            52.360436
          ],
          [
            4.865841,
            52.360428
          ],
          [
            4.865794,
            52.360424
          ],
          [
            4.865759,
            52.36042
          ],
          [
            4.865759,
            52.36042
          ],
          [
            4.865663,
            52.360424
          ],
          [
            4.865636,
            52.360424
          ],
          [
            4.865617,
            52.36042
          ],
          [
            4.865593,
            52.36042
          ],
          [
            4.865561,
            52.360413
          ],
          [
            4.865518,
            52.360401
          ],
          [
            4.86546,
            52.360386
          ],
          [
            4.865406,
            52.360371
          ],
          [
            4.865341,
            52.360352
          ],
          [
            4.865262,
            52.360336
          ],
          [
            4.865225,
            52.360325
          ],
          [
            4.865108,
            52.360298
          ],
          [
            4.865031,
            52.360279
          ],
          [
            4.864918,
            52.360249
          ],
          [
            4.864826,
            52.360226
          ],
          [
            4.864728,
            52.360203
          ],
          [
            4.864632,
            52.360184
          ],
          [
            4.864535,
            52.360165
          ],
          [
            4.864439,
            52.360142
          ],
          [
            4.864352,
            52.360123
          ],
          [
            4.864255,
            52.3601
          ],
          [
            4.864157,
            52.360081
          ],
          [
            4.864061,
            52.360062
          ],
          [
            4.863964,
            52.360039
          ],
          [
            4.863876,
            52.36002
          ],
          [
            4.863783,
            52.359997
          ],
          [
            4.863688,
            52.359978
          ],
          [
            4.863622,
            52.359962
          ],
          [
            4.863507,
            52.359936
          ],
          [
            4.863409,
            52.359909
          ],
          [
            4.863324,
            52.35989
          ],
          [
            4.863233,
            52.359863
          ],
          [
            4.8632,
            52.359859
          ],
          [
            4.863062,
            52.359825
          ],
          [
            4.862955,
            52.359798
          ],
          [
            4.862863,
            52.359779
          ],
          [
            4.862763,
            52.359756
          ],
          [
            4.862674,
            52.359737
          ],
          [
            4.862566,
            52.359711
          ],
          [
            4.86247,
            52.359688
          ],
          [
            4.862381,
            52.359665
          ],
          [
            4.862284,
            52.359642
          ],
          [
            4.862196,
            52.359623
          ],
          [
            4.86209,
            52.359596
          ],
          [
            4.861994,
            52.359573
          ],
          [
            4.861908,
            52.35955
          ],
          [
            4.861813,
            52.359524
          ],
          [
            4.861719,
            52.359497
          ],
          [
            4.86162,
            52.35947
          ],
          [
            4.861526,
            52.359447
          ],
          [
            4.861434,
            52.359425
          ],
          [
            4.861348,
            52.359402
          ],
          [
            4.861264,
            52.359383
          ],
          [
            4.861158,
            52.359356
          ],
          [
            4.861062,
            52.359333
          ],
          [
            4.860971,
            52.35931
          ],
          [
            4.860885,
            52.359287
          ],
          [
            4.860791,
            52.359264
          ],
          [
            4.860698,
            52.359238
          ],
          [
            4.860614,
            52.359219
          ],
          [
            4.860529,
            52.359196
          ],
          [
            4.860451,
            52.359177
          ],
          [
            4.860389,
            52.359161
          ],
          [
            4.860318,
            52.359146
          ],
          [
            4.860249,
            52.359127
          ],
          [
            4.860174,
            52.359108
          ],
          [
            4.860104,
            52.359089
          ],
          [
            4.860039,
            52.35907
          ],
          [
            4.859963,
            52.359047
          ],
          [
            4.859886,
            52.359024
          ],
          [
            4.859803,
            52.359001
          ],
          [
            4.859729,
            52.358982
          ],
          [
            4.859629,
            52.358955
          ],
          [
            4.859542,
            52.358932
          ],
          [
            4.859447,
            52.358906
          ],
          [
            4.859354,
            52.358879
          ],
          [
            4.859276,
            52.35886
          ],
          [
            4.859172,
            52.358833
          ],
          [
            4.859084,
            52.35881
          ],
          [
            4.858987,
            52.358784
          ],
          [
            4.858893,
            52.358761
          ],
          [
            4.858817,
            52.358742
          ],
          [
            4.85871,
            52.358711
          ],
          [
            4.858621,
            52.358685
          ],
          [
            4.858525,
            52.358662
          ],
          [
            4.85843,
            52.358635
          ],
          [
            4.858347,
            52.358612
          ],
          [
            4.858244,
            52.358582
          ],
          [
            4.858157,
            52.358559
          ],
          [
            4.858062,
            52.358532
          ],
          [
            4.857966,
            52.358509
          ],
          [
            4.857871,
            52.358486
          ],
          [
            4.857775,
            52.358463
          ],
          [
            4.857689,
            52.35844
          ],
          [
            4.857595,
            52.358417
          ],
          [
            4.8575,
            52.358395
          ],
          [
            4.857418,
            52.358372
          ],
          [
            4.857313,
            52.358345
          ],
          [
            4.857224,
            52.358322
          ],
          [
            4.857128,
            52.358299
          ],
          [
            4.857032,
            52.358276
          ],
          [
            4.85694,
            52.35825
          ],
          [
            4.856843,
            52.358227
          ],
          [
            4.856753,
            52.358204
          ],
          [
            4.85667,
            52.358181
          ],
          [
            4.856576,
            52.358158
          ],
          [
            4.85649,
            52.358135
          ],
          [
            4.856388,
            52.358109
          ],
          [
            4.856293,
            52.358082
          ],
          [
            4.856201,
            52.358059
          ],
          [
            4.856111,
            52.358036
          ],
          [
            4.856028,
            52.358017
          ],
          [
            4.85593,
            52.35799
          ],
          [
            4.855892,
            52.357983
          ],
          [
            4.855766,
            52.357956
          ],
          [
            4.855669,
            52.357933
          ],
          [
            4.855587,
            52.357918
          ],
          [
            4.855509,
            52.357902
          ],
          [
            4.855441,
            52.357887
          ],
          [
            4.855381,
            52.357876
          ],
          [
            4.855381,
            52.357876
          ],
          [
            4.855381,
            52.357876
          ],
          [
            4.85524,
            52.357834
          ],
          [
            4.85523,
            52.35783
          ],
          [
            4.855224,
            52.357826
          ],
          [
            4.855212,
            52.357819
          ],
          [
            4.855196,
            52.357807
          ],
          [
            4.855176,
            52.357792
          ],
          [
            4.855151,
            52.357769
          ],
          [
            4.855119,
            52.357738
          ],
          [
            4.855092,
            52.357712
          ],
          [
            4.855061,
            52.357677
          ],
          [
            4.855022,
            52.357632
          ],
          [
            4.854984,
            52.357582
          ],
          [
            4.854944,
            52.357529
          ],
          [
            4.854904,
            52.357479
          ],
          [
            4.854856,
            52.357422
          ],
          [
            4.854811,
            52.357368
          ],
          [
            4.854757,
            52.357304
          ],
          [
            4.85471,
            52.357243
          ],
          [
            4.85467,
            52.357193
          ],
          [
            4.854631,
            52.357132
          ],
          [
            4.854599,
            52.357079
          ],
          [
            4.85457,
            52.357014
          ],
          [
            4.854547,
            52.356937
          ],
          [
            4.854536,
            52.356873
          ],
          [
            4.85453,
            52.356808
          ],
          [
            4.85453,
            52.356747
          ],
          [
            4.854543,
            52.35667
          ],
          [
            4.854563,
            52.356602
          ],
          [
            4.854585,
            52.356533
          ],
          [
            4.854614,
            52.356457
          ],
          [
            4.854641,
            52.356396
          ],
          [
            4.854664,
            52.356331
          ],
          [
            4.854705,
            52.356243
          ],
          [
            4.854742,
            52.356159
          ],
          [
            4.854774,
            52.356083
          ],
          [
            4.854808,
            52.356022
          ],
          [
            4.854841,
            52.355949
          ],
          [
            4.854872,
            52.355877
          ],
          [
            4.85491,
            52.355801
          ],
          [
            4.854939,
            52.355713
          ],
          [
            4.854969,
            52.355652
          ],
          [
            4.855,
            52.355591
          ],
          [
            4.855028,
            52.355526
          ],
          [
            4.855044,
            52.355465
          ],
          [
            4.855072,
            52.355404
          ],
          [
            4.855097,
            52.355347
          ],
          [
            4.855125,
            52.355282
          ],
          [
            4.855146,
            52.355236
          ],
          [
            4.85517,
            52.35519
          ],
          [
            4.855192,
            52.355141
          ],
          [
            4.855213,
            52.355099
          ],
          [
            4.855233,
            52.355045
          ],
          [
            4.855244,
            52.355
          ],
          [
            4.855263,
            52.354954
          ],
          [
            4.855263,
            52.354904
          ],
          [
            4.855248,
            52.35487
          ],
          [
            4.855202,
            52.354832
          ],
          [
            4.855202,
            52.354824
          ],
          [
            4.855064,
            52.35479
          ],
          [
            4.85505,
            52.354786
          ],
          [
            4.855021,
            52.354778
          ],
          [
            4.854964,
            52.354774
          ],
          [
            4.854959,
            52.354774
          ],
          [
            4.854856,
            52.354767
          ],
          [
            4.854812,
            52.354763
          ],
          [
            4.854721,
            52.354759
          ],
          [
            4.854642,
            52.354752
          ],
          [
            4.854567,
            52.354748
          ],
          [
            4.854488,
            52.354748
          ],
          [
            4.854416,
            52.354752
          ],
          [
            4.854411,
            52.354748
          ],
          [
            4.8543,
            52.354755
          ],
          [
            4.854211,
            52.354763
          ],
          [
            4.854171,
            52.354767
          ],
          [
            4.853636,
            52.354813
          ],
          [
            4.8535,
            52.354824
          ],
          [
            4.853405,
            52.354832
          ],
          [
            4.853321,
            52.354839
          ],
          [
            4.853234,
            52.354843
          ],
          [
            4.853151,
            52.354847
          ],
          [
            4.853113,
            52.354847
          ],
          [
            4.85295,
            52.354855
          ],
          [
            4.85285,
            52.354858
          ],
          [
            4.852735,
            52.354862
          ],
          [
            4.852629,
            52.354866
          ],
          [
            4.852531,
            52.35487
          ],
          [
            4.852444,
            52.354874
          ],
          [
            4.852357,
            52.354881
          ],
          [
            4.852274,
            52.354885
          ],
          [
            4.852181,
            52.354889
          ],
          [
            4.852089,
            52.354893
          ],
          [
            4.851993,
            52.354897
          ],
          [
            4.85193,
            52.3549
          ],
          [
            4.851808,
            52.354916
          ],
          [
            4.851713,
            52.354931
          ],
          [
            4.851626,
            52.354946
          ],
          [
            4.851527,
            52.354965
          ],
          [
            4.851476,
            52.354973
          ],
          [
            4.851335,
            52.354984
          ],
          [
            4.851232,
            52.354988
          ],
          [
            4.851128,
            52.354988
          ],
          [
            4.851025,
            52.354988
          ],
          [
            4.850969,
            52.354988
          ],
          [
            4.850828,
            52.354988
          ],
          [
            4.850726,
            52.354988
          ],
          [
            4.850621,
            52.354988
          ],
          [
            4.850517,
            52.354988
          ],
          [
            4.850448,
            52.354988
          ],
          [
            4.85032,
            52.354992
          ],
          [
            4.850215,
            52.354992
          ],
          [
            4.850121,
            52.354988
          ],
          [
            4.850019,
            52.354988
          ],
          [
            4.849967,
            52.354988
          ],
          [
            4.849822,
            52.354984
          ],
          [
            4.849713,
            52.354984
          ],
          [
            4.849613,
            52.354984
          ],
          [
            4.84952,
            52.354984
          ],
          [
            4.849449,
            52.354988
          ],
          [
            4.849395,
            52.354988
          ],
          [
            4.849318,
            52.354992
          ],
          [
            4.849228,
            52.354996
          ],
          [
            4.849137,
            52.355
          ],
          [
            4.849103,
            52.355003
          ],
          [
            4.848969,
            52.355007
          ],
          [
            4.848857,
            52.355007
          ],
          [
            4.848754,
            52.355011
          ],
          [
            4.848705,
            52.355011
          ],
          [
            4.848567,
            52.355011
          ],
          [
            4.848449,
            52.355011
          ],
          [
            4.848339,
            52.355007
          ],
          [
            4.84823,
            52.355003
          ],
          [
            4.848061,
            52.354996
          ],
          [
            4.84793,
            52.354988
          ],
          [
            4.847825,
            52.35498
          ],
          [
            4.847726,
            52.354973
          ],
          [
            4.84763,
            52.354965
          ],
          [
            4.84758,
            52.354965
          ],
          [
            4.847509,
            52.354965
          ],
          [
            4.847424,
            52.354965
          ],
          [
            4.847332,
            52.354965
          ],
          [
            4.847236,
            52.354965
          ],
          [
            4.847206,
            52.354965
          ],
          [
            4.847056,
            52.354965
          ],
          [
            4.84694,
            52.354965
          ],
          [
            4.846765,
            52.354961
          ],
          [
            4.846668,
            52.354954
          ],
          [
            4.846592,
            52.354935
          ],
          [
            4.846533,
            52.354908
          ],
          [
            4.846465,
            52.354893
          ],
          [
            4.846388,
            52.354877
          ],
          [
            4.846314,
            52.35487
          ],
          [
            4.846232,
            52.354862
          ],
          [
            4.846156,
            52.354847
          ],
          [
            4.846095,
            52.354824
          ],
          [
            4.846046,
            52.35479
          ],
          [
            4.846018,
            52.354752
          ],
          [
            4.845999,
            52.35471
          ],
          [
            4.84599,
            52.354656
          ],
          [
            4.84599,
            52.354595
          ],
          [
            4.845988,
            52.35453
          ],
          [
            4.845993,
            52.354473
          ],
          [
            4.845986,
            52.354412
          ],
          [
            4.845992,
            52.354351
          ],
          [
            4.845986,
            52.354294
          ],
          [
            4.845986,
            52.354229
          ],
          [
            4.845984,
            52.354164
          ],
          [
            4.845985,
            52.354099
          ],
          [
            4.845988,
            52.354038
          ],
          [
            4.845986,
            52.353977
          ],
          [
            4.845994,
            52.35392
          ],
          [
            4.845992,
            52.353859
          ],
          [
            4.846001,
            52.353794
          ],
          [
            4.846,
            52.353729
          ],
          [
            4.846001,
            52.353638
          ],
          [
            4.846,
            52.353554
          ],
          [
            4.846001,
            52.353466
          ],
          [
            4.846005,
            52.353397
          ],
          [
            4.846003,
            52.353333
          ],
          [
            4.845999,
            52.353268
          ],
          [
            4.846,
            52.353203
          ],
          [
            4.846,
            52.353138
          ],
          [
            4.846003,
            52.353081
          ],
          [
            4.846007,
            52.35302
          ],
          [
            4.846008,
            52.352951
          ],
          [
            4.84601,
            52.352901
          ],
          [
            4.846016,
            52.352837
          ],
          [
            4.846009,
            52.352779
          ],
          [
            4.846012,
            52.352718
          ],
          [
            4.846012,
            52.35265
          ],
          [
            4.846014,
            52.352585
          ],
          [
            4.846017,
            52.352531
          ],
          [
            4.846017,
            52.35247
          ],
          [
            4.846009,
            52.352417
          ],
          [
            4.846009,
            52.352345
          ],
          [
            4.846018,
            52.352287
          ],
          [
            4.846022,
            52.352219
          ],
          [
            4.846022,
            52.352158
          ],
          [
            4.846024,
            52.352104
          ],
          [
            4.846024,
            52.352039
          ],
          [
            4.846016,
            52.351986
          ],
          [
            4.846023,
            52.351929
          ],
          [
            4.846015,
            52.351864
          ],
          [
            4.846022,
            52.351814
          ],
          [
            4.846023,
            52.351765
          ],
          [
            4.846014,
            52.351727
          ],
          [
            4.846003,
            52.3517
          ],
          [
            4.845975,
            52.351692
          ],
          [
            4.845961,
            52.351692
          ],
          [
            4.845907,
            52.351688
          ],
          [
            4.845839,
            52.351688
          ],
          [
            4.845761,
            52.351685
          ],
          [
            4.845689,
            52.351685
          ],
          [
            4.845631,
            52.351685
          ],
          [
            4.845543,
            52.351685
          ],
          [
            4.845467,
            52.351685
          ],
          [
            4.845453,
            52.351685
          ],
          [
            4.845332,
            52.351685
          ],
          [
            4.845205,
            52.351685
          ],
          [
            4.845231,
            52.351681
          ],
          [
            4.844965,
            52.351685
          ],
          [
            4.84483,
            52.351685
          ],
          [
            4.844808,
            52.351685
          ],
          [
            4.844775,
            52.351685
          ],
          [
            4.844553,
            52.351688
          ],
          [
            4.844532,
            52.351688
          ],
          [
            4.844331,
            52.351688
          ],
          [
            4.844218,
            52.351688
          ],
          [
            4.844242,
            52.351685
          ],
          [
            4.843988,
            52.351688
          ],
          [
            4.843859,
            52.351688
          ],
          [
            4.843758,
            52.351688
          ],
          [
            4.843755,
            52.351688
          ],
          [
            4.843689,
            52.351688
          ],
          [
            4.843479,
            52.351688
          ],
          [
            4.843286,
            52.351688
          ],
          [
            4.843154,
            52.351685
          ],
          [
            4.843159,
            52.351688
          ],
          [
            4.842971,
            52.351685
          ],
          [
            4.84284,
            52.351681
          ],
          [
            4.842845,
            52.351681
          ],
          [
            4.842767,
            52.351681
          ],
          [
            4.842577,
            52.351681
          ],
          [
            4.842422,
            52.351677
          ],
          [
            4.842321,
            52.351688
          ],
          [
            4.842232,
            52.351685
          ],
          [
            4.842268,
            52.351685
          ],
          [
            4.842057,
            52.351688
          ],
          [
            4.841935,
            52.351692
          ],
          [
            4.841821,
            52.351692
          ],
          [
            4.841713,
            52.351692
          ],
          [
            4.841637,
            52.351688
          ],
          [
            4.841517,
            52.351688
          ],
          [
            4.841347,
            52.351688
          ],
          [
            4.841243,
            52.351685
          ],
          [
            4.84114,
            52.351681
          ],
          [
            4.841042,
            52.351677
          ],
          [
            4.840955,
            52.351677
          ],
          [
            4.840862,
            52.351673
          ],
          [
            4.840777,
            52.351673
          ],
          [
            4.840757,
            52.351677
          ],
          [
            4.840616,
            52.351677
          ],
          [
            4.84045,
            52.351677
          ],
          [
            4.840363,
            52.351681
          ],
          [
            4.840269,
            52.351685
          ],
          [
            4.840186,
            52.351685
          ],
          [
            4.840148,
            52.351685
          ],
          [
            4.840008,
            52.351681
          ],
          [
            4.840019,
            52.351681
          ],
          [
            4.839825,
            52.351677
          ],
          [
            4.839708,
            52.351673
          ],
          [
            4.839631,
            52.351673
          ],
          [
            4.839509,
            52.351673
          ],
          [
            4.839413,
            52.351673
          ],
          [
            4.83931,
            52.351673
          ],
          [
            4.839223,
            52.351673
          ],
          [
            4.83915,
            52.351673
          ],
          [
            4.839012,
            52.351677
          ],
          [
            4.838909,
            52.351681
          ],
          [
            4.838807,
            52.351681
          ],
          [
            4.838724,
            52.351681
          ],
          [
            4.838631,
            52.351681
          ],
          [
            4.838507,
            52.351677
          ],
          [
            4.83842,
            52.351677
          ],
          [
            4.838308,
            52.351677
          ],
          [
            4.838205,
            52.351677
          ],
          [
            4.838146,
            52.351677
          ],
          [
            4.838008,
            52.351673
          ],
          [
            4.837907,
            52.351673
          ],
          [
            4.837803,
            52.351673
          ],
          [
            4.8377,
            52.351673
          ],
          [
            4.837602,
            52.351673
          ],
          [
            4.837537,
            52.351673
          ],
          [
            4.83743,
            52.351673
          ],
          [
            4.837336,
            52.351673
          ],
          [
            4.837229,
            52.351673
          ],
          [
            4.837156,
            52.351673
          ],
          [
            4.837002,
            52.351669
          ],
          [
            4.836875,
            52.351666
          ],
          [
            4.836767,
            52.351666
          ],
          [
            4.836657,
            52.351662
          ],
          [
            4.836591,
            52.351662
          ],
          [
            4.836475,
            52.351658
          ],
          [
            4.836395,
            52.351658
          ],
          [
            4.836319,
            52.351662
          ],
          [
            4.836225,
            52.351662
          ],
          [
            4.836165,
            52.351662
          ],
          [
            4.836026,
            52.351662
          ],
          [
            4.835919,
            52.351662
          ],
          [
            4.835822,
            52.351658
          ],
          [
            4.835719,
            52.351658
          ],
          [
            4.83568,
            52.351654
          ],
          [
            4.835524,
            52.351654
          ],
          [
            4.83541,
            52.35165
          ],
          [
            4.835315,
            52.35165
          ],
          [
            4.835217,
            52.351646
          ],
          [
            4.83517,
            52.351646
          ],
          [
            4.835006,
            52.351639
          ],
          [
            4.834932,
            52.351639
          ],
          [
            4.834777,
            52.351635
          ],
          [
            4.834679,
            52.351639
          ],
          [
            4.834645,
            52.351639
          ],
          [
            4.834528,
            52.351643
          ],
          [
            4.834473,
            52.351643
          ],
          [
            4.834262,
            52.351646
          ],
          [
            4.834082,
            52.35162
          ],
          [
            4.833987,
            52.351612
          ],
          [
            4.833796,
            52.351593
          ],
          [
            4.833705,
            52.351589
          ],
          [
            4.833612,
            52.351589
          ],
          [
            4.833517,
            52.351589
          ],
          [
            4.833444,
            52.351585
          ],
          [
            4.833313,
            52.351582
          ],
          [
            4.833214,
            52.351585
          ],
          [
            4.833113,
            52.351585
          ],
          [
            4.833017,
            52.351593
          ],
          [
            4.832952,
            52.351589
          ],
          [
            4.832819,
            52.351589
          ],
          [
            4.832724,
            52.351589
          ],
          [
            4.832625,
            52.351589
          ],
          [
            4.832521,
            52.351585
          ],
          [
            4.832422,
            52.351582
          ],
          [
            4.832317,
            52.351582
          ],
          [
            4.832217,
            52.351582
          ],
          [
            4.832115,
            52.351582
          ],
          [
            4.832022,
            52.351582
          ],
          [
            4.831952,
            52.351582
          ],
          [
            4.831804,
            52.351578
          ],
          [
            4.831703,
            52.351578
          ],
          [
            4.831606,
            52.351574
          ],
          [
            4.831536,
            52.351559
          ],
          [
            4.8314,
            52.351543
          ],
          [
            4.831337,
            52.351547
          ],
          [
            4.831198,
            52.351547
          ],
          [
            4.831114,
            52.351547
          ],
          [
            4.83099,
            52.351532
          ],
          [
            4.830887,
            52.351532
          ],
          [
            4.830795,
            52.351524
          ],
          [
            4.830691,
            52.351521
          ],
          [
            4.830596,
            52.351521
          ],
          [
            4.830499,
            52.351524
          ],
          [
            4.830398,
            52.351524
          ],
          [
            4.830332,
            52.351524
          ],
          [
            4.830196,
            52.351524
          ],
          [
            4.830092,
            52.351524
          ],
          [
            4.829992,
            52.351528
          ],
          [
            4.829892,
            52.351532
          ],
          [
            4.829813,
            52.351532
          ],
          [
            4.829693,
            52.351536
          ],
          [
            4.829605,
            52.351524
          ],
          [
            4.829494,
            52.351517
          ],
          [
            4.829384,
            52.351513
          ],
          [
            4.829322,
            52.351509
          ],
          [
            4.829181,
            52.351505
          ],
          [
            4.829078,
            52.351509
          ],
          [
            4.828978,
            52.351509
          ],
          [
            4.828883,
            52.351513
          ],
          [
            4.828783,
            52.351509
          ],
          [
            4.828689,
            52.351517
          ],
          [
            4.828598,
            52.351509
          ],
          [
            4.828481,
            52.351509
          ],
          [
            4.828393,
            52.351509
          ],
          [
            4.828278,
            52.351513
          ],
          [
            4.828178,
            52.351509
          ],
          [
            4.828081,
            52.351513
          ],
          [
            4.827989,
            52.351513
          ],
          [
            4.827914,
            52.351513
          ],
          [
            4.827791,
            52.351509
          ],
          [
            4.827697,
            52.351509
          ],
          [
            4.827603,
            52.351509
          ],
          [
            4.827511,
            52.351505
          ],
          [
            4.82741,
            52.351505
          ],
          [
            4.827314,
            52.351505
          ],
          [
            4.827215,
            52.351501
          ],
          [
            4.82714,
            52.351498
          ],
          [
            4.827013,
            52.351494
          ],
          [
            4.826901,
            52.35149
          ],
          [
            4.826803,
            52.351494
          ],
          [
            4.826702,
            52.351494
          ],
          [
            4.826635,
            52.351494
          ],
          [
            4.826506,
            52.351498
          ],
          [
            4.826441,
            52.351486
          ],
          [
            4.826315,
            52.351479
          ],
          [
            4.826185,
            52.351467
          ],
          [
            4.826088,
            52.351467
          ],
          [
            4.826031,
            52.351459
          ],
          [
            4.825885,
            52.351456
          ],
          [
            4.825781,
            52.351456
          ],
          [
            4.825678,
            52.351459
          ],
          [
            4.825585,
            52.351456
          ],
          [
            4.825532,
            52.351456
          ],
          [
            4.82538,
            52.351459
          ],
          [
            4.825276,
            52.351452
          ],
          [
            4.825177,
            52.351452
          ],
          [
            4.825075,
            52.351448
          ],
          [
            4.824994,
            52.351452
          ],
          [
            4.824875,
            52.351452
          ],
          [
            4.824775,
            52.351452
          ],
          [
            4.824678,
            52.351452
          ],
          [
            4.824582,
            52.351456
          ],
          [
            4.824519,
            52.351452
          ],
          [
            4.824375,
            52.351452
          ],
          [
            4.824275,
            52.351456
          ],
          [
            4.824178,
            52.351456
          ],
          [
            4.824079,
            52.351459
          ],
          [
            4.824011,
            52.351463
          ],
          [
            4.823882,
            52.351463
          ],
          [
            4.823762,
            52.351463
          ],
          [
            4.823658,
            52.351459
          ],
          [
            4.823569,
            52.351452
          ],
          [
            4.823496,
            52.351448
          ],
          [
            4.823348,
            52.35144
          ],
          [
            4.823244,
            52.351437
          ],
          [
            4.823142,
            52.351433
          ],
          [
            4.82305,
            52.351433
          ],
          [
            4.822965,
            52.351429
          ],
          [
            4.82285,
            52.351429
          ],
          [
            4.822753,
            52.351425
          ],
          [
            4.822648,
            52.351421
          ],
          [
            4.82255,
            52.351425
          ],
          [
            4.822467,
            52.351429
          ],
          [
            4.822344,
            52.351421
          ],
          [
            4.822242,
            52.351425
          ],
          [
            4.822138,
            52.351425
          ],
          [
            4.822039,
            52.351421
          ],
          [
            4.821941,
            52.351421
          ],
          [
            4.82184,
            52.351421
          ],
          [
            4.821743,
            52.351425
          ],
          [
            4.821636,
            52.351425
          ],
          [
            4.821537,
            52.351429
          ],
          [
            4.821458,
            52.351429
          ],
          [
            4.821331,
            52.351425
          ],
          [
            4.821233,
            52.351425
          ],
          [
            4.821142,
            52.351425
          ],
          [
            4.821052,
            52.351429
          ],
          [
            4.82098,
            52.351433
          ],
          [
            4.820868,
            52.351437
          ],
          [
            4.820757,
            52.351433
          ],
          [
            4.820626,
            52.351429
          ],
          [
            4.820532,
            52.351429
          ],
          [
            4.820454,
            52.351429
          ],
          [
            4.820314,
            52.351425
          ],
          [
            4.820215,
            52.351421
          ],
          [
            4.820112,
            52.351418
          ],
          [
            4.82001,
            52.351418
          ],
          [
            4.81991,
            52.351421
          ],
          [
            4.819839,
            52.351421
          ],
          [
            4.819728,
            52.351425
          ],
          [
            4.819637,
            52.351425
          ],
          [
            4.819538,
            52.351425
          ],
          [
            4.819447,
            52.351425
          ],
          [
            4.819357,
            52.351418
          ],
          [
            4.819207,
            52.35141
          ],
          [
            4.819092,
            52.351406
          ],
          [
            4.818987,
            52.351406
          ],
          [
            4.818884,
            52.351398
          ],
          [
            4.818815,
            52.351398
          ],
          [
            4.818681,
            52.351398
          ],
          [
            4.818576,
            52.351398
          ],
          [
            4.818474,
            52.351395
          ],
          [
            4.81837,
            52.351395
          ],
          [
            4.818298,
            52.351391
          ],
          [
            4.81817,
            52.351387
          ],
          [
            4.818067,
            52.351387
          ],
          [
            4.817969,
            52.351383
          ],
          [
            4.817868,
            52.351383
          ],
          [
            4.817801,
            52.351379
          ],
          [
            4.817666,
            52.351379
          ],
          [
            4.817563,
            52.351376
          ],
          [
            4.817462,
            52.351376
          ],
          [
            4.817361,
            52.351376
          ],
          [
            4.817288,
            52.351376
          ],
          [
            4.81716,
            52.351376
          ],
          [
            4.817058,
            52.351376
          ],
          [
            4.816958,
            52.351372
          ],
          [
            4.816876,
            52.351372
          ],
          [
            4.816757,
            52.351368
          ],
          [
            4.81666,
            52.351372
          ],
          [
            4.816559,
            52.351376
          ],
          [
            4.816458,
            52.351379
          ],
          [
            4.816382,
            52.351379
          ],
          [
            4.816256,
            52.351379
          ],
          [
            4.816155,
            52.351376
          ],
          [
            4.816051,
            52.351376
          ],
          [
            4.815949,
            52.351372
          ],
          [
            4.815864,
            52.351368
          ],
          [
            4.815752,
            52.351372
          ],
          [
            4.815655,
            52.351372
          ],
          [
            4.815555,
            52.351372
          ],
          [
            4.815455,
            52.351368
          ],
          [
            4.815368,
            52.351368
          ],
          [
            4.815255,
            52.351368
          ],
          [
            4.815158,
            52.351364
          ],
          [
            4.815063,
            52.35136
          ],
          [
            4.814968,
            52.35136
          ],
          [
            4.814895,
            52.351356
          ],
          [
            4.814751,
            52.351353
          ],
          [
            4.814654,
            52.351349
          ],
          [
            4.814552,
            52.351345
          ],
          [
            4.81445,
            52.351341
          ],
          [
            4.814379,
            52.351334
          ],
          [
            4.814251,
            52.351326
          ],
          [
            4.814153,
            52.351322
          ],
          [
            4.814052,
            52.351315
          ],
          [
            4.813951,
            52.351307
          ],
          [
            4.813875,
            52.351303
          ],
          [
            4.813752,
            52.351292
          ],
          [
            4.81365,
            52.35128
          ],
          [
            4.813553,
            52.351269
          ],
          [
            4.81345,
            52.351261
          ],
          [
            4.813368,
            52.35125
          ],
          [
            4.813251,
            52.351238
          ],
          [
            4.813155,
            52.351227
          ],
          [
            4.813055,
            52.351219
          ],
          [
            4.812957,
            52.351204
          ],
          [
            4.81288,
            52.351192
          ],
          [
            4.812761,
            52.351166
          ],
          [
            4.812661,
            52.351147
          ],
          [
            4.812566,
            52.351131
          ],
          [
            4.812465,
            52.351116
          ],
          [
            4.812382,
            52.351101
          ],
          [
            4.812271,
            52.351078
          ],
          [
            4.812176,
            52.351063
          ],
          [
            4.812068,
            52.35104
          ],
          [
            4.811969,
            52.351017
          ],
          [
            4.811876,
            52.350994
          ],
          [
            4.811782,
            52.350971
          ],
          [
            4.811691,
            52.350948
          ],
          [
            4.811598,
            52.350933
          ],
          [
            4.811519,
            52.350937
          ],
          [
            4.81147,
            52.350948
          ],
          [
            4.811344,
            52.350967
          ],
          [
            4.811288,
            52.350979
          ],
          [
            4.811229,
            52.350986
          ],
          [
            4.811162,
            52.350983
          ],
          [
            4.811085,
            52.350964
          ],
          [
            4.81102,
            52.350937
          ],
          [
            4.81097,
            52.350891
          ],
          [
            4.810918,
            52.350845
          ],
          [
            4.810841,
            52.350807
          ],
          [
            4.810753,
            52.350784
          ],
          [
            4.810654,
            52.350765
          ],
          [
            4.810596,
            52.350758
          ],
          [
            4.810571,
            52.350758
          ],
          [
            4.810468,
            52.350746
          ],
          [
            4.810371,
            52.350735
          ],
          [
            4.810267,
            52.350716
          ],
          [
            4.810156,
            52.350693
          ],
          [
            4.810072,
            52.350674
          ],
          [
            4.809928,
            52.350636
          ],
          [
            4.809821,
            52.350613
          ],
          [
            4.809726,
            52.35059
          ],
          [
            4.809649,
            52.350575
          ],
          [
            4.809532,
            52.350548
          ],
          [
            4.809433,
            52.350529
          ],
          [
            4.809334,
            52.35051
          ],
          [
            4.809241,
            52.350491
          ],
          [
            4.809126,
            52.350468
          ],
          [
            4.80901,
            52.350449
          ],
          [
            4.808916,
            52.35043
          ],
          [
            4.808817,
            52.350407
          ],
          [
            4.808717,
            52.350391
          ],
          [
            4.808638,
            52.350376
          ],
          [
            4.808523,
            52.350349
          ],
          [
            4.808432,
            52.35033
          ],
          [
            4.808334,
            52.350311
          ],
          [
            4.808238,
            52.350292
          ],
          [
            4.808156,
            52.350277
          ],
          [
            4.808049,
            52.350254
          ],
          [
            4.807955,
            52.350235
          ],
          [
            4.807855,
            52.350216
          ],
          [
            4.807755,
            52.350197
          ],
          [
            4.807658,
            52.350178
          ],
          [
            4.807586,
            52.350162
          ],
          [
            4.807466,
            52.35014
          ],
          [
            4.807367,
            52.350117
          ],
          [
            4.80727,
            52.350098
          ],
          [
            4.807178,
            52.350079
          ],
          [
            4.807094,
            52.350063
          ],
          [
            4.806982,
            52.35004
          ],
          [
            4.806884,
            52.350021
          ],
          [
            4.806787,
            52.350002
          ],
          [
            4.806692,
            52.349983
          ],
          [
            4.806613,
            52.349968
          ],
          [
            4.806517,
            52.349949
          ],
          [
            4.806437,
            52.349934
          ],
          [
            4.806359,
            52.349918
          ],
          [
            4.80627,
            52.349899
          ],
          [
            4.806211,
            52.349888
          ],
          [
            4.806091,
            52.349861
          ],
          [
            4.805996,
            52.349842
          ],
          [
            4.805907,
            52.349827
          ],
          [
            4.80581,
            52.349808
          ],
          [
            4.805729,
            52.349792
          ],
          [
            4.80562,
            52.34977
          ],
          [
            4.805528,
            52.349751
          ],
          [
            4.80543,
            52.349728
          ],
          [
            4.805332,
            52.349709
          ],
          [
            4.805265,
            52.349693
          ],
          [
            4.805167,
            52.34967
          ],
          [
            4.805092,
            52.349659
          ],
          [
            4.805016,
            52.34964
          ],
          [
            4.804934,
            52.349625
          ],
          [
            4.804909,
            52.349621
          ],
          [
            4.80478,
            52.349594
          ],
          [
            4.804683,
            52.349579
          ],
          [
            4.804585,
            52.34956
          ],
          [
            4.80449,
            52.349541
          ],
          [
            4.804396,
            52.349525
          ],
          [
            4.804308,
            52.349514
          ],
          [
            4.804265,
            52.349503
          ],
          [
            4.804131,
            52.349472
          ],
          [
            4.804019,
            52.349453
          ],
          [
            4.803918,
            52.34943
          ],
          [
            4.803911,
            52.349426
          ],
          [
            4.803754,
            52.349392
          ],
          [
            4.803635,
            52.349369
          ],
          [
            4.80353,
            52.349346
          ],
          [
            4.803433,
            52.349327
          ],
          [
            4.803343,
            52.349308
          ],
          [
            4.803211,
            52.349278
          ],
          [
            4.803066,
            52.349239
          ],
          [
            4.802959,
            52.349213
          ],
          [
            4.802847,
            52.34919
          ],
          [
            4.802768,
            52.349171
          ],
          [
            4.80262,
            52.34914
          ],
          [
            4.802523,
            52.349121
          ],
          [
            4.802408,
            52.349098
          ],
          [
            4.80229,
            52.349075
          ],
          [
            4.802233,
            52.349064
          ],
          [
            4.802118,
            52.349041
          ],
          [
            4.802022,
            52.349022
          ],
          [
            4.801924,
            52.349003
          ],
          [
            4.801868,
            52.348991
          ],
          [
            4.801767,
            52.348968
          ],
          [
            4.801678,
            52.348949
          ],
          [
            4.801578,
            52.34893
          ],
          [
            4.801477,
            52.348911
          ],
          [
            4.80137,
            52.348892
          ],
          [
            4.801291,
            52.348869
          ],
          [
            4.801161,
            52.348843
          ],
          [
            4.801046,
            52.348816
          ],
          [
            4.800974,
            52.348804
          ],
          [
            4.800917,
            52.348793
          ],
          [
            4.800844,
            52.348778
          ],
          [
            4.800728,
            52.348755
          ],
          [
            4.800624,
            52.348732
          ],
          [
            4.800505,
            52.348705
          ],
          [
            4.800394,
            52.348679
          ],
          [
            4.800316,
            52.34866
          ],
          [
            4.800196,
            52.348629
          ],
          [
            4.800146,
            52.348614
          ],
          [
            4.800051,
            52.348591
          ],
          [
            4.799965,
            52.348564
          ],
          [
            4.799907,
            52.348549
          ],
          [
            4.799849,
            52.34853
          ],
          [
            4.799744,
            52.348495
          ],
          [
            4.799638,
            52.348457
          ],
          [
            4.799545,
            52.348423
          ],
          [
            4.799468,
            52.348392
          ],
          [
            4.799374,
            52.348358
          ],
          [
            4.799284,
            52.348324
          ],
          [
            4.799179,
            52.348282
          ],
          [
            4.799086,
            52.348244
          ],
          [
            4.799015,
            52.348217
          ],
          [
            4.798925,
            52.348179
          ],
          [
            4.79884,
            52.348141
          ],
          [
            4.798758,
            52.348103
          ],
          [
            4.798675,
            52.348064
          ],
          [
            4.7986,
            52.34803
          ],
          [
            4.798515,
            52.347988
          ],
          [
            4.798421,
            52.34795
          ],
          [
            4.798349,
            52.347939
          ],
          [
            4.798267,
            52.347927
          ],
          [
            4.798151,
            52.347919
          ],
          [
            4.798067,
            52.347904
          ],
          [
            4.79799,
            52.347881
          ],
          [
            4.797921,
            52.347851
          ],
          [
            4.797875,
            52.347813
          ],
          [
            4.797839,
            52.347767
          ],
          [
            4.797816,
            52.347717
          ],
          [
            4.79779,
            52.347652
          ],
          [
            4.797743,
            52.347595
          ],
          [
            4.797705,
            52.347549
          ],
          [
            4.797643,
            52.347496
          ],
          [
            4.797582,
            52.347454
          ],
          [
            4.797512,
            52.347412
          ],
          [
            4.79746,
            52.347378
          ],
          [
            4.797402,
            52.34734
          ],
          [
            4.797337,
            52.347298
          ],
          [
            4.797263,
            52.347244
          ],
          [
            4.797221,
            52.347214
          ],
          [
            4.797179,
            52.347183
          ],
          [
            4.797121,
            52.347141
          ],
          [
            4.79705,
            52.347084
          ],
          [
            4.796992,
            52.347038
          ],
          [
            4.796944,
            52.347
          ],
          [
            4.796892,
            52.346954
          ],
          [
            4.79683,
            52.346897
          ],
          [
            4.796772,
            52.346844
          ],
          [
            4.79671,
            52.346783
          ],
          [
            4.79666,
            52.346733
          ],
          [
            4.796606,
            52.346676
          ],
          [
            4.796563,
            52.346626
          ],
          [
            4.796505,
            52.346565
          ],
          [
            4.79646,
            52.346508
          ],
          [
            4.796412,
            52.346455
          ],
          [
            4.796367,
            52.346394
          ],
          [
            4.796319,
            52.346333
          ],
          [
            4.796267,
            52.34626
          ],
          [
            4.796235,
            52.34621
          ],
          [
            4.796198,
            52.346153
          ],
          [
            4.796152,
            52.346085
          ],
          [
            4.796108,
            52.346016
          ],
          [
            4.796076,
            52.345963
          ],
          [
            4.796045,
            52.345913
          ],
          [
            4.796003,
            52.345852
          ],
          [
            4.795979,
            52.345814
          ],
          [
            4.795947,
            52.34576
          ],
          [
            4.795908,
            52.345703
          ],
          [
            4.795873,
            52.345642
          ],
          [
            4.795838,
            52.345585
          ],
          [
            4.795793,
            52.345512
          ],
          [
            4.795753,
            52.345444
          ],
          [
            4.795713,
            52.345379
          ],
          [
            4.795681,
            52.345325
          ],
          [
            4.795644,
            52.345268
          ],
          [
            4.795609,
            52.345207
          ],
          [
            4.795568,
            52.345139
          ],
          [
            4.795534,
            52.345081
          ],
          [
            4.795497,
            52.34502
          ],
          [
            4.795457,
            52.344955
          ],
          [
            4.79542,
            52.344894
          ],
          [
            4.795383,
            52.34483
          ],
          [
            4.795354,
            52.344772
          ],
          [
            4.79533,
            52.344711
          ],
          [
            4.795305,
            52.344639
          ],
          [
            4.795289,
            52.344589
          ],
          [
            4.795282,
            52.34454
          ],
          [
            4.795273,
            52.344479
          ],
          [
            4.795265,
            52.344414
          ],
          [
            4.795256,
            52.34436
          ],
          [
            4.79524,
            52.344288
          ],
          [
            4.79522,
            52.34425
          ],
          [
            4.795184,
            52.344173
          ],
          [
            4.795147,
            52.344112
          ],
          [
            4.795114,
            52.344059
          ],
          [
            4.795074,
            52.343998
          ],
          [
            4.79504,
            52.343945
          ],
          [
            4.795,
            52.343887
          ],
          [
            4.79495,
            52.343815
          ],
          [
            4.794919,
            52.343765
          ],
          [
            4.794888,
            52.343719
          ],
          [
            4.794868,
            52.343689
          ],
          [
            4.794837,
            52.343643
          ],
          [
            4.794802,
            52.343586
          ],
          [
            4.794762,
            52.343521
          ],
          [
            4.794714,
            52.343452
          ],
          [
            4.794674,
            52.343384
          ],
          [
            4.794632,
            52.343327
          ],
          [
            4.794604,
            52.343285
          ],
          [
            4.794565,
            52.343224
          ],
          [
            4.794514,
            52.343147
          ],
          [
            4.79447,
            52.343086
          ],
          [
            4.794425,
            52.343021
          ],
          [
            4.794386,
            52.342964
          ],
          [
            4.794346,
            52.342903
          ],
          [
            4.794309,
            52.342838
          ],
          [
            4.79428,
            52.342796
          ],
          [
            4.794243,
            52.342743
          ],
          [
            4.794204,
            52.342682
          ],
          [
            4.79416,
            52.342617
          ],
          [
            4.794123,
            52.342564
          ],
          [
            4.79408,
            52.342499
          ],
          [
            4.794035,
            52.342438
          ],
          [
            4.793982,
            52.342373
          ],
          [
            4.793933,
            52.342312
          ],
          [
            4.793879,
            52.342255
          ],
          [
            4.793826,
            52.342205
          ],
          [
            4.793777,
            52.342163
          ],
          [
            4.793719,
            52.342121
          ],
          [
            4.79366,
            52.342075
          ],
          [
            4.793589,
            52.34203
          ],
          [
            4.793523,
            52.341991
          ],
          [
            4.793491,
            52.341972
          ],
          [
            4.793422,
            52.341938
          ],
          [
            4.793355,
            52.3419
          ],
          [
            4.793263,
            52.341854
          ],
          [
            4.793199,
            52.34182
          ],
          [
            4.793116,
            52.341774
          ],
          [
            4.793042,
            52.341728
          ],
          [
            4.792969,
            52.341682
          ],
          [
            4.792907,
            52.341637
          ],
          [
            4.792851,
            52.341587
          ],
          [
            4.792799,
            52.341541
          ],
          [
            4.792744,
            52.34148
          ],
          [
            4.792695,
            52.341419
          ],
          [
            4.792657,
            52.34137
          ],
          [
            4.792617,
            52.341312
          ],
          [
            4.792565,
            52.341244
          ],
          [
            4.792516,
            52.341179
          ],
          [
            4.792484,
            52.341133
          ],
          [
            4.792454,
            52.341091
          ],
          [
            4.792407,
            52.341026
          ],
          [
            4.792364,
            52.340969
          ],
          [
            4.792316,
            52.340916
          ],
          [
            4.79226,
            52.340862
          ],
          [
            4.792212,
            52.340824
          ],
          [
            4.792159,
            52.340786
          ],
          [
            4.792087,
            52.340744
          ],
          [
            4.792018,
            52.34071
          ],
          [
            4.791947,
            52.340687
          ],
          [
            4.791881,
            52.340672
          ],
          [
            4.791813,
            52.340675
          ],
          [
            4.791751,
            52.340694
          ],
          [
            4.791705,
            52.340721
          ],
          [
            4.791646,
            52.340752
          ],
          [
            4.791583,
            52.340801
          ],
          [
            4.791538,
            52.340839
          ],
          [
            4.791481,
            52.340889
          ],
          [
            4.791423,
            52.340939
          ],
          [
            4.791368,
            52.340981
          ],
          [
            4.791297,
            52.34103
          ],
          [
            4.79122,
            52.341064
          ],
          [
            4.791127,
            52.341084
          ],
          [
            4.791057,
            52.341087
          ],
          [
            4.790977,
            52.34108
          ],
          [
            4.790881,
            52.341053
          ],
          [
            4.790809,
            52.341026
          ],
          [
            4.790701,
            52.340977
          ],
          [
            4.790619,
            52.340939
          ],
          [
            4.790535,
            52.340893
          ],
          [
            4.790515,
            52.340881
          ],
          [
            4.790457,
            52.340843
          ],
          [
            4.790395,
            52.340809
          ],
          [
            4.790342,
            52.340767
          ],
          [
            4.790267,
            52.340717
          ],
          [
            4.790178,
            52.34066
          ],
          [
            4.790104,
            52.340607
          ],
          [
            4.790025,
            52.340553
          ],
          [
            4.789947,
            52.340496
          ],
          [
            4.789871,
            52.340447
          ],
          [
            4.789794,
            52.340393
          ],
          [
            4.789719,
            52.34034
          ],
          [
            4.789658,
            52.340294
          ],
          [
            4.789601,
            52.340256
          ],
          [
            4.789536,
            52.340206
          ],
          [
            4.78945,
            52.340145
          ],
          [
            4.789417,
            52.340118
          ],
          [
            4.789356,
            52.34008
          ],
          [
            4.789282,
            52.340027
          ],
          [
            4.789227,
            52.339989
          ],
          [
            4.789143,
            52.339932
          ],
          [
            4.789061,
            52.339874
          ],
          [
            4.788977,
            52.339821
          ],
          [
            4.788914,
            52.339775
          ],
          [
            4.788863,
            52.339741
          ],
          [
            4.788806,
            52.339703
          ],
          [
            4.788747,
            52.339657
          ],
          [
            4.788667,
            52.339603
          ],
          [
            4.78863,
            52.339577
          ],
          [
            4.788566,
            52.339535
          ],
          [
            4.788514,
            52.3395
          ],
          [
            4.788442,
            52.339451
          ],
          [
            4.78837,
            52.339405
          ],
          [
            4.788312,
            52.339367
          ],
          [
            4.788254,
            52.339333
          ],
          [
            4.788156,
            52.339279
          ],
          [
            4.788056,
            52.339233
          ],
          [
            4.787946,
            52.339191
          ],
          [
            4.787834,
            52.339157
          ],
          [
            4.787715,
            52.339119
          ],
          [
            4.787597,
            52.339088
          ],
          [
            4.787496,
            52.339066
          ],
          [
            4.787389,
            52.339043
          ],
          [
            4.78729,
            52.339024
          ],
          [
            4.787163,
            52.338993
          ],
          [
            4.78712,
            52.338985
          ],
          [
            4.786966,
            52.338955
          ],
          [
            4.786915,
            52.338943
          ],
          [
            4.786869,
            52.338936
          ],
          [
            4.78673,
            52.338902
          ],
          [
            4.786631,
            52.338879
          ],
          [
            4.786603,
            52.338875
          ],
          [
            4.78656,
            52.338867
          ],
          [
            4.786489,
            52.338852
          ],
          [
            4.786395,
            52.338829
          ],
          [
            4.786298,
            52.33881
          ],
          [
            4.786157,
            52.338783
          ],
          [
            4.786086,
            52.338768
          ],
          [
            4.785985,
            52.338745
          ],
          [
            4.785871,
            52.338718
          ],
          [
            4.785768,
            52.338696
          ],
          [
            4.785655,
            52.338669
          ],
          [
            4.785579,
            52.338654
          ],
          [
            4.785474,
            52.338627
          ],
          [
            4.78541,
            52.338615
          ],
          [
            4.785329,
            52.338596
          ],
          [
            4.785224,
            52.338573
          ],
          [
            4.785112,
            52.338547
          ],
          [
            4.785025,
            52.338528
          ],
          [
            4.784945,
            52.338509
          ],
          [
            4.784882,
            52.338497
          ],
          [
            4.784756,
            52.338467
          ],
          [
            4.78463,
            52.33844
          ],
          [
            4.784517,
            52.338417
          ],
          [
            4.784412,
            52.338394
          ],
          [
            4.784292,
            52.338371
          ],
          [
            4.784175,
            52.338348
          ],
          [
            4.784059,
            52.338318
          ],
          [
            4.783953,
            52.338295
          ],
          [
            4.783839,
            52.338264
          ],
          [
            4.783732,
            52.33823
          ],
          [
            4.783633,
            52.338188
          ],
          [
            4.783544,
            52.33815
          ],
          [
            4.783466,
            52.338108
          ],
          [
            4.783391,
            52.338066
          ],
          [
            4.783324,
            52.338024
          ],
          [
            4.78325,
            52.337978
          ],
          [
            4.783179,
            52.337933
          ],
          [
            4.783111,
            52.337887
          ],
          [
            4.783042,
            52.337841
          ],
          [
            4.782975,
            52.337799
          ],
          [
            4.782931,
            52.337769
          ],
          [
            4.782852,
            52.337723
          ],
          [
            4.782824,
            52.337711
          ],
          [
            4.782764,
            52.337685
          ],
          [
            4.782725,
            52.337666
          ],
          [
            4.782613,
            52.337624
          ],
          [
            4.782496,
            52.337585
          ],
          [
            4.782372,
            52.337547
          ],
          [
            4.782281,
            52.337524
          ],
          [
            4.782187,
            52.337505
          ],
          [
            4.782071,
            52.337486
          ],
          [
            4.781963,
            52.337475
          ],
          [
            4.781881,
            52.337467
          ],
          [
            4.781831,
            52.337463
          ],
          [
            4.781787,
            52.337463
          ],
          [
            4.781715,
            52.33746
          ],
          [
            4.78162,
            52.33746
          ],
          [
            4.78153,
            52.337463
          ],
          [
            4.781405,
            52.337471
          ],
          [
            4.781304,
            52.337479
          ],
          [
            4.781189,
            52.337494
          ],
          [
            4.781075,
            52.337517
          ],
          [
            4.780958,
            52.337544
          ],
          [
            4.780845,
            52.337574
          ],
          [
            4.780765,
            52.337593
          ],
          [
            4.780635,
            52.337631
          ],
          [
            4.780554,
            52.337654
          ],
          [
            4.780455,
            52.337685
          ],
          [
            4.780357,
            52.337715
          ],
          [
            4.780282,
            52.337738
          ],
          [
            4.78018,
            52.337769
          ],
          [
            4.78009,
            52.337795
          ],
          [
            4.780008,
            52.337818
          ],
          [
            4.779934,
            52.337841
          ],
          [
            4.779859,
            52.337864
          ],
          [
            4.779771,
            52.337891
          ],
          [
            4.779676,
            52.337921
          ],
          [
            4.779573,
            52.337959
          ],
          [
            4.779484,
            52.337997
          ],
          [
            4.779396,
            52.338039
          ],
          [
            4.779317,
            52.338078
          ],
          [
            4.779226,
            52.338123
          ],
          [
            4.779131,
            52.338173
          ],
          [
            4.779035,
            52.338226
          ],
          [
            4.778987,
            52.338249
          ],
          [
            4.778922,
            52.338284
          ],
          [
            4.778846,
            52.338322
          ],
          [
            4.778756,
            52.338367
          ],
          [
            4.778674,
            52.338406
          ],
          [
            4.778576,
            52.338448
          ],
          [
            4.778482,
            52.338486
          ],
          [
            4.778385,
            52.338524
          ],
          [
            4.778301,
            52.338554
          ],
          [
            4.778223,
            52.338585
          ],
          [
            4.778148,
            52.338612
          ],
          [
            4.778064,
            52.338642
          ],
          [
            4.777979,
            52.338676
          ],
          [
            4.777899,
            52.338711
          ],
          [
            4.777812,
            52.338749
          ],
          [
            4.777716,
            52.338795
          ],
          [
            4.777633,
            52.338829
          ],
          [
            4.777536,
            52.338863
          ],
          [
            4.777464,
            52.33889
          ],
          [
            4.777403,
            52.338921
          ],
          [
            4.777372,
            52.338959
          ],
          [
            4.777361,
            52.338993
          ],
          [
            4.777361,
            52.339027
          ],
          [
            4.777385,
            52.339073
          ],
          [
            4.777427,
            52.339119
          ],
          [
            4.777489,
            52.339172
          ],
          [
            4.777538,
            52.339211
          ],
          [
            4.777604,
            52.339256
          ],
          [
            4.777667,
            52.339306
          ],
          [
            4.77772,
            52.339348
          ],
          [
            4.777776,
            52.339397
          ],
          [
            4.777832,
            52.339436
          ],
          [
            4.777909,
            52.339474
          ],
          [
            4.778002,
            52.3395
          ],
          [
            4.778097,
            52.3395
          ],
          [
            4.778192,
            52.339481
          ],
          [
            4.778271,
            52.339455
          ],
          [
            4.778345,
            52.33942
          ],
          [
            4.778425,
            52.339378
          ],
          [
            4.778511,
            52.33934
          ],
          [
            4.778585,
            52.339306
          ],
          [
            4.778619,
            52.339294
          ],
          [
            4.778742,
            52.339272
          ],
          [
            4.778821,
            52.339272
          ],
          [
            4.778886,
            52.339291
          ],
          [
            4.77893,
            52.339314
          ],
          [
            4.778947,
            52.33934
          ],
          [
            4.778941,
            52.339367
          ],
          [
            4.778944,
            52.33939
          ],
          [
            4.77896,
            52.339409
          ],
          [
            4.778985,
            52.339436
          ],
          [
            4.779008,
            52.339458
          ],
          [
            4.779029,
            52.339478
          ],
          [
            4.779036,
            52.339497
          ],
          [
            4.779025,
            52.339504
          ],
          [
            4.779025,
            52.339504
          ],
          [
            4.779025,
            52.339504
          ]
        ]
      }
    }
  ]
}