{
  "type": "FeatureCollection",
  "features": [
    {
      "type": "Feature",
      "properties": {
        "id": "badhoevedorp-roundtrip-56668b00-7171-11f1-8ad1-a40dbc8fa83a",
        "title": "Badhoevedorp roundtrip",
        "source": "Badhoevedorp roundtrip-56668b00-7171-11f1-8ad1-a40dbc8fa83a.fit"
      },
      "geometry": {
        "type": "LineString",
        "coordinates": [
          [
            4.779099,
            52.339394
          ],
          [
            4.779099,
            52.339394
          ],
          [
            4.779099,
            52.339394
          ],
          [
            4.779099,
            52.339394
          ],
          [
            4.779099,
            52.339394
          ],
          [
            4.779099,
            52.339394
          ],
          [
            4.779228,
            52.339443
          ],
          [
            4.779231,
            52.339443
          ],
          [
            4.779225,
            52.339443
          ],
          [
            4.779223,
            52.339447
          ],
          [
            4.779219,
            52.339436
          ],
          [
            4.779203,
            52.33942
          ],
          [
            4.779189,
            52.339405
          ],
          [
            4.77917,
            52.339386
          ],
          [
            4.779146,
            52.339363
          ],
          [
            4.779119,
            52.339344
          ],
          [
            4.779098,
            52.339321
          ],
          [
            4.779086,
            52.339287
          ],
          [
            4.779058,
            52.339253
          ],
          [
            4.779029,
            52.339214
          ],
          [
            4.778994,
            52.339184
          ],
          [
            4.778969,
            52.339161
          ],
          [
            4.778939,
            52.339134
          ],
          [
            4.778891,
            52.339111
          ],
          [
            4.778875,
            52.339085
          ],
          [
            4.778841,
            52.339073
          ],
          [
            4.778823,
            52.339046
          ],
          [
            4.77879,
            52.339039
          ],
          [
            4.778744,
            52.33902
          ],
          [
            4.778716,
            52.339008
          ],
          [
            4.778684,
            52.338985
          ],
          [
            4.778666,
            52.338989
          ],
          [
            4.778562,
            52.339024
          ],
          [
            4.778479,
            52.339046
          ],
          [
            4.778416,
            52.339058
          ],
          [
            4.778356,
            52.339062
          ],
          [
            4.77831,
            52.339062
          ],
          [
            4.77831,
            52.339062
          ],
          [
            4.77817,
            52.339031
          ],
          [
            4.77817,
            52.339031
          ],
          [
            4.7781,
            52.33902
          ],
          [
            4.778067,
            52.339016
          ],
          [
            4.778036,
            52.339012
          ],
          [
            4.778039,
            52.33902
          ],
          [
            4.778005,
            52.339054
          ],
          [
            4.778005,
            52.339058
          ],
          [
            4.778005,
            52.339058
          ],
          [
            4.778006,
            52.339146
          ],
          [
            4.778006,
            52.339146
          ],
          [
            4.778006,
            52.339146
          ],
          [
            4.777728,
            52.339378
          ],
          [
            4.777726,
            52.339409
          ],
          [
            4.777747,
            52.339424
          ],
          [
            4.777779,
            52.339447
          ],
          [
            4.777821,
            52.339474
          ],
          [
            4.777862,
            52.3395
          ],
          [
            4.777906,
            52.339519
          ],
          [
            4.777955,
            52.339535
          ],
          [
            4.778011,
            52.33955
          ],
          [
            4.778068,
            52.33955
          ],
          [
            4.778129,
            52.339546
          ],
          [
            4.778187,
            52.339527
          ],
          [
            4.778239,
            52.339508
          ],
          [
            4.778285,
            52.339481
          ],
          [
            4.778333,
            52.339455
          ],
          [
            4.778382,
            52.339432
          ],
          [
            4.778429,
            52.339409
          ],
          [
            4.778482,
            52.339378
          ],
          [
            4.778526,
            52.339355
          ],
          [
            4.77857,
            52.339336
          ],
          [
            4.778621,
            52.33931
          ],
          [
            4.778672,
            52.339279
          ],
          [
            4.778718,
            52.339264
          ],
          [
            4.778771,
            52.339256
          ],
          [
            4.778822,
            52.339253
          ],
          [
            4.778878,
            52.339256
          ],
          [
            4.778913,
            52.339279
          ],
          [
            4.778949,
            52.339302
          ],
          [
            4.778974,
            52.339325
          ],
          [
            4.778978,
            52.339348
          ],
          [
            4.778966,
            52.339367
          ],
          [
            4.778966,
            52.339367
          ],
          [
            4.778974,
            52.339417
          ],
          [
            4.778987,
            52.339424
          ],
          [
            4.779001,
            52.339439
          ],
          [
            4.779023,
            52.339455
          ],
          [
            4.779042,
            52.33947
          ],
          [
            4.779048,
            52.339489
          ],
          [
            4.779048,
            52.339489
          ],
          [
            4.779049,
            52.339493
          ],
          [
            4.779049,
            52.339493
          ],
          [
            4.779049,
            52.339493
          ],
          [
            4.779182,
            52.33942
          ],
          [
            4.779182,
            52.33942
          ],
          [
            4.779182,
            52.33942
          ],
          [
            4.779193,
            52.339413
          ],
          [
            4.779193,
            52.339413
          ],
          [
            4.779193,
            52.339413
          ]
        ]
      }
    }
  ]
}