{
  "type": "FeatureCollection",
  "features": [
    {
      "type": "Feature",
      "properties": {
        "id": "bosch-ebike-tour-7b8baf00-5a88-11f1-8ad1-a40dbc8fa83a",
        "title": "Bosch eBike Tour",
        "source": "Bosch eBike Tour-7b8baf00-5a88-11f1-8ad1-a40dbc8fa83a.fit"
      },
      "geometry": {
        "type": "LineString",
        "coordinates": [
          [
            4.773456,
            52.343338
          ],
          [
            4.773467,
            52.343357
          ],
          [
            4.773479,
            52.343388
          ],
          [
            4.773483,
            52.343422
          ],
          [
            4.773492,
            52.343475
          ],
          [
            4.773514,
            52.343529
          ],
          [
            4.77353,
            52.343578
          ],
          [
            4.773556,
            52.343616
          ],
          [
            4.773571,
            52.343662
          ],
          [
            4.773596,
            52.343719
          ],
          [
            4.773616,
            52.343777
          ],
          [
            4.773621,
            52.343834
          ],
          [
            4.773629,
            52.343887
          ],
          [
            4.773626,
            52.343952
          ],
          [
            4.773613,
            52.344017
          ],
          [
            4.773585,
            52.344067
          ],
          [
            4.773537,
            52.344128
          ],
          [
            4.773477,
            52.344189
          ],
          [
            4.773409,
            52.344238
          ],
          [
            4.773338,
            52.344284
          ],
          [
            4.773267,
            52.344322
          ],
          [
            4.773206,
            52.344353
          ],
          [
            4.773145,
            52.344387
          ],
          [
            4.773106,
            52.344421
          ],
          [
            4.773083,
            52.344444
          ],
          [
            4.773054,
            52.344479
          ],
          [
            4.773031,
            52.344505
          ],
          [
            4.772989,
            52.34454
          ],
          [
            4.77294,
            52.344574
          ],
          [
            4.772821,
            52.344643
          ],
          [
            4.772753,
            52.344677
          ],
          [
            4.772674,
            52.344715
          ],
          [
            4.772592,
            52.344757
          ],
          [
            4.772503,
            52.344799
          ],
          [
            4.772419,
            52.344841
          ],
          [
            4.772342,
            52.344879
          ],
          [
            4.772263,
            52.344917
          ],
          [
            4.772183,
            52.344959
          ],
          [
            4.772034,
            52.345036
          ],
          [
            4.77197,
            52.345066
          ],
          [
            4.771905,
            52.3451
          ],
          [
            4.771828,
            52.345142
          ],
          [
            4.771762,
            52.345173
          ],
          [
            4.771701,
            52.345207
          ],
          [
            4.77168,
            52.345215
          ],
          [
            4.771508,
            52.345299
          ],
          [
            4.771399,
            52.345356
          ],
          [
            4.771345,
            52.345383
          ],
          [
            4.771285,
            52.345413
          ],
          [
            4.771225,
            52.34544
          ],
          [
            4.771172,
            52.34547
          ],
          [
            4.77112,
            52.345497
          ],
          [
            4.770995,
            52.345558
          ],
          [
            4.770927,
            52.345589
          ],
          [
            4.770777,
            52.345665
          ],
          [
            4.770624,
            52.345741
          ],
          [
            4.770546,
            52.345779
          ],
          [
            4.770474,
            52.345818
          ],
          [
            4.770414,
            52.345852
          ],
          [
            4.770347,
            52.345886
          ],
          [
            4.770286,
            52.345917
          ],
          [
            4.770217,
            52.345951
          ],
          [
            4.770079,
            52.346001
          ],
          [
            4.769985,
            52.346016
          ],
          [
            4.769921,
            52.346024
          ],
          [
            4.769756,
            52.346024
          ],
          [
            4.769649,
            52.346024
          ],
          [
            4.76957,
            52.346024
          ],
          [
            4.769453,
            52.346024
          ],
          [
            4.769353,
            52.346031
          ],
          [
            4.769317,
            52.346035
          ],
          [
            4.769072,
            52.346088
          ],
          [
            4.768975,
            52.346111
          ],
          [
            4.768871,
            52.346138
          ],
          [
            4.768788,
            52.346161
          ],
          [
            4.768679,
            52.346191
          ],
          [
            4.768575,
            52.346218
          ],
          [
            4.768478,
            52.346245
          ],
          [
            4.768382,
            52.346272
          ],
          [
            4.768298,
            52.346298
          ],
          [
            4.768091,
            52.346355
          ],
          [
            4.767997,
            52.346382
          ],
          [
            4.767908,
            52.346409
          ],
          [
            4.767821,
            52.346436
          ],
          [
            4.767734,
            52.346462
          ],
          [
            4.767659,
            52.346485
          ],
          [
            4.767582,
            52.346512
          ],
          [
            4.767482,
            52.346546
          ],
          [
            4.767437,
            52.346561
          ],
          [
            4.767253,
            52.346622
          ],
          [
            4.7671,
            52.346672
          ],
          [
            4.766986,
            52.346714
          ],
          [
            4.766894,
            52.346745
          ],
          [
            4.766813,
            52.346775
          ],
          [
            4.766706,
            52.346813
          ],
          [
            4.766609,
            52.346848
          ],
          [
            4.766586,
            52.346855
          ],
          [
            4.766429,
            52.346909
          ],
          [
            4.766264,
            52.34697
          ],
          [
            4.766261,
            52.34697
          ],
          [
            4.766102,
            52.347038
          ],
          [
            4.766008,
            52.34708
          ],
          [
            4.765921,
            52.347115
          ],
          [
            4.765829,
            52.347153
          ],
          [
            4.765665,
            52.347221
          ],
          [
            4.76559,
            52.347256
          ],
          [
            4.765435,
            52.347321
          ],
          [
            4.765418,
            52.347328
          ],
          [
            4.765271,
            52.347397
          ],
          [
            4.765277,
            52.347393
          ],
          [
            4.765253,
            52.347404
          ],
          [
            4.765249,
            52.347408
          ],
          [
            4.765018,
            52.347515
          ],
          [
            4.76493,
            52.347557
          ],
          [
            4.764664,
            52.347687
          ],
          [
            4.764519,
            52.347759
          ],
          [
            4.764428,
            52.347809
          ],
          [
            4.764345,
            52.347851
          ],
          [
            4.764272,
            52.347889
          ],
          [
            4.76421,
            52.347939
          ],
          [
            4.764175,
            52.347984
          ],
          [
            4.764157,
            52.348034
          ],
          [
            4.764143,
            52.34803
          ],
          [
            4.764128,
            52.348118
          ],
          [
            4.764136,
            52.348148
          ],
          [
            4.764167,
            52.348312
          ],
          [
            4.7642,
            52.348373
          ],
          [
            4.764248,
            52.348427
          ],
          [
            4.764307,
            52.348476
          ],
          [
            4.764352,
            52.348515
          ],
          [
            4.7644,
            52.348553
          ],
          [
            4.764455,
            52.348598
          ],
          [
            4.764555,
            52.348675
          ],
          [
            4.764606,
            52.348713
          ],
          [
            4.764659,
            52.348755
          ],
          [
            4.764709,
            52.348793
          ],
          [
            4.764765,
            52.348835
          ],
          [
            4.764824,
            52.348881
          ],
          [
            4.764877,
            52.348919
          ],
          [
            4.764936,
            52.348965
          ],
          [
            4.764994,
            52.349007
          ],
          [
            4.765127,
            52.349098
          ],
          [
            4.765194,
            52.349144
          ],
          [
            4.76526,
            52.34919
          ],
          [
            4.765324,
            52.349239
          ],
          [
            4.765387,
            52.349285
          ],
          [
            4.765447,
            52.349331
          ],
          [
            4.765515,
            52.349384
          ],
          [
            4.765578,
            52.349434
          ],
          [
            4.765644,
            52.349487
          ],
          [
            4.765773,
            52.349586
          ],
          [
            4.765831,
            52.349621
          ],
          [
            4.765904,
            52.349663
          ],
          [
            4.765977,
            52.349701
          ],
          [
            4.76605,
            52.349739
          ],
          [
            4.766124,
            52.349785
          ],
          [
            4.766254,
            52.349865
          ],
          [
            4.766323,
            52.349915
          ],
          [
            4.766401,
            52.349964
          ],
          [
            4.766475,
            52.350018
          ],
          [
            4.766556,
            52.350075
          ],
          [
            4.766548,
            52.350067
          ],
          [
            4.766569,
            52.350082
          ],
          [
            4.766612,
            52.350113
          ],
          [
            4.766668,
            52.350155
          ],
          [
            4.766727,
            52.350201
          ],
          [
            4.766787,
            52.350246
          ],
          [
            4.766842,
            52.350285
          ],
          [
            4.766947,
            52.350361
          ],
          [
            4.767006,
            52.350407
          ],
          [
            4.767055,
            52.350441
          ],
          [
            4.767109,
            52.350479
          ],
          [
            4.767155,
            52.350513
          ],
          [
            4.767202,
            52.350548
          ],
          [
            4.767251,
            52.350586
          ],
          [
            4.767257,
            52.350628
          ],
          [
            4.767181,
            52.350681
          ],
          [
            4.767102,
            52.350708
          ],
          [
            4.767035,
            52.350735
          ],
          [
            4.766962,
            52.350765
          ],
          [
            4.76688,
            52.350792
          ],
          [
            4.7668,
            52.35083
          ],
          [
            4.766721,
            52.350864
          ],
          [
            4.766665,
            52.350914
          ],
          [
            4.766638,
            52.350967
          ],
          [
            4.766627,
            52.351021
          ],
          [
            4.766639,
            52.35107
          ],
          [
            4.766654,
            52.351116
          ],
          [
            4.766661,
            52.351154
          ],
          [
            4.766654,
            52.351189
          ],
          [
            4.766624,
            52.351219
          ],
          [
            4.766513,
            52.351269
          ],
          [
            4.766423,
            52.351303
          ],
          [
            4.766347,
            52.35133
          ],
          [
            4.766268,
            52.35136
          ],
          [
            4.766182,
            52.351395
          ],
          [
            4.766007,
            52.351467
          ],
          [
            4.765923,
            52.351498
          ],
          [
            4.765836,
            52.351532
          ],
          [
            4.765667,
            52.351601
          ],
          [
            4.765584,
            52.351631
          ],
          [
            4.765499,
            52.351666
          ],
          [
            4.765413,
            52.3517
          ],
          [
            4.765334,
            52.351742
          ],
          [
            4.765251,
            52.351784
          ],
          [
            4.765171,
            52.351822
          ],
          [
            4.765087,
            52.351856
          ],
          [
            4.764998,
            52.351891
          ],
          [
            4.764911,
            52.351925
          ],
          [
            4.76482,
            52.351963
          ],
          [
            4.764737,
            52.351997
          ],
          [
            4.76456,
            52.352066
          ],
          [
            4.764477,
            52.3521
          ],
          [
            4.764299,
            52.352173
          ],
          [
            4.764215,
            52.352207
          ],
          [
            4.764132,
            52.352242
          ],
          [
            4.764051,
            52.352272
          ],
          [
            4.763963,
            52.352306
          ],
          [
            4.763872,
            52.352341
          ],
          [
            4.763784,
            52.352375
          ],
          [
            4.763699,
            52.352406
          ],
          [
            4.763608,
            52.35244
          ],
          [
            4.763519,
            52.352474
          ],
          [
            4.763432,
            52.352512
          ],
          [
            4.76335,
            52.352543
          ],
          [
            4.763264,
            52.352577
          ],
          [
            4.763178,
            52.352615
          ],
          [
            4.763093,
            52.35265
          ],
          [
            4.763018,
            52.352676
          ],
          [
            4.762914,
            52.352715
          ],
          [
            4.762825,
            52.352753
          ],
          [
            4.762738,
            52.352787
          ],
          [
            4.762565,
            52.352852
          ],
          [
            4.762476,
            52.352886
          ],
          [
            4.762391,
            52.352921
          ],
          [
            4.762309,
            52.352951
          ],
          [
            4.76222,
            52.352978
          ],
          [
            4.762161,
            52.352993
          ],
          [
            4.762096,
            52.353012
          ],
          [
            4.762024,
            52.353039
          ],
          [
            4.761953,
            52.353062
          ],
          [
            4.761889,
            52.353088
          ],
          [
            4.761806,
            52.353119
          ],
          [
            4.761756,
            52.353134
          ],
          [
            4.761731,
            52.353134
          ],
          [
            4.761712,
            52.353138
          ],
          [
            4.761614,
            52.3531
          ],
          [
            4.761595,
            52.353077
          ],
          [
            4.761581,
            52.353062
          ],
          [
            4.761563,
            52.353054
          ],
          [
            4.761563,
            52.353054
          ],
          [
            4.761563,
            52.353054
          ],
          [
            4.761456,
            52.353165
          ],
          [
            4.761457,
            52.353168
          ],
          [
            4.761464,
            52.353188
          ],
          [
            4.76145,
            52.353168
          ],
          [
            4.761469,
            52.353168
          ],
          [
            4.761475,
            52.353172
          ],
          [
            4.761475,
            52.353172
          ],
          [
            4.761439,
            52.353157
          ],
          [
            4.76147,
            52.35318
          ],
          [
            4.761501,
            52.353203
          ],
          [
            4.761505,
            52.35321
          ],
          [
            4.761495,
            52.353218
          ],
          [
            4.76146,
            52.353184
          ],
          [
            4.761449,
            52.353157
          ],
          [
            4.761468,
            52.353138
          ],
          [
            4.761507,
            52.353119
          ],
          [
            4.761559,
            52.353092
          ],
          [
            4.761568,
            52.353085
          ],
          [
            4.761668,
            52.353027
          ],
          [
            4.7617,
            52.353016
          ],
          [
            4.761721,
            52.353012
          ],
          [
            4.761689,
            52.353027
          ],
          [
            4.762647,
            52.352699
          ],
          [
            4.763565,
            52.35239
          ],
          [
            4.763848,
            52.352291
          ],
          [
            4.763987,
            52.352238
          ],
          [
            4.76408,
            52.3522
          ],
          [
            4.764158,
            52.352165
          ],
          [
            4.764239,
            52.352131
          ],
          [
            4.764316,
            52.352093
          ],
          [
            4.7644,
            52.352058
          ],
          [
            4.764484,
            52.35202
          ],
          [
            4.764582,
            52.35199
          ],
          [
            4.764607,
            52.351978
          ],
          [
            4.764706,
            52.351948
          ],
          [
            4.764807,
            52.35191
          ],
          [
            4.764896,
            52.351879
          ],
          [
            4.764945,
            52.35186
          ],
          [
            4.76503,
            52.351826
          ],
          [
            4.765146,
            52.351784
          ],
          [
            4.765227,
            52.351753
          ],
          [
            4.765318,
            52.351719
          ],
          [
            4.765418,
            52.351681
          ],
          [
            4.765518,
            52.351643
          ],
          [
            4.765611,
            52.351604
          ],
          [
            4.765701,
            52.35157
          ],
          [
            4.765827,
            52.351521
          ],
          [
            4.765928,
            52.351482
          ],
          [
            4.765995,
            52.351452
          ],
          [
            4.766086,
            52.35141
          ],
          [
            4.766152,
            52.351379
          ],
          [
            4.766236,
            52.351345
          ],
          [
            4.766306,
            52.351315
          ],
          [
            4.766366,
            52.351295
          ],
          [
            4.766442,
            52.351269
          ],
          [
            4.766501,
            52.351246
          ],
          [
            4.766616,
            52.351208
          ],
          [
            4.766687,
            52.351185
          ],
          [
            4.766722,
            52.351158
          ],
          [
            4.766771,
            52.351139
          ],
          [
            4.766768,
            52.351101
          ],
          [
            4.766785,
            52.351048
          ],
          [
            4.766799,
            52.351002
          ],
          [
            4.766819,
            52.35096
          ],
          [
            4.766863,
            52.350914
          ],
          [
            4.766923,
            52.350857
          ],
          [
            4.766976,
            52.350819
          ],
          [
            4.767044,
            52.35078
          ],
          [
            4.767136,
            52.350735
          ],
          [
            4.767207,
            52.350716
          ],
          [
            4.767324,
            52.35067
          ],
          [
            4.767402,
            52.350643
          ],
          [
            4.767438,
            52.350632
          ],
          [
            4.767453,
            52.350632
          ],
          [
            4.767471,
            52.350616
          ],
          [
            4.767445,
            52.350624
          ],
          [
            4.767418,
            52.350643
          ],
          [
            4.767465,
            52.350674
          ],
          [
            4.767502,
            52.350677
          ],
          [
            4.767498,
            52.350658
          ],
          [
            4.767306,
            52.350555
          ],
          [
            4.76714,
            52.350475
          ],
          [
            4.767088,
            52.350452
          ],
          [
            4.767027,
            52.350426
          ],
          [
            4.766958,
            52.350388
          ],
          [
            4.766883,
            52.350357
          ],
          [
            4.766851,
            52.350349
          ],
          [
            4.766736,
            52.3503
          ],
          [
            4.766659,
            52.35025
          ],
          [
            4.766636,
            52.350243
          ],
          [
            4.766546,
            52.350189
          ],
          [
            4.766469,
            52.350132
          ],
          [
            4.766425,
            52.350105
          ],
          [
            4.76634,
            52.35006
          ],
          [
            4.766283,
            52.350006
          ],
          [
            4.766224,
            52.349972
          ],
          [
            4.766166,
            52.349926
          ],
          [
            4.766113,
            52.349896
          ],
          [
            4.766053,
            52.349865
          ],
          [
            4.766009,
            52.349834
          ],
          [
            4.765975,
            52.349827
          ],
          [
            4.765978,
            52.349815
          ],
          [
            4.765972,
            52.349831
          ],
          [
            4.766007,
            52.349842
          ],
          [
            4.766006,
            52.349876
          ],
          [
            4.766077,
            52.349964
          ],
          [
            4.766126,
            52.350021
          ],
          [
            4.766182,
            52.350071
          ],
          [
            4.766239,
            52.350124
          ],
          [
            4.7663,
            52.350178
          ],
          [
            4.766361,
            52.350235
          ],
          [
            4.766417,
            52.350281
          ],
          [
            4.766474,
            52.350334
          ],
          [
            4.766529,
            52.350384
          ],
          [
            4.76658,
            52.350441
          ],
          [
            4.766629,
            52.350487
          ],
          [
            4.766666,
            52.350525
          ],
          [
            4.76672,
            52.350578
          ],
          [
            4.766789,
            52.350639
          ],
          [
            4.766845,
            52.350689
          ],
          [
            4.766906,
            52.350735
          ],
          [
            4.766964,
            52.350784
          ],
          [
            4.767027,
            52.350838
          ],
          [
            4.76704,
            52.350841
          ],
          [
            4.767085,
            52.350883
          ],
          [
            4.767147,
            52.350933
          ],
          [
            4.767208,
            52.350986
          ],
          [
            4.767272,
            52.351044
          ],
          [
            4.767331,
            52.351097
          ],
          [
            4.767396,
            52.351158
          ],
          [
            4.767452,
            52.351212
          ],
          [
            4.767518,
            52.351269
          ],
          [
            4.767582,
            52.351334
          ],
          [
            4.767634,
            52.351383
          ],
          [
            4.767693,
            52.351433
          ],
          [
            4.767749,
            52.35149
          ],
          [
            4.767789,
            52.351528
          ],
          [
            4.767828,
            52.351566
          ],
          [
            4.767894,
            52.351627
          ],
          [
            4.767961,
            52.351688
          ],
          [
            4.768029,
            52.351749
          ],
          [
            4.768092,
            52.351799
          ],
          [
            4.768155,
            52.351856
          ],
          [
            4.768228,
            52.351917
          ],
          [
            4.768303,
            52.351982
          ],
          [
            4.768381,
            52.352055
          ],
          [
            4.768441,
            52.352112
          ],
          [
            4.768483,
            52.352154
          ],
          [
            4.768522,
            52.352192
          ],
          [
            4.768571,
            52.352242
          ],
          [
            4.768623,
            52.352291
          ],
          [
            4.768679,
            52.352352
          ],
          [
            4.768748,
            52.352421
          ],
          [
            4.76881,
            52.352478
          ],
          [
            4.76885,
            52.352516
          ],
          [
            4.768909,
            52.352577
          ],
          [
            4.768984,
            52.352653
          ],
          [
            4.769059,
            52.352722
          ],
          [
            4.769209,
            52.352863
          ],
          [
            4.769214,
            52.352863
          ],
          [
            4.76925,
            52.352894
          ],
          [
            4.769307,
            52.352943
          ],
          [
            4.76936,
            52.352985
          ],
          [
            4.769434,
            52.353043
          ],
          [
            4.769498,
            52.353096
          ],
          [
            4.769592,
            52.353172
          ],
          [
            4.769676,
            52.353245
          ],
          [
            4.769753,
            52.353313
          ],
          [
            4.769828,
            52.353382
          ],
          [
            4.769899,
            52.353447
          ],
          [
            4.769939,
            52.353493
          ],
          [
            4.770022,
            52.353588
          ],
          [
            4.770122,
            52.353683
          ],
          [
            4.770213,
            52.353786
          ],
          [
            4.770307,
            52.353874
          ],
          [
            4.770472,
            52.353981
          ],
          [
            4.770515,
            52.354008
          ],
          [
            4.770594,
            52.354054
          ],
          [
            4.77069,
            52.354107
          ],
          [
            4.770787,
            52.354168
          ],
          [
            4.770865,
            52.354214
          ],
          [
            4.770935,
            52.35424
          ],
          [
            4.770955,
            52.354237
          ],
          [
            4.770964,
            52.354237
          ],
          [
            4.770981,
            52.354248
          ],
          [
            4.771118,
            52.354202
          ],
          [
            4.771146,
            52.354179
          ],
          [
            4.771217,
            52.354137
          ],
          [
            4.771289,
            52.354073
          ],
          [
            4.771336,
            52.354034
          ],
          [
            4.771521,
            52.35392
          ],
          [
            4.771673,
            52.35384
          ],
          [
            4.771754,
            52.353806
          ],
          [
            4.771864,
            52.35376
          ],
          [
            4.771969,
            52.353722
          ],
          [
            4.772048,
            52.353687
          ],
          [
            4.77215,
            52.353645
          ],
          [
            4.772234,
            52.353607
          ],
          [
            4.77231,
            52.353569
          ],
          [
            4.772384,
            52.353542
          ],
          [
            4.772478,
            52.3535
          ],
          [
            4.772556,
            52.353466
          ],
          [
            4.772643,
            52.353428
          ],
          [
            4.772675,
            52.35342
          ],
          [
            4.772774,
            52.353378
          ],
          [
            4.772839,
            52.353359
          ],
          [
            4.772975,
            52.353306
          ],
          [
            4.773042,
            52.353279
          ],
          [
            4.7731,
            52.353256
          ],
          [
            4.773167,
            52.353229
          ],
          [
            4.773236,
            52.353195
          ],
          [
            4.773328,
            52.353153
          ],
          [
            4.773428,
            52.353104
          ],
          [
            4.773525,
            52.353065
          ],
          [
            4.773638,
            52.35302
          ],
          [
            4.773715,
            52.352989
          ],
          [
            4.773823,
            52.352947
          ],
          [
            4.773925,
            52.352909
          ],
          [
            4.773977,
            52.352879
          ],
          [
            4.774044,
            52.352852
          ],
          [
            4.774042,
            52.35286
          ],
          [
            4.774178,
            52.352802
          ],
          [
            4.774263,
            52.352764
          ],
          [
            4.77442,
            52.352699
          ],
          [
            4.774475,
            52.352676
          ],
          [
            4.774579,
            52.352631
          ],
          [
            4.774666,
            52.352592
          ],
          [
            4.77477,
            52.35255
          ],
          [
            4.77487,
            52.352509
          ],
          [
            4.774975,
            52.352463
          ],
          [
            4.775051,
            52.352432
          ],
          [
            4.775144,
            52.352398
          ],
          [
            4.775225,
            52.352364
          ],
          [
            4.775319,
            52.352333
          ],
          [
            4.775361,
            52.352322
          ],
          [
            4.775502,
            52.352272
          ],
          [
            4.775674,
            52.352207
          ],
          [
            4.775749,
            52.35218
          ],
          [
            4.775907,
            52.352119
          ],
          [
            4.776011,
            52.352081
          ],
          [
            4.7762,
            52.352009
          ],
          [
            4.776357,
            52.35194
          ],
          [
            4.77644,
            52.351902
          ],
          [
            4.776546,
            52.351852
          ],
          [
            4.776652,
            52.351803
          ],
          [
            4.776756,
            52.351765
          ],
          [
            4.77684,
            52.351734
          ],
          [
            4.776935,
            52.351696
          ],
          [
            4.777058,
            52.35165
          ],
          [
            4.777161,
            52.351616
          ],
          [
            4.777238,
            52.351585
          ],
          [
            4.777327,
            52.351551
          ],
          [
            4.7774,
            52.351521
          ],
          [
            4.777459,
            52.351501
          ],
          [
            4.777559,
            52.351463
          ],
          [
            4.777658,
            52.351421
          ],
          [
            4.777753,
            52.351387
          ],
          [
            4.777844,
            52.351353
          ],
          [
            4.777916,
            52.351326
          ],
          [
            4.778004,
            52.351288
          ],
          [
            4.77809,
            52.351257
          ],
          [
            4.778162,
            52.351227
          ],
          [
            4.7782,
            52.351212
          ],
          [
            4.778257,
            52.351189
          ],
          [
            4.778323,
            52.351162
          ],
          [
            4.778488,
            52.351093
          ],
          [
            4.778574,
            52.351055
          ],
          [
            4.77868,
            52.351013
          ],
          [
            4.778823,
            52.350956
          ],
          [
            4.778947,
            52.35091
          ],
          [
            4.779059,
            52.350868
          ],
          [
            4.779167,
            52.350826
          ],
          [
            4.779337,
            52.350746
          ],
          [
            4.779431,
            52.350704
          ],
          [
            4.779506,
            52.350677
          ],
          [
            4.779588,
            52.350643
          ],
          [
            4.779659,
            52.350616
          ],
          [
            4.779744,
            52.350582
          ],
          [
            4.779818,
            52.350552
          ],
          [
            4.779895,
            52.350521
          ],
          [
            4.77998,
            52.350491
          ],
          [
            4.780063,
            52.350452
          ],
          [
            4.780162,
            52.35041
          ],
          [
            4.780266,
            52.350368
          ],
          [
            4.780358,
            52.350338
          ],
          [
            4.780445,
            52.350304
          ],
          [
            4.780525,
            52.350269
          ],
          [
            4.780598,
            52.350239
          ],
          [
            4.780669,
            52.350208
          ],
          [
            4.780747,
            52.350174
          ],
          [
            4.780828,
            52.35014
          ],
          [
            4.7809,
            52.350109
          ],
          [
            4.780964,
            52.350079
          ],
          [
            4.78104,
            52.350044
          ],
          [
            4.781126,
            52.350002
          ],
          [
            4.781203,
            52.349968
          ],
          [
            4.781306,
            52.349926
          ],
          [
            4.78142,
            52.349876
          ],
          [
            4.781513,
            52.349838
          ],
          [
            4.781592,
            52.349812
          ],
          [
            4.781695,
            52.349773
          ],
          [
            4.781788,
            52.349739
          ],
          [
            4.781882,
            52.349705
          ],
          [
            4.781977,
            52.349667
          ],
          [
            4.782078,
            52.349628
          ],
          [
            4.782157,
            52.349602
          ],
          [
            4.78224,
            52.349579
          ],
          [
            4.78233,
            52.349571
          ],
          [
            4.78235,
            52.349575
          ],
          [
            4.782363,
            52.34959
          ],
          [
            4.782422,
            52.349628
          ],
          [
            4.782474,
            52.349647
          ],
          [
            4.782537,
            52.349674
          ],
          [
            4.78259,
            52.349697
          ],
          [
            4.782641,
            52.349728
          ],
          [
            4.782684,
            52.349754
          ],
          [
            4.782732,
            52.349804
          ],
          [
            4.782779,
            52.349846
          ],
          [
            4.782836,
            52.349892
          ],
          [
            4.782873,
            52.34993
          ],
          [
            4.78293,
            52.349979
          ],
          [
            4.782979,
            52.350025
          ],
          [
            4.783055,
            52.350094
          ],
          [
            4.783103,
            52.350143
          ],
          [
            4.783157,
            52.350197
          ],
          [
            4.783195,
            52.350231
          ],
          [
            4.783236,
            52.350273
          ],
          [
            4.783274,
            52.350307
          ],
          [
            4.783308,
            52.350338
          ],
          [
            4.783371,
            52.350399
          ],
          [
            4.783405,
            52.35043
          ],
          [
            4.783448,
            52.35046
          ],
          [
            4.783504,
            52.350491
          ],
          [
            4.783547,
            52.350498
          ],
          [
            4.783578,
            52.350506
          ],
          [
            4.783701,
            52.350487
          ],
          [
            4.783782,
            52.350464
          ],
          [
            4.783891,
            52.350426
          ],
          [
            4.783992,
            52.350391
          ],
          [
            4.784091,
            52.350353
          ],
          [
            4.784194,
            52.350319
          ],
          [
            4.784278,
            52.350288
          ],
          [
            4.784369,
            52.35025
          ],
          [
            4.784464,
            52.350212
          ],
          [
            4.784534,
            52.350178
          ],
          [
            4.784598,
            52.350143
          ],
          [
            4.784669,
            52.350117
          ],
          [
            4.784738,
            52.350094
          ],
          [
            4.784779,
            52.350075
          ],
          [
            4.784869,
            52.35004
          ],
          [
            4.78494,
            52.350014
          ],
          [
            4.784976,
            52.350006
          ],
          [
            4.785056,
            52.349987
          ],
          [
            4.785086,
            52.349979
          ],
          [
            4.785112,
            52.349968
          ],
          [
            4.785135,
            52.349968
          ],
          [
            4.785168,
            52.349976
          ],
          [
            4.785224,
            52.350014
          ],
          [
            4.785251,
            52.350037
          ],
          [
            4.785281,
            52.350063
          ],
          [
            4.78531,
            52.350098
          ],
          [
            4.785373,
            52.350143
          ],
          [
            4.785393,
            52.35017
          ],
          [
            4.785422,
            52.350189
          ],
          [
            4.785451,
            52.350216
          ],
          [
            4.785487,
            52.350258
          ],
          [
            4.785525,
            52.350281
          ],
          [
            4.785554,
            52.350311
          ],
          [
            4.785579,
            52.350338
          ],
          [
            4.785612,
            52.350361
          ],
          [
            4.785635,
            52.350365
          ],
          [
            4.785667,
            52.350376
          ],
          [
            4.785685,
            52.350391
          ],
          [
            4.78573,
            52.350422
          ],
          [
            4.785788,
            52.350472
          ],
          [
            4.785842,
            52.350517
          ],
          [
            4.785894,
            52.350567
          ],
          [
            4.785947,
            52.350616
          ],
          [
            4.786,
            52.350666
          ],
          [
            4.786029,
            52.350693
          ],
          [
            4.786067,
            52.350727
          ],
          [
            4.786126,
            52.35078
          ],
          [
            4.786194,
            52.350841
          ],
          [
            4.786256,
            52.350895
          ],
          [
            4.786303,
            52.350952
          ],
          [
            4.786356,
            52.351006
          ],
          [
            4.78638,
            52.351036
          ],
          [
            4.786416,
            52.351067
          ],
          [
            4.786458,
            52.351086
          ],
          [
            4.786497,
            52.35109
          ],
          [
            4.786554,
            52.351086
          ],
          [
            4.786629,
            52.351063
          ],
          [
            4.78669,
            52.351036
          ],
          [
            4.786765,
            52.351006
          ],
          [
            4.786829,
            52.350979
          ],
          [
            4.786901,
            52.350948
          ],
          [
            4.78697,
            52.350918
          ],
          [
            4.787044,
            52.350883
          ],
          [
            4.787116,
            52.350849
          ],
          [
            4.787179,
            52.350815
          ],
          [
            4.787245,
            52.350784
          ],
          [
            4.787318,
            52.35075
          ],
          [
            4.787388,
            52.350716
          ],
          [
            4.787435,
            52.350689
          ],
          [
            4.787473,
            52.350655
          ],
          [
            4.787517,
            52.350639
          ],
          [
            4.787517,
            52.350609
          ],
          [
            4.787515,
            52.350578
          ],
          [
            4.78749,
            52.35054
          ],
          [
            4.787485,
            52.350502
          ],
          [
            4.78749,
            52.350468
          ],
          [
            4.787502,
            52.350414
          ],
          [
            4.787514,
            52.350361
          ],
          [
            4.787542,
            52.350315
          ],
          [
            4.787565,
            52.350269
          ],
          [
            4.787585,
            52.350224
          ],
          [
            4.787612,
            52.35017
          ],
          [
            4.787644,
            52.350121
          ],
          [
            4.787667,
            52.350075
          ],
          [
            4.787692,
            52.35004
          ],
          [
            4.787706,
            52.350002
          ],
          [
            4.787744,
            52.349983
          ],
          [
            4.787775,
            52.34996
          ],
          [
            4.787775,
            52.34996
          ],
          [
            4.787775,
            52.34996
          ],
          [
            4.787962,
            52.349785
          ],
          [
            4.787937,
            52.349869
          ],
          [
            4.787926,
            52.349892
          ],
          [
            4.787929,
            52.349903
          ],
          [
            4.787931,
            52.349907
          ],
          [
            4.787984,
            52.349937
          ],
          [
            4.787999,
            52.349945
          ],
          [
            4.788032,
            52.34996
          ],
          [
            4.788065,
            52.349976
          ],
          [
            4.788091,
            52.349991
          ],
          [
            4.788091,
            52.349991
          ],
          [
            4.78818,
            52.350052
          ],
          [
            4.788194,
            52.350056
          ],
          [
            4.788194,
            52.350056
          ],
          [
            4.788259,
            52.350082
          ],
          [
            4.788259,
            52.350082
          ],
          [
            4.788259,
            52.350082
          ],
          [
            4.78838,
            52.349861
          ],
          [
            4.788306,
            52.349842
          ],
          [
            4.788275,
            52.349842
          ],
          [
            4.788268,
            52.349857
          ],
          [
            4.788265,
            52.349857
          ],
          [
            4.788254,
            52.349865
          ],
          [
            4.788254,
            52.349888
          ],
          [
            4.788241,
            52.349896
          ],
          [
            4.788215,
            52.349896
          ],
          [
            4.788198,
            52.349899
          ],
          [
            4.788167,
            52.349903
          ],
          [
            4.788138,
            52.349903
          ],
          [
            4.788102,
            52.349911
          ],
          [
            4.788069,
            52.349918
          ],
          [
            4.788032,
            52.34993
          ],
          [
            4.787977,
            52.349945
          ],
          [
            4.787914,
            52.349964
          ],
          [
            4.787839,
            52.349995
          ],
          [
            4.787757,
            52.35001
          ],
          [
            4.787671,
            52.350021
          ],
          [
            4.787609,
            52.350018
          ],
          [
            4.787565,
            52.349995
          ],
          [
            4.787586,
            52.350021
          ],
          [
            4.787487,
            52.349945
          ],
          [
            4.787491,
            52.349949
          ],
          [
            4.78741,
            52.349892
          ],
          [
            4.787255,
            52.349792
          ],
          [
            4.787132,
            52.349724
          ],
          [
            4.787028,
            52.349674
          ],
          [
            4.78695,
            52.34964
          ],
          [
            4.786879,
            52.349613
          ],
          [
            4.786819,
            52.349586
          ],
          [
            4.786769,
            52.349564
          ],
          [
            4.786786,
            52.349586
          ],
          [
            4.786771,
            52.34951
          ],
          [
            4.786779,
            52.349445
          ],
          [
            4.786787,
            52.349388
          ],
          [
            4.786787,
            52.349312
          ],
          [
            4.786784,
            52.349251
          ],
          [
            4.786772,
            52.349182
          ],
          [
            4.786756,
            52.349121
          ],
          [
            4.786734,
            52.349068
          ],
          [
            4.786712,
            52.349014
          ],
          [
            4.786702,
            52.348972
          ],
          [
            4.786688,
            52.348927
          ],
          [
            4.786677,
            52.3489
          ],
          [
            4.786676,
            52.348873
          ],
          [
            4.786687,
            52.348846
          ],
          [
            4.786697,
            52.348808
          ],
          [
            4.786722,
            52.348778
          ],
          [
            4.786743,
            52.348755
          ],
          [
            4.786806,
            52.348713
          ],
          [
            4.786909,
            52.34866
          ],
          [
            4.787018,
            52.348602
          ],
          [
            4.787095,
            52.348556
          ],
          [
            4.787159,
            52.34853
          ],
          [
            4.787205,
            52.348507
          ],
          [
            4.787341,
            52.34845
          ],
          [
            4.787426,
            52.348412
          ],
          [
            4.787499,
            52.348381
          ],
          [
            4.787586,
            52.348351
          ],
          [
            4.787704,
            52.348305
          ],
          [
            4.787701,
            52.348309
          ],
          [
            4.787867,
            52.348263
          ],
          [
            4.78799,
            52.348225
          ],
          [
            4.788078,
            52.348194
          ],
          [
            4.78816,
            52.348171
          ],
          [
            4.788248,
            52.348145
          ],
          [
            4.788334,
            52.348114
          ],
          [
            4.788449,
            52.348068
          ],
          [
            4.788514,
            52.348034
          ],
          [
            4.788621,
            52.347984
          ],
          [
            4.788665,
            52.347969
          ],
          [
            4.788806,
            52.347916
          ],
          [
            4.78887,
            52.347893
          ],
          [
            4.788949,
            52.347862
          ],
          [
            4.789012,
            52.347832
          ],
          [
            4.789062,
            52.347813
          ],
          [
            4.789111,
            52.347797
          ],
          [
            4.78919,
            52.347771
          ],
          [
            4.789283,
            52.347736
          ],
          [
            4.789398,
            52.347702
          ],
          [
            4.789495,
            52.347668
          ],
          [
            4.789649,
            52.34761
          ],
          [
            4.789731,
            52.347576
          ],
          [
            4.789817,
            52.347546
          ],
          [
            4.789921,
            52.347504
          ],
          [
            4.79,
            52.347466
          ],
          [
            4.79008,
            52.347435
          ],
          [
            4.790137,
            52.347408
          ],
          [
            4.790253,
            52.347355
          ],
          [
            4.790361,
            52.347309
          ],
          [
            4.790421,
            52.347286
          ],
          [
            4.790504,
            52.347256
          ],
          [
            4.790628,
            52.34721
          ],
          [
            4.790727,
            52.347172
          ],
          [
            4.790812,
            52.347134
          ],
          [
            4.790883,
            52.347103
          ],
          [
            4.791063,
            52.347027
          ],
          [
            4.791135,
            52.347
          ],
          [
            4.791177,
            52.346989
          ],
          [
            4.791294,
            52.346947
          ],
          [
            4.79137,
            52.34692
          ],
          [
            4.791458,
            52.346893
          ],
          [
            4.791519,
            52.34687
          ],
          [
            4.791594,
            52.346848
          ],
          [
            4.79168,
            52.346817
          ],
          [
            4.791739,
            52.34679
          ],
          [
            4.791798,
            52.346767
          ],
          [
            4.791905,
            52.346722
          ],
          [
            4.792,
            52.34668
          ],
          [
            4.792092,
            52.346645
          ],
          [
            4.792109,
            52.346634
          ],
          [
            4.792209,
            52.346596
          ],
          [
            4.792305,
            52.346558
          ],
          [
            4.792359,
            52.346542
          ],
          [
            4.792506,
            52.346489
          ],
          [
            4.792605,
            52.346455
          ],
          [
            4.7927,
            52.34642
          ],
          [
            4.792845,
            52.346371
          ],
          [
            4.792928,
            52.34634
          ],
          [
            4.793004,
            52.346314
          ],
          [
            4.793091,
            52.346275
          ],
          [
            4.793175,
            52.346245
          ],
          [
            4.793265,
            52.346207
          ],
          [
            4.793325,
            52.346184
          ],
          [
            4.793398,
            52.346153
          ],
          [
            4.793468,
            52.346123
          ],
          [
            4.793533,
            52.346092
          ],
          [
            4.793663,
            52.346043
          ],
          [
            4.793732,
            52.346027
          ],
          [
            4.793786,
            52.346008
          ],
          [
            4.793845,
            52.345993
          ],
          [
            4.793895,
            52.345974
          ],
          [
            4.793954,
            52.345959
          ],
          [
            4.793998,
            52.345932
          ],
          [
            4.794058,
            52.345905
          ],
          [
            4.794114,
            52.345875
          ],
          [
            4.794192,
            52.345837
          ],
          [
            4.794287,
            52.345799
          ],
          [
            4.794361,
            52.34576
          ],
          [
            4.794431,
            52.345734
          ],
          [
            4.794521,
            52.345692
          ],
          [
            4.794527,
            52.345673
          ],
          [
            4.794533,
            52.345676
          ],
          [
            4.79453,
            52.345615
          ],
          [
            4.794503,
            52.345577
          ],
          [
            4.794486,
            52.345573
          ],
          [
            4.794464,
            52.345531
          ],
          [
            4.794435,
            52.345512
          ],
          [
            4.79442,
            52.345505
          ],
          [
            4.794369,
            52.345455
          ],
          [
            4.794312,
            52.345409
          ],
          [
            4.794244,
            52.345356
          ],
          [
            4.794176,
            52.345295
          ],
          [
            4.794128,
            52.345257
          ],
          [
            4.794068,
            52.345207
          ],
          [
            4.794,
            52.345146
          ],
          [
            4.793926,
            52.345078
          ],
          [
            4.793859,
            52.345016
          ],
          [
            4.793805,
            52.344967
          ],
          [
            4.793782,
            52.344948
          ],
          [
            4.793678,
            52.344849
          ],
          [
            4.793565,
            52.344742
          ],
          [
            4.793481,
            52.344662
          ],
          [
            4.793429,
            52.344601
          ],
          [
            4.793394,
            52.344566
          ],
          [
            4.793356,
            52.344494
          ],
          [
            4.793337,
            52.344437
          ],
          [
            4.793329,
            52.344376
          ],
          [
            4.793413,
            52.344269
          ],
          [
            4.7935,
            52.344189
          ],
          [
            4.793559,
            52.344147
          ],
          [
            4.793615,
            52.344116
          ],
          [
            4.793699,
            52.344086
          ],
          [
            4.793763,
            52.344055
          ],
          [
            4.793834,
            52.344013
          ],
          [
            4.793875,
            52.343956
          ],
          [
            4.793888,
            52.343918
          ],
          [
            4.793895,
            52.343899
          ],
          [
            4.793883,
            52.343884
          ],
          [
            4.793863,
            52.343864
          ],
          [
            4.793838,
            52.343838
          ],
          [
            4.793792,
            52.343796
          ],
          [
            4.793754,
            52.343758
          ],
          [
            4.793714,
            52.343727
          ],
          [
            4.793662,
            52.343678
          ],
          [
            4.793592,
            52.343613
          ],
          [
            4.793521,
            52.343544
          ],
          [
            4.793476,
            52.343494
          ],
          [
            4.793411,
            52.343414
          ],
          [
            4.79337,
            52.343361
          ],
          [
            4.793342,
            52.343311
          ],
          [
            4.793314,
            52.343262
          ],
          [
            4.79328,
            52.343197
          ],
          [
            4.793245,
            52.343113
          ],
          [
            4.793213,
            52.343052
          ],
          [
            4.793192,
            52.34301
          ],
          [
            4.793167,
            52.342968
          ],
          [
            4.793133,
            52.342918
          ],
          [
            4.793087,
            52.342857
          ],
          [
            4.793034,
            52.342793
          ],
          [
            4.792975,
            52.342724
          ],
          [
            4.792917,
            52.342655
          ],
          [
            4.792872,
            52.342602
          ],
          [
            4.792811,
            52.342533
          ],
          [
            4.792742,
            52.342457
          ],
          [
            4.792681,
            52.342392
          ],
          [
            4.792621,
            52.342323
          ],
          [
            4.792563,
            52.342262
          ],
          [
            4.792501,
            52.342213
          ],
          [
            4.792431,
            52.342133
          ],
          [
            4.792329,
            52.342041
          ],
          [
            4.792242,
            52.341946
          ],
          [
            4.792204,
            52.341904
          ],
          [
            4.792173,
            52.341854
          ],
          [
            4.79213,
            52.341808
          ],
          [
            4.792095,
            52.341763
          ],
          [
            4.792022,
            52.341671
          ],
          [
            4.791986,
            52.341629
          ],
          [
            4.791971,
            52.341572
          ],
          [
            4.791961,
            52.341503
          ],
          [
            4.791968,
            52.341446
          ],
          [
            4.79199,
            52.341389
          ],
          [
            4.79203,
            52.341339
          ],
          [
            4.792067,
            52.341286
          ],
          [
            4.79212,
            52.341251
          ],
          [
            4.792162,
            52.341213
          ],
          [
            4.792197,
            52.341187
          ],
          [
            4.792279,
            52.341148
          ],
          [
            4.792314,
            52.341148
          ],
          [
            4.792357,
            52.341156
          ],
          [
            4.792358,
            52.341156
          ],
          [
            4.792381,
            52.341171
          ],
          [
            4.792404,
            52.341183
          ],
          [
            4.79243,
            52.341202
          ],
          [
            4.79246,
            52.341236
          ],
          [
            4.79249,
            52.341267
          ],
          [
            4.79249,
            52.341267
          ],
          [
            4.79249,
            52.341267
          ],
          [
            4.792625,
            52.341164
          ],
          [
            4.792602,
            52.341145
          ],
          [
            4.792615,
            52.341156
          ],
          [
            4.792597,
            52.341137
          ],
          [
            4.792399,
            52.340958
          ],
          [
            4.792333,
            52.340893
          ],
          [
            4.792279,
            52.340832
          ],
          [
            4.79222,
            52.340778
          ],
          [
            4.79218,
            52.340729
          ],
          [
            4.792115,
            52.340683
          ],
          [
            4.792057,
            52.340633
          ],
          [
            4.791992,
            52.340599
          ],
          [
            4.791923,
            52.340569
          ],
          [
            4.791887,
            52.340561
          ],
          [
            4.791772,
            52.340534
          ],
          [
            4.791696,
            52.34053
          ],
          [
            4.791667,
            52.34053
          ],
          [
            4.791626,
            52.340538
          ],
          [
            4.791579,
            52.340553
          ],
          [
            4.791543,
            52.340572
          ],
          [
            4.791499,
            52.340595
          ],
          [
            4.791437,
            52.340633
          ],
          [
            4.791406,
            52.340652
          ],
          [
            4.79136,
            52.340687
          ],
          [
            4.791259,
            52.340763
          ],
          [
            4.791161,
            52.340839
          ],
          [
            4.791125,
            52.340866
          ],
          [
            4.791063,
            52.340908
          ],
          [
            4.791093,
            52.340897
          ],
          [
            4.790907,
            52.34108
          ],
          [
            4.79088,
            52.341122
          ],
          [
            4.790778,
            52.341217
          ],
          [
            4.79069,
            52.341286
          ],
          [
            4.790638,
            52.341331
          ],
          [
            4.790502,
            52.341415
          ],
          [
            4.790385,
            52.34148
          ],
          [
            4.790297,
            52.341526
          ],
          [
            4.790212,
            52.341572
          ],
          [
            4.790141,
            52.341625
          ],
          [
            4.790059,
            52.341663
          ],
          [
            4.78998,
            52.341713
          ],
          [
            4.789922,
            52.341759
          ],
          [
            4.789832,
            52.341805
          ],
          [
            4.789754,
            52.341846
          ],
          [
            4.78968,
            52.341881
          ],
          [
            4.789607,
            52.341911
          ],
          [
            4.789554,
            52.341934
          ],
          [
            4.789477,
            52.341965
          ],
          [
            4.789397,
            52.342003
          ],
          [
            4.789315,
            52.342037
          ],
          [
            4.78923,
            52.342072
          ],
          [
            4.789146,
            52.342106
          ],
          [
            4.789062,
            52.34214
          ],
          [
            4.788981,
            52.342175
          ],
          [
            4.788905,
            52.342209
          ],
          [
            4.788833,
            52.342239
          ],
          [
            4.788738,
            52.342281
          ],
          [
            4.788647,
            52.342327
          ],
          [
            4.788558,
            52.342369
          ],
          [
            4.788475,
            52.342407
          ],
          [
            4.788377,
            52.342449
          ],
          [
            4.788268,
            52.342499
          ],
          [
            4.788171,
            52.342541
          ],
          [
            4.788076,
            52.342583
          ],
          [
            4.787986,
            52.342621
          ],
          [
            4.787913,
            52.342651
          ],
          [
            4.787797,
            52.342701
          ],
          [
            4.787693,
            52.342743
          ],
          [
            4.787617,
            52.342777
          ],
          [
            4.787528,
            52.342815
          ],
          [
            4.7874,
            52.342869
          ],
          [
            4.787322,
            52.342899
          ],
          [
            4.787227,
            52.342934
          ],
          [
            4.787166,
            52.34296
          ],
          [
            4.787055,
            52.343002
          ],
          [
            4.786987,
            52.343029
          ],
          [
            4.786928,
            52.343052
          ],
          [
            4.78684,
            52.343086
          ],
          [
            4.786774,
            52.343113
          ],
          [
            4.786702,
            52.34314
          ],
          [
            4.786643,
            52.343166
          ],
          [
            4.786587,
            52.343182
          ],
          [
            4.786528,
            52.343189
          ],
          [
            4.786471,
            52.343182
          ],
          [
            4.786427,
            52.343166
          ],
          [
            4.786402,
            52.34314
          ],
          [
            4.786365,
            52.343101
          ],
          [
            4.786331,
            52.343056
          ],
          [
            4.786297,
            52.343018
          ],
          [
            4.786264,
            52.342979
          ],
          [
            4.786204,
            52.342926
          ],
          [
            4.786126,
            52.342865
          ],
          [
            4.786041,
            52.3428
          ],
          [
            4.785862,
            52.342678
          ],
          [
            4.785779,
            52.342621
          ],
          [
            4.785713,
            52.342575
          ],
          [
            4.785654,
            52.342529
          ],
          [
            4.78559,
            52.34248
          ],
          [
            4.785526,
            52.34243
          ],
          [
            4.785463,
            52.342384
          ],
          [
            4.785397,
            52.342342
          ],
          [
            4.785252,
            52.342251
          ],
          [
            4.785178,
            52.342201
          ],
          [
            4.785109,
            52.342155
          ],
          [
            4.785035,
            52.342102
          ],
          [
            4.784968,
            52.342045
          ],
          [
            4.7849,
            52.341995
          ],
          [
            4.784833,
            52.341946
          ],
          [
            4.784757,
            52.341888
          ],
          [
            4.78468,
            52.341835
          ],
          [
            4.784614,
            52.341785
          ],
          [
            4.784545,
            52.341732
          ],
          [
            4.784481,
            52.341682
          ],
          [
            4.784466,
            52.341671
          ],
          [
            4.784461,
            52.341667
          ],
          [
            4.784404,
            52.341625
          ],
          [
            4.784337,
            52.341583
          ],
          [
            4.784259,
            52.341534
          ],
          [
            4.784194,
            52.341496
          ],
          [
            4.78411,
            52.341438
          ],
          [
            4.784023,
            52.341377
          ],
          [
            4.783947,
            52.341324
          ],
          [
            4.783885,
            52.341282
          ],
          [
            4.783819,
            52.341236
          ],
          [
            4.783748,
            52.341187
          ],
          [
            4.783688,
            52.341145
          ],
          [
            4.783617,
            52.341099
          ],
          [
            4.78355,
            52.341045
          ],
          [
            4.783466,
            52.340988
          ],
          [
            4.78341,
            52.34095
          ],
          [
            4.783346,
            52.3409
          ],
          [
            4.783279,
            52.340855
          ],
          [
            4.783205,
            52.340805
          ],
          [
            4.783111,
            52.34074
          ],
          [
            4.783015,
            52.340675
          ],
          [
            4.782917,
            52.340614
          ],
          [
            4.782844,
            52.340561
          ],
          [
            4.782682,
            52.340454
          ],
          [
            4.782632,
            52.340416
          ],
          [
            4.782562,
            52.34037
          ],
          [
            4.782498,
            52.340324
          ],
          [
            4.782349,
            52.340218
          ],
          [
            4.782211,
            52.340115
          ],
          [
            4.782156,
            52.340073
          ],
          [
            4.782015,
            52.33997
          ],
          [
            4.781857,
            52.339855
          ],
          [
            4.7818,
            52.339813
          ],
          [
            4.781769,
            52.33979
          ],
          [
            4.781664,
            52.339725
          ],
          [
            4.781625,
            52.339699
          ],
          [
            4.781574,
            52.339668
          ],
          [
            4.781519,
            52.339642
          ],
          [
            4.781413,
            52.339611
          ],
          [
            4.781364,
            52.339611
          ],
          [
            4.781312,
            52.33963
          ],
          [
            4.781219,
            52.339661
          ],
          [
            4.781162,
            52.33968
          ],
          [
            4.781098,
            52.339691
          ],
          [
            4.780968,
            52.33971
          ],
          [
            4.780897,
            52.339722
          ],
          [
            4.780833,
            52.339725
          ],
          [
            4.780765,
            52.339722
          ],
          [
            4.78069,
            52.339725
          ],
          [
            4.78065,
            52.339714
          ],
          [
            4.780593,
            52.339695
          ],
          [
            4.780551,
            52.339668
          ],
          [
            4.780498,
            52.339642
          ],
          [
            4.780479,
            52.339622
          ],
          [
            4.780438,
            52.339603
          ],
          [
            4.780408,
            52.339581
          ],
          [
            4.780402,
            52.339558
          ],
          [
            4.780394,
            52.339527
          ],
          [
            4.780383,
            52.339519
          ],
          [
            4.780351,
            52.339481
          ],
          [
            4.780321,
            52.339447
          ],
          [
            4.78028,
            52.339413
          ],
          [
            4.780184,
            52.339333
          ],
          [
            4.780133,
            52.339306
          ],
          [
            4.780073,
            52.339264
          ],
          [
            4.780035,
            52.339241
          ],
          [
            4.779995,
            52.339226
          ],
          [
            4.779967,
            52.339207
          ],
          [
            4.779947,
            52.339195
          ],
          [
            4.779929,
            52.33918
          ],
          [
            4.779922,
            52.339199
          ],
          [
            4.779841,
            52.339165
          ],
          [
            4.779784,
            52.339149
          ],
          [
            4.779728,
            52.339138
          ],
          [
            4.779675,
            52.33913
          ],
          [
            4.779626,
            52.339127
          ],
          [
            4.779597,
            52.33913
          ],
          [
            4.779535,
            52.339138
          ],
          [
            4.77956,
            52.339123
          ],
          [
            4.779465,
            52.339157
          ],
          [
            4.779366,
            52.339195
          ],
          [
            4.779294,
            52.339218
          ],
          [
            4.779231,
            52.339249
          ],
          [
            4.779129,
            52.339306
          ],
          [
            4.779081,
            52.339329
          ],
          [
            4.779042,
            52.339355
          ],
          [
            4.77901,
            52.339378
          ],
          [
            4.778996,
            52.33942
          ],
          [
            4.778993,
            52.339432
          ],
          [
            4.778993,
            52.339432
          ],
          [
            4.778993,
            52.339432
          ],
          [
            4.779035,
            52.339504
          ],
          [
            4.779035,
            52.339504
          ],
          [
            4.779029,
            52.339527
          ],
          [
            4.779029,
            52.339527
          ],
          [
            4.779029,
            52.339527
          ],
          [
            4.778938,
            52.339359
          ],
          [
            4.778937,
            52.339359
          ],
          [
            4.778943,
            52.339359
          ],
          [
            4.778848,
            52.339317
          ],
          [
            4.77881,
            52.339298
          ],
          [
            4.778755,
            52.339302
          ],
          [
            4.7787,
            52.339294
          ],
          [
            4.778667,
            52.339321
          ],
          [
            4.778601,
            52.339329
          ],
          [
            4.778545,
            52.339344
          ],
          [
            4.778512,
            52.339355
          ],
          [
            4.77846,
            52.339371
          ],
          [
            4.778409,
            52.339386
          ],
          [
            4.77836,
            52.339397
          ],
          [
            4.778314,
            52.339424
          ],
          [
            4.778278,
            52.339439
          ],
          [
            4.778244,
            52.339458
          ],
          [
            4.778216,
            52.339474
          ],
          [
            4.778176,
            52.3395
          ],
          [
            4.778128,
            52.339531
          ],
          [
            4.778082,
            52.339561
          ],
          [
            4.778039,
            52.339584
          ],
          [
            4.77801,
            52.339611
          ],
          [
            4.777987,
            52.339634
          ],
          [
            4.777968,
            52.339661
          ],
          [
            4.77794,
            52.339684
          ],
          [
            4.777951,
            52.33968
          ],
          [
            4.777812,
            52.339752
          ],
          [
            4.777736,
            52.33979
          ],
          [
            4.777676,
            52.339817
          ],
          [
            4.777623,
            52.33984
          ],
          [
            4.77756,
            52.339867
          ],
          [
            4.777553,
            52.33987
          ],
          [
            4.777562,
            52.33987
          ],
          [
            4.777349,
            52.339874
          ],
          [
            4.777239,
            52.339874
          ],
          [
            4.777158,
            52.339859
          ],
          [
            4.777102,
            52.33984
          ],
          [
            4.777045,
            52.339813
          ],
          [
            4.776991,
            52.339783
          ],
          [
            4.776951,
            52.339756
          ],
          [
            4.776912,
            52.339725
          ],
          [
            4.776884,
            52.339699
          ],
          [
            4.776852,
            52.339668
          ],
          [
            4.776827,
            52.339645
          ],
          [
            4.776813,
            52.33963
          ],
          [
            4.776813,
            52.33963
          ],
          [
            4.776782,
            52.339619
          ],
          [
            4.776782,
            52.339619
          ],
          [
            4.776782,
            52.339619
          ],
          [
            4.776782,
            52.339619
          ],
          [
            4.776728,
            52.339611
          ],
          [
            4.776728,
            52.339611
          ],
          [
            4.776696,
            52.339581
          ],
          [
            4.776696,
            52.339581
          ],
          [
            4.77667,
            52.339554
          ],
          [
            4.77667,
            52.339554
          ],
          [
            4.776645,
            52.339523
          ],
          [
            4.776641,
            52.339516
          ],
          [
            4.776641,
            52.339516
          ],
          [
            4.776627,
            52.339497
          ],
          [
            4.776618,
            52.339493
          ],
          [
            4.776594,
            52.339466
          ],
          [
            4.776583,
            52.339458
          ],
          [
            4.776583,
            52.339458
          ],
          [
            4.776539,
            52.339447
          ],
          [
            4.776539,
            52.339447
          ],
          [
            4.776509,
            52.339436
          ],
          [
            4.776509,
            52.339436
          ],
          [
            4.776509,
            52.339436
          ],
          [
            4.776472,
            52.339428
          ],
          [
            4.776472,
            52.339428
          ],
          [
            4.776438,
            52.339447
          ],
          [
            4.776438,
            52.339447
          ],
          [
            4.776419,
            52.339466
          ],
          [
            4.77641,
            52.339466
          ],
          [
            4.776371,
            52.339485
          ],
          [
            4.776371,
            52.339485
          ],
          [
            4.776342,
            52.3395
          ],
          [
            4.776342,
            52.3395
          ],
          [
            4.776319,
            52.339512
          ],
          [
            4.776319,
            52.339512
          ],
          [
            4.776305,
            52.339519
          ],
          [
            4.776305,
            52.339519
          ],
          [
            4.776305,
            52.339519
          ],
          [
            4.776319,
            52.339516
          ],
          [
            4.776319,
            52.339516
          ],
          [
            4.776333,
            52.339504
          ],
          [
            4.776333,
            52.339504
          ],
          [
            4.776333,
            52.339504
          ],
          [
            4.776358,
            52.339493
          ],
          [
            4.776358,
            52.339493
          ],
          [
            4.776389,
            52.339481
          ],
          [
            4.776406,
            52.33947
          ],
          [
            4.776406,
            52.33947
          ],
          [
            4.776453,
            52.339455
          ],
          [
            4.776465,
            52.339447
          ],
          [
            4.776465,
            52.339447
          ],
          [
            4.776487,
            52.339443
          ],
          [
            4.776487,
            52.339443
          ],
          [
            4.776517,
            52.339466
          ],
          [
            4.776517,
            52.339466
          ],
          [
            4.776517,
            52.339466
          ],
          [
            4.776568,
            52.339306
          ],
          [
            4.776578,
            52.339317
          ],
          [
            4.776606,
            52.339394
          ],
          [
            4.776606,
            52.339394
          ],
          [
            4.776625,
            52.339478
          ],
          [
            4.776625,
            52.339478
          ],
          [
            4.776649,
            52.339527
          ],
          [
            4.776649,
            52.339527
          ],
          [
            4.776649,
            52.339527
          ],
          [
            4.776736,
            52.339489
          ],
          [
            4.776744,
            52.3395
          ],
          [
            4.776822,
            52.33955
          ],
          [
            4.776859,
            52.339577
          ],
          [
            4.776898,
            52.339607
          ],
          [
            4.776931,
            52.339634
          ],
          [
            4.776966,
            52.339664
          ],
          [
            4.776998,
            52.339695
          ],
          [
            4.777033,
            52.339729
          ],
          [
            4.777063,
            52.33976
          ],
          [
            4.777095,
            52.339794
          ],
          [
            4.777133,
            52.339829
          ],
          [
            4.777151,
            52.339851
          ],
          [
            4.777266,
            52.339966
          ],
          [
            4.77732,
            52.340008
          ],
          [
            4.777353,
            52.340034
          ],
          [
            4.777379,
            52.340042
          ],
          [
            4.777408,
            52.340038
          ],
          [
            4.777481,
            52.339954
          ],
          [
            4.777522,
            52.339939
          ],
          [
            4.777557,
            52.339912
          ],
          [
            4.777573,
            52.339886
          ],
          [
            4.777667,
            52.339802
          ],
          [
            4.777712,
            52.33976
          ],
          [
            4.777784,
            52.339706
          ],
          [
            4.777831,
            52.339684
          ],
          [
            4.777877,
            52.339657
          ],
          [
            4.777925,
            52.339634
          ],
          [
            4.777966,
            52.339615
          ],
          [
            4.778011,
            52.3396
          ],
          [
            4.77805,
            52.339581
          ],
          [
            4.778081,
            52.339569
          ],
          [
            4.778114,
            52.339546
          ],
          [
            4.778156,
            52.339531
          ],
          [
            4.778207,
            52.339508
          ],
          [
            4.77826,
            52.339489
          ],
          [
            4.778304,
            52.339462
          ],
          [
            4.778344,
            52.339436
          ],
          [
            4.778392,
            52.339413
          ]
        ]
      }
    }
  ]
}