{
  "type": "FeatureCollection",
  "features": [
    {
      "type": "Feature",
      "properties": {
        "id": "bosch-ebike-tour-56fcec00-5a22-11f1-8ad1-a40dbc8fa83a",
        "title": "Bosch eBike Tour",
        "source": "Bosch eBike Tour-56fcec00-5a22-11f1-8ad1-a40dbc8fa83a.fit"
      },
      "geometry": {
        "type": "LineString",
        "coordinates": [
          [
            4.861708,
            52.348049
          ],
          [
            4.861708,
            52.348049
          ],
          [
            4.861735,
            52.348034
          ],
          [
            4.861737,
            52.34803
          ],
          [
            4.86174,
            52.34803
          ],
          [
            4.861752,
            52.348022
          ],
          [
            4.861773,
            52.348011
          ],
          [
            4.861799,
            52.347996
          ],
          [
            4.861833,
            52.347984
          ],
          [
            4.86188,
            52.347973
          ],
          [
            4.861941,
            52.347958
          ],
          [
            4.862006,
            52.347942
          ],
          [
            4.86207,
            52.347927
          ],
          [
            4.862139,
            52.347908
          ],
          [
            4.862217,
            52.347881
          ],
          [
            4.862293,
            52.347855
          ],
          [
            4.862364,
            52.347832
          ],
          [
            4.862433,
            52.347805
          ],
          [
            4.862504,
            52.347778
          ],
          [
            4.862561,
            52.347763
          ],
          [
            4.862606,
            52.347752
          ],
          [
            4.862629,
            52.347752
          ],
          [
            4.862634,
            52.347755
          ],
          [
            4.862617,
            52.347778
          ],
          [
            4.862588,
            52.347797
          ],
          [
            4.862545,
            52.34782
          ],
          [
            4.862489,
            52.347847
          ],
          [
            4.862427,
            52.34787
          ],
          [
            4.862364,
            52.347897
          ],
          [
            4.862292,
            52.347927
          ],
          [
            4.862225,
            52.347961
          ],
          [
            4.862148,
            52.347992
          ],
          [
            4.862068,
            52.348026
          ],
          [
            4.861982,
            52.348061
          ],
          [
            4.861897,
            52.348095
          ],
          [
            4.86181,
            52.348125
          ],
          [
            4.861725,
            52.348156
          ],
          [
            4.861632,
            52.34819
          ],
          [
            4.861539,
            52.348221
          ],
          [
            4.861453,
            52.348255
          ],
          [
            4.861371,
            52.348286
          ],
          [
            4.861284,
            52.348316
          ],
          [
            4.861197,
            52.348351
          ],
          [
            4.86111,
            52.348385
          ],
          [
            4.861029,
            52.348419
          ],
          [
            4.860949,
            52.34845
          ],
          [
            4.860868,
            52.34848
          ],
          [
            4.860786,
            52.348511
          ],
          [
            4.860709,
            52.348545
          ],
          [
            4.860639,
            52.348576
          ],
          [
            4.860572,
            52.348606
          ],
          [
            4.860501,
            52.34864
          ],
          [
            4.860442,
            52.348663
          ],
          [
            4.860378,
            52.34869
          ],
          [
            4.860319,
            52.348717
          ],
          [
            4.860255,
            52.34874
          ],
          [
            4.8602,
            52.348766
          ],
          [
            4.860132,
            52.348793
          ],
          [
            4.860061,
            52.348824
          ],
          [
            4.859986,
            52.348854
          ],
          [
            4.859902,
            52.348888
          ],
          [
            4.859819,
            52.348927
          ],
          [
            4.859784,
            52.348938
          ],
          [
            4.859649,
            52.348995
          ],
          [
            4.859553,
            52.349033
          ],
          [
            4.859453,
            52.349075
          ],
          [
            4.859366,
            52.349117
          ],
          [
            4.859282,
            52.349159
          ],
          [
            4.85919,
            52.349205
          ],
          [
            4.859098,
            52.349247
          ],
          [
            4.859029,
            52.349293
          ],
          [
            4.858939,
            52.349331
          ],
          [
            4.858864,
            52.349365
          ],
          [
            4.858767,
            52.349411
          ],
          [
            4.858677,
            52.349445
          ],
          [
            4.858597,
            52.34948
          ],
          [
            4.858508,
            52.349518
          ],
          [
            4.858421,
            52.349552
          ],
          [
            4.858359,
            52.349579
          ],
          [
            4.858314,
            52.349602
          ],
          [
            4.858274,
            52.349621
          ],
          [
            4.85825,
            52.34964
          ],
          [
            4.858232,
            52.349655
          ],
          [
            4.858232,
            52.349659
          ],
          [
            4.858243,
            52.349689
          ],
          [
            4.858275,
            52.349731
          ],
          [
            4.858296,
            52.349766
          ],
          [
            4.858306,
            52.349796
          ],
          [
            4.858311,
            52.349827
          ],
          [
            4.858307,
            52.349861
          ],
          [
            4.858294,
            52.349888
          ],
          [
            4.85828,
            52.349918
          ],
          [
            4.85828,
            52.349937
          ],
          [
            4.858288,
            52.349968
          ],
          [
            4.858311,
            52.349991
          ],
          [
            4.858345,
            52.350014
          ],
          [
            4.858397,
            52.350033
          ],
          [
            4.858455,
            52.35006
          ],
          [
            4.858518,
            52.350075
          ],
          [
            4.858574,
            52.35009
          ],
          [
            4.858632,
            52.350105
          ],
          [
            4.858688,
            52.350121
          ],
          [
            4.858751,
            52.350136
          ],
          [
            4.858815,
            52.350155
          ],
          [
            4.85888,
            52.350178
          ],
          [
            4.858941,
            52.350193
          ],
          [
            4.859014,
            52.35022
          ],
          [
            4.859075,
            52.350239
          ],
          [
            4.859115,
            52.350254
          ],
          [
            4.859161,
            52.350273
          ],
          [
            4.85919,
            52.350292
          ],
          [
            4.859207,
            52.350304
          ],
          [
            4.859208,
            52.350334
          ],
          [
            4.85919,
            52.350361
          ],
          [
            4.859183,
            52.350365
          ],
          [
            4.859109,
            52.350372
          ],
          [
            4.859044,
            52.350368
          ],
          [
            4.858974,
            52.350357
          ],
          [
            4.858904,
            52.350342
          ],
          [
            4.858831,
            52.350323
          ],
          [
            4.858752,
            52.350304
          ],
          [
            4.858667,
            52.350281
          ],
          [
            4.858584,
            52.350258
          ],
          [
            4.858487,
            52.350231
          ],
          [
            4.858396,
            52.350204
          ],
          [
            4.85831,
            52.350178
          ],
          [
            4.858216,
            52.350147
          ],
          [
            4.858127,
            52.350117
          ],
          [
            4.858029,
            52.350086
          ],
          [
            4.85794,
            52.350067
          ],
          [
            4.857841,
            52.35006
          ],
          [
            4.857752,
            52.350063
          ],
          [
            4.857686,
            52.350071
          ],
          [
            4.85766,
            52.350071
          ],
          [
            4.857588,
            52.350098
          ],
          [
            4.857554,
            52.350117
          ],
          [
            4.857528,
            52.35014
          ],
          [
            4.857521,
            52.350147
          ],
          [
            4.857509,
            52.350151
          ],
          [
            4.8575,
            52.35017
          ],
          [
            4.857495,
            52.350204
          ],
          [
            4.857479,
            52.350254
          ],
          [
            4.857428,
            52.350327
          ],
          [
            4.857387,
            52.350376
          ],
          [
            4.857355,
            52.350414
          ],
          [
            4.857306,
            52.350464
          ],
          [
            4.85727,
            52.350513
          ],
          [
            4.857233,
            52.350563
          ],
          [
            4.857204,
            52.350609
          ],
          [
            4.857173,
            52.350662
          ],
          [
            4.857145,
            52.350719
          ],
          [
            4.857119,
            52.35078
          ],
          [
            4.857105,
            52.350815
          ],
          [
            4.857077,
            52.35088
          ],
          [
            4.857044,
            52.350956
          ],
          [
            4.857016,
            52.351017
          ],
          [
            4.856994,
            52.35107
          ],
          [
            4.856974,
            52.351124
          ],
          [
            4.856952,
            52.351177
          ],
          [
            4.856935,
            52.351231
          ],
          [
            4.856914,
            52.351284
          ],
          [
            4.856896,
            52.351341
          ],
          [
            4.856875,
            52.351387
          ],
          [
            4.856857,
            52.351437
          ],
          [
            4.856834,
            52.351486
          ],
          [
            4.856813,
            52.351528
          ],
          [
            4.85678,
            52.351574
          ],
          [
            4.856747,
            52.351608
          ],
          [
            4.856702,
            52.351635
          ],
          [
            4.856646,
            52.35165
          ],
          [
            4.856597,
            52.351654
          ],
          [
            4.856549,
            52.35165
          ],
          [
            4.856447,
            52.351627
          ],
          [
            4.856403,
            52.351608
          ],
          [
            4.856356,
            52.351582
          ],
          [
            4.856309,
            52.351551
          ],
          [
            4.856255,
            52.351521
          ],
          [
            4.856219,
            52.351501
          ],
          [
            4.856129,
            52.351463
          ],
          [
            4.856059,
            52.351429
          ],
          [
            4.855987,
            52.351402
          ],
          [
            4.855959,
            52.351391
          ],
          [
            4.855829,
            52.351349
          ],
          [
            4.855738,
            52.351322
          ],
          [
            4.855654,
            52.351299
          ],
          [
            4.855577,
            52.351276
          ],
          [
            4.855467,
            52.351246
          ],
          [
            4.855371,
            52.351215
          ],
          [
            4.855278,
            52.351192
          ],
          [
            4.85519,
            52.351166
          ],
          [
            4.855124,
            52.351147
          ],
          [
            4.855001,
            52.351112
          ],
          [
            4.854901,
            52.351086
          ],
          [
            4.854815,
            52.351063
          ],
          [
            4.85472,
            52.351036
          ],
          [
            4.854638,
            52.351013
          ],
          [
            4.854532,
            52.350983
          ],
          [
            4.854441,
            52.350956
          ],
          [
            4.854345,
            52.350929
          ],
          [
            4.854247,
            52.350906
          ],
          [
            4.854191,
            52.350903
          ],
          [
            4.854057,
            52.350883
          ],
          [
            4.853956,
            52.350876
          ],
          [
            4.853854,
            52.350872
          ],
          [
            4.853753,
            52.350868
          ],
          [
            4.853676,
            52.350864
          ],
          [
            4.853556,
            52.350864
          ],
          [
            4.853452,
            52.350864
          ],
          [
            4.853353,
            52.350872
          ],
          [
            4.853255,
            52.35088
          ],
          [
            4.853196,
            52.350887
          ],
          [
            4.853067,
            52.350906
          ],
          [
            4.852965,
            52.350922
          ],
          [
            4.852868,
            52.350941
          ],
          [
            4.852793,
            52.350952
          ],
          [
            4.852685,
            52.350975
          ],
          [
            4.852593,
            52.35099
          ],
          [
            4.852497,
            52.351006
          ],
          [
            4.8524,
            52.351021
          ],
          [
            4.852333,
            52.351028
          ],
          [
            4.852226,
            52.351044
          ],
          [
            4.852151,
            52.351051
          ],
          [
            4.852004,
            52.351067
          ],
          [
            4.851939,
            52.35107
          ],
          [
            4.85179,
            52.351078
          ],
          [
            4.851771,
            52.351082
          ],
          [
            4.851574,
            52.35109
          ],
          [
            4.851448,
            52.35109
          ],
          [
            4.851411,
            52.35109
          ],
          [
            4.851229,
            52.35109
          ],
          [
            4.85118,
            52.35109
          ],
          [
            4.850995,
            52.351086
          ],
          [
            4.850868,
            52.351086
          ],
          [
            4.850837,
            52.351086
          ],
          [
            4.850685,
            52.35109
          ],
          [
            4.850609,
            52.351105
          ],
          [
            4.850561,
            52.351124
          ],
          [
            4.850528,
            52.351151
          ],
          [
            4.850514,
            52.351185
          ],
          [
            4.850505,
            52.351231
          ],
          [
            4.850503,
            52.351273
          ],
          [
            4.8505,
            52.351315
          ],
          [
            4.850499,
            52.35136
          ],
          [
            4.850488,
            52.351414
          ],
          [
            4.850472,
            52.351475
          ],
          [
            4.850445,
            52.351521
          ],
          [
            4.850401,
            52.351566
          ],
          [
            4.850259,
            52.351631
          ],
          [
            4.850175,
            52.351646
          ],
          [
            4.850084,
            52.351654
          ],
          [
            4.850033,
            52.351658
          ],
          [
            4.849898,
            52.351658
          ],
          [
            4.849807,
            52.351658
          ],
          [
            4.849694,
            52.351662
          ],
          [
            4.849596,
            52.351666
          ],
          [
            4.849554,
            52.351669
          ],
          [
            4.849398,
            52.351677
          ],
          [
            4.849285,
            52.351677
          ],
          [
            4.849181,
            52.351677
          ],
          [
            4.849085,
            52.351677
          ],
          [
            4.849033,
            52.351677
          ],
          [
            4.848886,
            52.351677
          ],
          [
            4.848774,
            52.351677
          ],
          [
            4.848671,
            52.351677
          ],
          [
            4.848575,
            52.351677
          ],
          [
            4.848518,
            52.351677
          ],
          [
            4.848375,
            52.351677
          ],
          [
            4.848264,
            52.351677
          ],
          [
            4.848167,
            52.351677
          ],
          [
            4.84806,
            52.351677
          ],
          [
            4.848006,
            52.351677
          ],
          [
            4.847862,
            52.351673
          ],
          [
            4.847753,
            52.351673
          ],
          [
            4.847651,
            52.351673
          ],
          [
            4.847555,
            52.351669
          ],
          [
            4.847487,
            52.351666
          ],
          [
            4.847356,
            52.351666
          ],
          [
            4.84725,
            52.351666
          ],
          [
            4.847148,
            52.351666
          ],
          [
            4.847047,
            52.351658
          ],
          [
            4.847005,
            52.351658
          ],
          [
            4.846858,
            52.35165
          ],
          [
            4.846746,
            52.351643
          ],
          [
            4.846642,
            52.351639
          ],
          [
            4.846579,
            52.351635
          ],
          [
            4.846446,
            52.351631
          ],
          [
            4.84634,
            52.351631
          ],
          [
            4.846244,
            52.351635
          ],
          [
            4.846142,
            52.351639
          ],
          [
            4.84609,
            52.351639
          ],
          [
            4.845948,
            52.351639
          ],
          [
            4.845841,
            52.351639
          ],
          [
            4.845742,
            52.351639
          ],
          [
            4.845646,
            52.351639
          ],
          [
            4.845545,
            52.351639
          ],
          [
            4.845447,
            52.351635
          ],
          [
            4.845373,
            52.351635
          ],
          [
            4.845299,
            52.351635
          ],
          [
            4.845147,
            52.351631
          ],
          [
            4.845131,
            52.351631
          ],
          [
            4.844931,
            52.351631
          ],
          [
            4.844802,
            52.351627
          ],
          [
            4.844775,
            52.351624
          ],
          [
            4.844608,
            52.351624
          ],
          [
            4.844466,
            52.351627
          ],
          [
            4.844353,
            52.351624
          ],
          [
            4.844227,
            52.351624
          ],
          [
            4.844141,
            52.35162
          ],
          [
            4.84402,
            52.351624
          ],
          [
            4.843882,
            52.351616
          ],
          [
            4.843779,
            52.351616
          ],
          [
            4.84368,
            52.351616
          ],
          [
            4.84354,
            52.351612
          ],
          [
            4.843424,
            52.351608
          ],
          [
            4.843262,
            52.351604
          ],
          [
            4.843128,
            52.351601
          ],
          [
            4.843081,
            52.351601
          ],
          [
            4.84306,
            52.351601
          ],
          [
            4.842988,
            52.351601
          ],
          [
            4.842893,
            52.351601
          ],
          [
            4.842831,
            52.351601
          ],
          [
            4.842509,
            52.351604
          ],
          [
            4.842323,
            52.351597
          ],
          [
            4.84232,
            52.351597
          ],
          [
            4.841974,
            52.351604
          ],
          [
            4.841886,
            52.351604
          ],
          [
            4.841662,
            52.351604
          ],
          [
            4.841524,
            52.351608
          ],
          [
            4.841401,
            52.351612
          ],
          [
            4.841281,
            52.351616
          ],
          [
            4.841179,
            52.351612
          ],
          [
            4.841087,
            52.351612
          ],
          [
            4.840981,
            52.351612
          ],
          [
            4.840888,
            52.351612
          ],
          [
            4.840815,
            52.351616
          ],
          [
            4.84073,
            52.351616
          ],
          [
            4.840701,
            52.35162
          ],
          [
            4.84056,
            52.351624
          ],
          [
            4.840459,
            52.351624
          ],
          [
            4.840372,
            52.351627
          ],
          [
            4.840269,
            52.351627
          ],
          [
            4.840214,
            52.351627
          ],
          [
            4.840078,
            52.351624
          ],
          [
            4.839978,
            52.351624
          ],
          [
            4.83988,
            52.351624
          ],
          [
            4.839769,
            52.351624
          ],
          [
            4.839664,
            52.35162
          ],
          [
            4.83961,
            52.351616
          ],
          [
            4.839474,
            52.351616
          ],
          [
            4.839359,
            52.351616
          ],
          [
            4.839255,
            52.351612
          ],
          [
            4.839158,
            52.351608
          ],
          [
            4.839094,
            52.351608
          ],
          [
            4.838957,
            52.351604
          ],
          [
            4.83885,
            52.351601
          ],
          [
            4.838747,
            52.351597
          ],
          [
            4.838655,
            52.351597
          ],
          [
            4.83857,
            52.351597
          ],
          [
            4.838454,
            52.351593
          ],
          [
            4.838354,
            52.351589
          ],
          [
            4.838279,
            52.351589
          ],
          [
            4.838162,
            52.351589
          ],
          [
            4.838097,
            52.351589
          ],
          [
            4.837957,
            52.351593
          ],
          [
            4.837847,
            52.351593
          ],
          [
            4.837749,
            52.351593
          ],
          [
            4.837642,
            52.351593
          ],
          [
            4.837591,
            52.351593
          ],
          [
            4.837424,
            52.351597
          ],
          [
            4.837285,
            52.351593
          ],
          [
            4.83717,
            52.351593
          ],
          [
            4.837058,
            52.351593
          ],
          [
            4.836965,
            52.351597
          ],
          [
            4.836826,
            52.351601
          ],
          [
            4.836713,
            52.351601
          ],
          [
            4.836616,
            52.351601
          ],
          [
            4.836516,
            52.351601
          ],
          [
            4.836433,
            52.351597
          ],
          [
            4.836317,
            52.351597
          ],
          [
            4.836205,
            52.351597
          ],
          [
            4.836111,
            52.351597
          ],
          [
            4.836,
            52.351601
          ],
          [
            4.835943,
            52.351597
          ],
          [
            4.835791,
            52.351593
          ],
          [
            4.835687,
            52.351597
          ],
          [
            4.835588,
            52.351597
          ],
          [
            4.835487,
            52.351597
          ],
          [
            4.835391,
            52.351601
          ],
          [
            4.835295,
            52.351601
          ],
          [
            4.835198,
            52.351601
          ],
          [
            4.835097,
            52.351601
          ],
          [
            4.834997,
            52.351597
          ],
          [
            4.834936,
            52.351593
          ],
          [
            4.834785,
            52.351589
          ],
          [
            4.834692,
            52.351593
          ],
          [
            4.834573,
            52.351597
          ],
          [
            4.834472,
            52.351597
          ],
          [
            4.834377,
            52.351601
          ],
          [
            4.83427,
            52.351601
          ],
          [
            4.834169,
            52.351597
          ],
          [
            4.834066,
            52.351593
          ],
          [
            4.83397,
            52.351585
          ],
          [
            4.833882,
            52.351578
          ],
          [
            4.833763,
            52.351574
          ],
          [
            4.833688,
            52.351574
          ],
          [
            4.833564,
            52.351578
          ],
          [
            4.833455,
            52.351574
          ],
          [
            4.833376,
            52.351578
          ],
          [
            4.833231,
            52.351585
          ],
          [
            4.833133,
            52.351585
          ],
          [
            4.833029,
            52.351585
          ],
          [
            4.832928,
            52.351589
          ],
          [
            4.832829,
            52.351589
          ],
          [
            4.832774,
            52.351589
          ],
          [
            4.832623,
            52.351589
          ],
          [
            4.83252,
            52.351582
          ],
          [
            4.832419,
            52.351578
          ],
          [
            4.832323,
            52.351578
          ],
          [
            4.832226,
            52.351578
          ],
          [
            4.832129,
            52.351578
          ],
          [
            4.832028,
            52.351578
          ],
          [
            4.831947,
            52.351582
          ],
          [
            4.831865,
            52.351578
          ],
          [
            4.831713,
            52.351574
          ],
          [
            4.831636,
            52.351574
          ],
          [
            4.831545,
            52.351578
          ],
          [
            4.831533,
            52.351578
          ],
          [
            4.831394,
            52.351574
          ],
          [
            4.831283,
            52.351578
          ],
          [
            4.831253,
            52.351578
          ],
          [
            4.831116,
            52.351582
          ],
          [
            4.830955,
            52.351578
          ],
          [
            4.830851,
            52.351578
          ],
          [
            4.83075,
            52.351578
          ],
          [
            4.830635,
            52.35157
          ],
          [
            4.830603,
            52.351574
          ],
          [
            4.830523,
            52.35157
          ],
          [
            4.830359,
            52.35157
          ],
          [
            4.830254,
            52.35157
          ],
          [
            4.830139,
            52.35157
          ],
          [
            4.830014,
            52.351559
          ],
          [
            4.829929,
            52.351559
          ],
          [
            4.829832,
            52.351559
          ],
          [
            4.829723,
            52.351559
          ],
          [
            4.829624,
            52.351559
          ],
          [
            4.829596,
            52.351559
          ],
          [
            4.829478,
            52.351559
          ],
          [
            4.829319,
            52.351555
          ],
          [
            4.829214,
            52.351559
          ],
          [
            4.82911,
            52.351555
          ],
          [
            4.829081,
            52.351559
          ],
          [
            4.828934,
            52.351559
          ],
          [
            4.828839,
            52.351563
          ],
          [
            4.828739,
            52.351566
          ],
          [
            4.828642,
            52.351566
          ],
          [
            4.828553,
            52.351566
          ],
          [
            4.828438,
            52.351566
          ],
          [
            4.828333,
            52.351566
          ],
          [
            4.828227,
            52.351563
          ],
          [
            4.828127,
            52.351563
          ],
          [
            4.828037,
            52.351563
          ],
          [
            4.827954,
            52.351563
          ],
          [
            4.827881,
            52.351563
          ],
          [
            4.827801,
            52.351563
          ],
          [
            4.827729,
            52.351559
          ],
          [
            4.82765,
            52.351555
          ],
          [
            4.827578,
            52.351555
          ],
          [
            4.827511,
            52.351551
          ],
          [
            4.827433,
            52.351551
          ],
          [
            4.827351,
            52.351547
          ],
          [
            4.827251,
            52.351543
          ],
          [
            4.827156,
            52.351536
          ],
          [
            4.82709,
            52.351536
          ],
          [
            4.826972,
            52.351532
          ],
          [
            4.826917,
            52.351528
          ],
          [
            4.826776,
            52.351528
          ],
          [
            4.82666,
            52.351528
          ],
          [
            4.826614,
            52.351528
          ],
          [
            4.826448,
            52.351524
          ],
          [
            4.826318,
            52.351521
          ],
          [
            4.826262,
            52.351517
          ],
          [
            4.826116,
            52.351513
          ],
          [
            4.825974,
            52.351509
          ],
          [
            4.825837,
            52.351501
          ],
          [
            4.825762,
            52.351505
          ],
          [
            4.825731,
            52.351501
          ],
          [
            4.825586,
            52.351505
          ],
          [
            4.825466,
            52.351501
          ],
          [
            4.825359,
            52.351498
          ],
          [
            4.825226,
            52.351498
          ],
          [
            4.825143,
            52.351498
          ],
          [
            4.824986,
            52.351494
          ],
          [
            4.824889,
            52.351494
          ],
          [
            4.824768,
            52.35149
          ],
          [
            4.824691,
            52.351482
          ],
          [
            4.824549,
            52.351479
          ],
          [
            4.824492,
            52.351475
          ],
          [
            4.824339,
            52.351475
          ],
          [
            4.824233,
            52.351471
          ],
          [
            4.824129,
            52.351471
          ],
          [
            4.824045,
            52.351475
          ],
          [
            4.823936,
            52.351471
          ],
          [
            4.823825,
            52.351467
          ],
          [
            4.823713,
            52.351467
          ],
          [
            4.823613,
            52.351463
          ],
          [
            4.823512,
            52.351463
          ],
          [
            4.823429,
            52.351467
          ],
          [
            4.823305,
            52.351448
          ],
          [
            4.823205,
            52.351448
          ],
          [
            4.8231,
            52.351448
          ],
          [
            4.823001,
            52.35144
          ],
          [
            4.822917,
            52.351437
          ],
          [
            4.822794,
            52.351437
          ],
          [
            4.822707,
            52.351437
          ],
          [
            4.822616,
            52.351433
          ],
          [
            4.822505,
            52.351433
          ],
          [
            4.822417,
            52.351429
          ],
          [
            4.822292,
            52.351425
          ],
          [
            4.822194,
            52.351425
          ],
          [
            4.822089,
            52.351425
          ],
          [
            4.821992,
            52.351421
          ],
          [
            4.821915,
            52.351421
          ],
          [
            4.821851,
            52.351421
          ],
          [
            4.821691,
            52.351421
          ],
          [
            4.821595,
            52.351425
          ],
          [
            4.821488,
            52.351425
          ],
          [
            4.821407,
            52.351421
          ],
          [
            4.821286,
            52.351425
          ],
          [
            4.821187,
            52.351425
          ],
          [
            4.821083,
            52.351429
          ],
          [
            4.821067,
            52.351429
          ],
          [
            4.820881,
            52.351437
          ],
          [
            4.820801,
            52.351437
          ],
          [
            4.820674,
            52.351433
          ],
          [
            4.820591,
            52.351429
          ],
          [
            4.820545,
            52.351425
          ],
          [
            4.820352,
            52.351418
          ],
          [
            4.820296,
            52.351414
          ],
          [
            4.820223,
            52.35141
          ],
          [
            4.820033,
            52.351402
          ],
          [
            4.819932,
            52.351402
          ],
          [
            4.819826,
            52.351406
          ],
          [
            4.819752,
            52.35141
          ],
          [
            4.819669,
            52.35141
          ],
          [
            4.819528,
            52.351406
          ],
          [
            4.819417,
            52.351406
          ],
          [
            4.819395,
            52.351406
          ],
          [
            4.819216,
            52.351402
          ],
          [
            4.819115,
            52.351402
          ],
          [
            4.819019,
            52.351406
          ],
          [
            4.818967,
            52.351406
          ],
          [
            4.818796,
            52.351398
          ],
          [
            4.818769,
            52.351398
          ],
          [
            4.818592,
            52.351395
          ],
          [
            4.818479,
            52.351391
          ],
          [
            4.818381,
            52.351395
          ],
          [
            4.818278,
            52.351398
          ],
          [
            4.818181,
            52.351398
          ],
          [
            4.818146,
            52.351398
          ],
          [
            4.817985,
            52.351395
          ],
          [
            4.817865,
            52.351391
          ],
          [
            4.817786,
            52.351387
          ],
          [
            4.817652,
            52.351383
          ],
          [
            4.817553,
            52.351379
          ],
          [
            4.817461,
            52.351379
          ],
          [
            4.817346,
            52.351383
          ],
          [
            4.817243,
            52.351383
          ],
          [
            4.817222,
            52.351383
          ],
          [
            4.817041,
            52.351376
          ],
          [
            4.816936,
            52.351372
          ],
          [
            4.816835,
            52.351372
          ],
          [
            4.816763,
            52.351376
          ],
          [
            4.816627,
            52.351376
          ],
          [
            4.816526,
            52.351372
          ],
          [
            4.816422,
            52.351372
          ],
          [
            4.81632,
            52.351368
          ],
          [
            4.816242,
            52.351368
          ],
          [
            4.816113,
            52.351364
          ],
          [
            4.816013,
            52.351364
          ],
          [
            4.815909,
            52.35136
          ],
          [
            4.815807,
            52.35136
          ],
          [
            4.815724,
            52.35136
          ],
          [
            4.815605,
            52.351364
          ],
          [
            4.815508,
            52.351364
          ],
          [
            4.815406,
            52.351364
          ],
          [
            4.815304,
            52.351364
          ],
          [
            4.815231,
            52.351364
          ],
          [
            4.815099,
            52.35136
          ],
          [
            4.815016,
            52.351353
          ],
          [
            4.814896,
            52.351345
          ],
          [
            4.814793,
            52.351341
          ],
          [
            4.814691,
            52.351341
          ],
          [
            4.814632,
            52.351337
          ],
          [
            4.814495,
            52.351334
          ],
          [
            4.814384,
            52.35133
          ],
          [
            4.814284,
            52.351322
          ],
          [
            4.81418,
            52.351311
          ],
          [
            4.814107,
            52.351303
          ],
          [
            4.813976,
            52.351292
          ],
          [
            4.813877,
            52.351284
          ],
          [
            4.813774,
            52.351276
          ],
          [
            4.813672,
            52.351269
          ],
          [
            4.813604,
            52.351261
          ],
          [
            4.813468,
            52.35125
          ],
          [
            4.813369,
            52.351238
          ],
          [
            4.813267,
            52.351227
          ],
          [
            4.813166,
            52.351219
          ],
          [
            4.813067,
            52.351208
          ],
          [
            4.813001,
            52.3512
          ],
          [
            4.812869,
            52.351177
          ],
          [
            4.812768,
            52.351162
          ],
          [
            4.812669,
            52.351143
          ],
          [
            4.812571,
            52.351124
          ],
          [
            4.812493,
            52.351112
          ],
          [
            4.812374,
            52.351093
          ],
          [
            4.812273,
            52.351078
          ],
          [
            4.812166,
            52.351055
          ],
          [
            4.812071,
            52.351032
          ],
          [
            4.811989,
            52.351017
          ],
          [
            4.811875,
            52.35099
          ],
          [
            4.81178,
            52.350967
          ],
          [
            4.811686,
            52.350941
          ],
          [
            4.811593,
            52.350922
          ],
          [
            4.811506,
            52.350925
          ],
          [
            4.811435,
            52.350941
          ],
          [
            4.811367,
            52.350952
          ],
          [
            4.811272,
            52.350964
          ],
          [
            4.811173,
            52.35096
          ],
          [
            4.811044,
            52.350929
          ],
          [
            4.810981,
            52.350891
          ],
          [
            4.810935,
            52.350849
          ],
          [
            4.810872,
            52.350811
          ],
          [
            4.81079,
            52.350784
          ],
          [
            4.810684,
            52.350758
          ],
          [
            4.810586,
            52.350742
          ],
          [
            4.810506,
            52.350735
          ],
          [
            4.810473,
            52.350731
          ],
          [
            4.810369,
            52.350719
          ],
          [
            4.810268,
            52.350704
          ],
          [
            4.810137,
            52.350674
          ],
          [
            4.810003,
            52.350639
          ],
          [
            4.809901,
            52.350609
          ],
          [
            4.809818,
            52.35059
          ],
          [
            4.80971,
            52.350563
          ],
          [
            4.809613,
            52.350544
          ],
          [
            4.809515,
            52.350525
          ],
          [
            4.80942,
            52.350506
          ],
          [
            4.809336,
            52.350491
          ],
          [
            4.809223,
            52.350468
          ],
          [
            4.809127,
            52.350445
          ],
          [
            4.809032,
            52.350426
          ],
          [
            4.808937,
            52.350407
          ],
          [
            4.808853,
            52.350391
          ],
          [
            4.808738,
            52.350368
          ],
          [
            4.80864,
            52.350349
          ],
          [
            4.808545,
            52.35033
          ],
          [
            4.808454,
            52.350311
          ],
          [
            4.808372,
            52.350292
          ],
          [
            4.808261,
            52.350269
          ],
          [
            4.808165,
            52.35025
          ],
          [
            4.80807,
            52.350231
          ],
          [
            4.807976,
            52.350212
          ],
          [
            4.807898,
            52.350197
          ],
          [
            4.807778,
            52.35017
          ],
          [
            4.807679,
            52.350151
          ],
          [
            4.807585,
            52.350132
          ],
          [
            4.807484,
            52.350113
          ],
          [
            4.807413,
            52.350098
          ],
          [
            4.807285,
            52.350071
          ],
          [
            4.80719,
            52.350052
          ],
          [
            4.807094,
            52.350033
          ],
          [
            4.806998,
            52.35001
          ],
          [
            4.806917,
            52.349995
          ],
          [
            4.806805,
            52.349972
          ],
          [
            4.806711,
            52.349953
          ],
          [
            4.806615,
            52.34993
          ],
          [
            4.80654,
            52.349915
          ],
          [
            4.806483,
            52.349903
          ],
          [
            4.806379,
            52.34988
          ],
          [
            4.806295,
            52.349865
          ],
          [
            4.806205,
            52.349846
          ],
          [
            4.806114,
            52.349827
          ],
          [
            4.80606,
            52.349815
          ],
          [
            4.805931,
            52.349789
          ],
          [
            4.805834,
            52.34977
          ],
          [
            4.805734,
            52.349747
          ],
          [
            4.805635,
            52.349724
          ],
          [
            4.80554,
            52.349701
          ],
          [
            4.805526,
            52.349701
          ],
          [
            4.805358,
            52.349667
          ],
          [
            4.805241,
            52.349644
          ],
          [
            4.80514,
            52.349625
          ],
          [
            4.805049,
            52.349606
          ],
          [
            4.804974,
            52.349594
          ],
          [
            4.804852,
            52.349571
          ],
          [
            4.804749,
            52.349552
          ],
          [
            4.804656,
            52.349533
          ],
          [
            4.804556,
            52.34951
          ],
          [
            4.804483,
            52.349499
          ],
          [
            4.804365,
            52.349476
          ],
          [
            4.804274,
            52.349457
          ],
          [
            4.804208,
            52.349442
          ],
          [
            4.804079,
            52.349419
          ],
          [
            4.803976,
            52.3494
          ],
          [
            4.803876,
            52.349381
          ],
          [
            4.803786,
            52.349361
          ],
          [
            4.803686,
            52.349346
          ],
          [
            4.803589,
            52.349327
          ],
          [
            4.803549,
            52.349319
          ],
          [
            4.80345,
            52.3493
          ],
          [
            4.803371,
            52.349285
          ],
          [
            4.803284,
            52.349266
          ],
          [
            4.803177,
            52.349247
          ],
          [
            4.803113,
            52.349236
          ],
          [
            4.802979,
            52.349205
          ],
          [
            4.802863,
            52.349182
          ],
          [
            4.802743,
            52.349159
          ],
          [
            4.802624,
            52.349136
          ],
          [
            4.802511,
            52.349113
          ],
          [
            4.802433,
            52.349098
          ],
          [
            4.802296,
            52.349071
          ],
          [
            4.802183,
            52.349049
          ],
          [
            4.802093,
            52.349033
          ],
          [
            4.801994,
            52.34901
          ],
          [
            4.801925,
            52.348999
          ],
          [
            4.801818,
            52.34898
          ],
          [
            4.801703,
            52.348953
          ],
          [
            4.8016,
            52.34893
          ],
          [
            4.801502,
            52.348911
          ],
          [
            4.801445,
            52.3489
          ],
          [
            4.801317,
            52.348873
          ],
          [
            4.801207,
            52.34885
          ],
          [
            4.80111,
            52.348835
          ],
          [
            4.801017,
            52.348816
          ],
          [
            4.800953,
            52.348801
          ],
          [
            4.800824,
            52.348778
          ],
          [
            4.800724,
            52.348759
          ],
          [
            4.80063,
            52.348736
          ],
          [
            4.800537,
            52.348717
          ],
          [
            4.80047,
            52.348702
          ],
          [
            4.800349,
            52.348667
          ],
          [
            4.800242,
            52.348644
          ],
          [
            4.800163,
            52.348621
          ],
          [
            4.800075,
            52.348598
          ],
          [
            4.799995,
            52.348576
          ],
          [
            4.799892,
            52.348541
          ],
          [
            4.799792,
            52.348511
          ],
          [
            4.799697,
            52.34848
          ],
          [
            4.799613,
            52.348446
          ],
          [
            4.799521,
            52.348412
          ],
          [
            4.799438,
            52.348377
          ],
          [
            4.799348,
            52.348343
          ],
          [
            4.799262,
            52.348312
          ],
          [
            4.799189,
            52.348282
          ],
          [
            4.7991,
            52.348251
          ],
          [
            4.799006,
            52.348213
          ],
          [
            4.798916,
            52.348175
          ],
          [
            4.798827,
            52.348137
          ],
          [
            4.798758,
            52.348106
          ],
          [
            4.798699,
            52.348076
          ],
          [
            4.79861,
            52.348034
          ],
          [
            4.798523,
            52.347992
          ],
          [
            4.798434,
            52.347958
          ],
          [
            4.798353,
            52.347942
          ],
          [
            4.798315,
            52.347935
          ],
          [
            4.798161,
            52.347923
          ],
          [
            4.79797,
            52.347877
          ],
          [
            4.797915,
            52.347851
          ],
          [
            4.79786,
            52.347805
          ],
          [
            4.797828,
            52.347755
          ],
          [
            4.797807,
            52.347706
          ],
          [
            4.797781,
            52.347645
          ],
          [
            4.797736,
            52.347584
          ],
          [
            4.797676,
            52.34753
          ],
          [
            4.797605,
            52.347477
          ],
          [
            4.797536,
            52.347431
          ],
          [
            4.797465,
            52.347382
          ],
          [
            4.7974,
            52.347336
          ],
          [
            4.797336,
            52.34729
          ],
          [
            4.797296,
            52.347259
          ],
          [
            4.79723,
            52.34721
          ],
          [
            4.79716,
            52.347153
          ],
          [
            4.797092,
            52.347099
          ],
          [
            4.797018,
            52.347042
          ],
          [
            4.796954,
            52.346993
          ],
          [
            4.796897,
            52.346947
          ],
          [
            4.796848,
            52.346905
          ],
          [
            4.796793,
            52.346851
          ],
          [
            4.796732,
            52.34679
          ],
          [
            4.796674,
            52.346733
          ],
          [
            4.796617,
            52.346676
          ],
          [
            4.796562,
            52.346622
          ],
          [
            4.796505,
            52.346558
          ],
          [
            4.796453,
            52.346497
          ],
          [
            4.796408,
            52.346443
          ],
          [
            4.796371,
            52.346394
          ],
          [
            4.796338,
            52.346344
          ],
          [
            4.79631,
            52.346306
          ],
          [
            4.796268,
            52.346245
          ],
          [
            4.796236,
            52.346199
          ],
          [
            4.796203,
            52.346149
          ],
          [
            4.796168,
            52.346096
          ],
          [
            4.796135,
            52.34605
          ],
          [
            4.796087,
            52.345978
          ],
          [
            4.796044,
            52.345913
          ],
          [
            4.796002,
            52.345852
          ],
          [
            4.795962,
            52.345779
          ],
          [
            4.79592,
            52.345707
          ],
          [
            4.795886,
            52.34565
          ],
          [
            4.795847,
            52.345592
          ],
          [
            4.795808,
            52.345531
          ],
          [
            4.795772,
            52.345478
          ],
          [
            4.795735,
            52.345413
          ],
          [
            4.795692,
            52.345345
          ],
          [
            4.795656,
            52.345284
          ],
          [
            4.795621,
            52.345226
          ],
          [
            4.795583,
            52.345169
          ],
          [
            4.795542,
            52.345104
          ],
          [
            4.795506,
            52.345039
          ],
          [
            4.795471,
            52.344982
          ],
          [
            4.795437,
            52.344925
          ],
          [
            4.795406,
            52.344868
          ],
          [
            4.795379,
            52.344814
          ],
          [
            4.795334,
            52.344704
          ],
          [
            4.795316,
            52.344646
          ],
          [
            4.795301,
            52.344593
          ],
          [
            4.795284,
            52.344524
          ],
          [
            4.795277,
            52.344471
          ],
          [
            4.79527,
            52.344418
          ],
          [
            4.79526,
            52.344349
          ],
          [
            4.795244,
            52.344276
          ],
          [
            4.795218,
            52.344215
          ],
          [
            4.795184,
            52.344158
          ],
          [
            4.795159,
            52.344109
          ],
          [
            4.795118,
            52.344051
          ],
          [
            4.79508,
            52.343994
          ],
          [
            4.795045,
            52.343941
          ],
          [
            4.795002,
            52.34388
          ],
          [
            4.794973,
            52.34383
          ],
          [
            4.794931,
            52.343773
          ],
          [
            4.794881,
            52.343693
          ],
          [
            4.794824,
            52.343609
          ],
          [
            4.794807,
            52.343586
          ],
          [
            4.794779,
            52.343544
          ],
          [
            4.794739,
            52.343487
          ],
          [
            4.794694,
            52.343418
          ],
          [
            4.794653,
            52.343353
          ],
          [
            4.794614,
            52.343296
          ],
          [
            4.79458,
            52.343243
          ],
          [
            4.794513,
            52.343151
          ],
          [
            4.79447,
            52.34309
          ],
          [
            4.794428,
            52.343033
          ],
          [
            4.794388,
            52.342976
          ],
          [
            4.794352,
            52.342926
          ],
          [
            4.794313,
            52.342865
          ],
          [
            4.794277,
            52.342808
          ],
          [
            4.794241,
            52.342751
          ],
          [
            4.794203,
            52.34269
          ],
          [
            4.794164,
            52.342628
          ],
          [
            4.794124,
            52.342575
          ],
          [
            4.794082,
            52.342514
          ],
          [
            4.794039,
            52.342457
          ],
          [
            4.793998,
            52.3424
          ],
          [
            4.793956,
            52.342346
          ],
          [
            4.793911,
            52.342293
          ],
          [
            4.793857,
            52.342236
          ],
          [
            4.793798,
            52.342182
          ],
          [
            4.793734,
            52.342133
          ],
          [
            4.793669,
            52.342087
          ],
          [
            4.793602,
            52.342041
          ],
          [
            4.793528,
            52.341995
          ],
          [
            4.793452,
            52.341953
          ],
          [
            4.793373,
            52.341911
          ],
          [
            4.793292,
            52.341873
          ],
          [
            4.793217,
            52.341835
          ],
          [
            4.793136,
            52.341797
          ],
          [
            4.79306,
            52.341755
          ],
          [
            4.792987,
            52.341709
          ],
          [
            4.79292,
            52.341663
          ],
          [
            4.79286,
            52.341618
          ],
          [
            4.792806,
            52.34156
          ],
          [
            4.792758,
            52.341507
          ],
          [
            4.792714,
            52.34145
          ],
          [
            4.792672,
            52.3414
          ],
          [
            4.792631,
            52.341347
          ],
          [
            4.792586,
            52.341286
          ],
          [
            4.792543,
            52.341228
          ],
          [
            4.792502,
            52.341171
          ],
          [
            4.792463,
            52.341114
          ],
          [
            4.792428,
            52.341061
          ],
          [
            4.792392,
            52.341003
          ],
          [
            4.792353,
            52.34095
          ],
          [
            4.792307,
            52.340893
          ],
          [
            4.792253,
            52.340843
          ],
          [
            4.79219,
            52.340797
          ],
          [
            4.792119,
            52.340759
          ],
          [
            4.792046,
            52.340721
          ],
          [
            4.791973,
            52.340687
          ],
          [
            4.791905,
            52.340664
          ],
          [
            4.791849,
            52.340649
          ],
          [
            4.791802,
            52.340656
          ],
          [
            4.791747,
            52.340672
          ],
          [
            4.7917,
            52.340702
          ],
          [
            4.791662,
            52.340748
          ],
          [
            4.791617,
            52.340782
          ],
          [
            4.791563,
            52.340816
          ],
          [
            4.791509,
            52.340862
          ],
          [
            4.791462,
            52.340908
          ],
          [
            4.791412,
            52.340958
          ],
          [
            4.791358,
            52.341003
          ],
          [
            4.7913,
            52.341049
          ],
          [
            4.791242,
            52.341076
          ],
          [
            4.791177,
            52.341095
          ],
          [
            4.791117,
            52.341103
          ],
          [
            4.791016,
            52.341099
          ],
          [
            4.790908,
            52.34108
          ],
          [
            4.790798,
            52.341038
          ],
          [
            4.790716,
            52.340996
          ],
          [
            4.790635,
            52.340954
          ],
          [
            4.790558,
            52.340912
          ],
          [
            4.79048,
            52.340862
          ],
          [
            4.79041,
            52.340816
          ],
          [
            4.790336,
            52.340767
          ],
          [
            4.790277,
            52.340717
          ],
          [
            4.790208,
            52.340668
          ],
          [
            4.790134,
            52.340622
          ],
          [
            4.79007,
            52.340572
          ],
          [
            4.790021,
            52.340542
          ],
          [
            4.789914,
            52.340469
          ],
          [
            4.78984,
            52.340427
          ],
          [
            4.789769,
            52.340374
          ],
          [
            4.789698,
            52.340328
          ],
          [
            4.789624,
            52.340275
          ],
          [
            4.789552,
            52.340225
          ],
          [
            4.789481,
            52.340176
          ],
          [
            4.789406,
            52.340126
          ],
          [
            4.789336,
            52.340076
          ],
          [
            4.789262,
            52.340027
          ],
          [
            4.789191,
            52.339981
          ],
          [
            4.789124,
            52.339932
          ],
          [
            4.789053,
            52.339882
          ],
          [
            4.788979,
            52.339832
          ],
          [
            4.78891,
            52.339783
          ],
          [
            4.788838,
            52.339733
          ],
          [
            4.788769,
            52.339684
          ],
          [
            4.788694,
            52.339634
          ],
          [
            4.78862,
            52.339584
          ],
          [
            4.788543,
            52.339539
          ],
          [
            4.788468,
            52.339489
          ],
          [
            4.788402,
            52.339443
          ],
          [
            4.788336,
            52.339397
          ],
          [
            4.788261,
            52.339344
          ],
          [
            4.78818,
            52.339298
          ],
          [
            4.7881,
            52.339256
          ],
          [
            4.78801,
            52.339218
          ],
          [
            4.787922,
            52.339184
          ],
          [
            4.787827,
            52.339153
          ],
          [
            4.787735,
            52.339123
          ],
          [
            4.787642,
            52.339092
          ],
          [
            4.787566,
            52.339081
          ],
          [
            4.787447,
            52.339054
          ],
          [
            4.787354,
            52.339035
          ],
          [
            4.78726,
            52.339016
          ],
          [
            4.787164,
            52.338997
          ],
          [
            4.787083,
            52.338982
          ],
          [
            4.786966,
            52.338955
          ],
          [
            4.786875,
            52.33894
          ],
          [
            4.786778,
            52.338917
          ],
          [
            4.786685,
            52.338902
          ],
          [
            4.786608,
            52.338886
          ],
          [
            4.786485,
            52.33886
          ],
          [
            4.786387,
            52.338837
          ],
          [
            4.786292,
            52.338814
          ],
          [
            4.786204,
            52.338791
          ],
          [
            4.786132,
            52.338776
          ],
          [
            4.786005,
            52.338745
          ],
          [
            4.785906,
            52.338722
          ],
          [
            4.78581,
            52.338707
          ],
          [
            4.785734,
            52.338688
          ],
          [
            4.785617,
            52.338661
          ],
          [
            4.785542,
            52.338646
          ],
          [
            4.785423,
            52.338623
          ],
          [
            4.785328,
            52.338604
          ],
          [
            4.785231,
            52.338589
          ],
          [
            4.785157,
            52.338573
          ],
          [
            4.785036,
            52.338543
          ],
          [
            4.784937,
            52.33852
          ],
          [
            4.784844,
            52.338501
          ],
          [
            4.78475,
            52.338478
          ],
          [
            4.784681,
            52.338467
          ],
          [
            4.784563,
            52.338444
          ],
          [
            4.784464,
            52.338421
          ],
          [
            4.784366,
            52.338402
          ],
          [
            4.784265,
            52.338383
          ],
          [
            4.784182,
            52.338364
          ],
          [
            4.784087,
            52.338345
          ],
          [
            4.783991,
            52.338322
          ],
          [
            4.783896,
            52.338299
          ],
          [
            4.783804,
            52.338272
          ],
          [
            4.783717,
            52.338242
          ],
          [
            4.783638,
            52.338207
          ],
          [
            4.783555,
            52.338169
          ],
          [
            4.783479,
            52.338127
          ],
          [
            4.783406,
            52.338085
          ],
          [
            4.783335,
            52.338039
          ],
          [
            4.783267,
            52.337997
          ],
          [
            4.783194,
            52.337952
          ],
          [
            4.783121,
            52.337906
          ],
          [
            4.78305,
            52.337856
          ],
          [
            4.782979,
            52.33781
          ],
          [
            4.782913,
            52.337769
          ],
          [
            4.782838,
            52.337723
          ],
          [
            4.782756,
            52.337685
          ],
          [
            4.782671,
            52.33765
          ],
          [
            4.782582,
            52.337616
          ],
          [
            4.782493,
            52.337585
          ],
          [
            4.782404,
            52.337559
          ],
          [
            4.78231,
            52.337532
          ],
          [
            4.782225,
            52.337513
          ],
          [
            4.782119,
            52.337494
          ],
          [
            4.782022,
            52.337479
          ],
          [
            4.781929,
            52.337471
          ],
          [
            4.781825,
            52.337471
          ],
          [
            4.781758,
            52.337467
          ],
          [
            4.781621,
            52.337463
          ],
          [
            4.781511,
            52.337467
          ],
          [
            4.781418,
            52.337475
          ],
          [
            4.781318,
            52.337482
          ],
          [
            4.781237,
            52.337498
          ],
          [
            4.781123,
            52.337517
          ],
          [
            4.781027,
            52.337536
          ],
          [
            4.780938,
            52.337555
          ],
          [
            4.780843,
            52.337585
          ],
          [
            4.780752,
            52.337616
          ],
          [
            4.780656,
            52.337639
          ],
          [
            4.780566,
            52.337666
          ],
          [
            4.780478,
            52.337692
          ],
          [
            4.780385,
            52.337723
          ],
          [
            4.780299,
            52.337749
          ],
          [
            4.780198,
            52.33778
          ],
          [
            4.780108,
            52.33781
          ],
          [
            4.780019,
            52.337833
          ],
          [
            4.779928,
            52.337856
          ],
          [
            4.779839,
            52.337883
          ],
          [
            4.779751,
            52.337913
          ],
          [
            4.779668,
            52.337936
          ],
          [
            4.779584,
            52.337963
          ],
          [
            4.779504,
            52.337994
          ],
          [
            4.779427,
            52.338032
          ],
          [
            4.779353,
            52.338074
          ],
          [
            4.779274,
            52.338116
          ],
          [
            4.779193,
            52.338158
          ],
          [
            4.779114,
            52.338196
          ],
          [
            4.779031,
            52.338238
          ],
          [
            4.778952,
            52.33828
          ],
          [
            4.778878,
            52.338318
          ],
          [
            4.778808,
            52.338352
          ],
          [
            4.778742,
            52.33839
          ],
          [
            4.778703,
            52.338421
          ],
          [
            4.778654,
            52.338448
          ],
          [
            4.778593,
            52.338478
          ],
          [
            4.778527,
            52.338509
          ],
          [
            4.778456,
            52.338535
          ],
          [
            4.77838,
            52.338562
          ],
          [
            4.778321,
            52.338585
          ],
          [
            4.778272,
            52.338608
          ],
          [
            4.778242,
            52.338627
          ],
          [
            4.77823,
            52.338646
          ],
          [
            4.778243,
            52.338661
          ],
          [
            4.77825,
            52.338669
          ],
          [
            4.778256,
            52.338673
          ],
          [
            4.778273,
            52.33868
          ],
          [
            4.778293,
            52.338692
          ],
          [
            4.778488,
            52.338783
          ],
          [
            4.778536,
            52.338814
          ],
          [
            4.778587,
            52.33884
          ],
          [
            4.778637,
            52.338871
          ],
          [
            4.77868,
            52.338902
          ],
          [
            4.778718,
            52.338932
          ],
          [
            4.778745,
            52.33897
          ],
          [
            4.778769,
            52.339008
          ],
          [
            4.778785,
            52.339039
          ],
          [
            4.778806,
            52.339077
          ],
          [
            4.778819,
            52.339104
          ],
          [
            4.778836,
            52.339138
          ],
          [
            4.77885,
            52.339176
          ],
          [
            4.778868,
            52.339203
          ],
          [
            4.778891,
            52.339233
          ],
          [
            4.778912,
            52.33926
          ],
          [
            4.778931,
            52.339294
          ],
          [
            4.778947,
            52.339325
          ],
          [
            4.778955,
            52.339359
          ],
          [
            4.778945,
            52.339386
          ],
          [
            4.778943,
            52.339413
          ],
          [
            4.778955,
            52.339436
          ],
          [
            4.778974,
            52.339455
          ],
          [
            4.778997,
            52.339474
          ],
          [
            4.779028,
            52.339493
          ],
          [
            4.77904,
            52.339508
          ],
          [
            4.779027,
            52.339516
          ],
          [
            4.779027,
            52.339516
          ],
          [
            4.779027,
            52.339516
          ],
          [
            4.779136,
            52.339466
          ],
          [
            4.779136,
            52.339466
          ],
          [
            4.779136,
            52.339466
          ],
          [
            4.779136,
            52.339466
          ],
          [
            4.779151,
            52.339447
          ],
          [
            4.779151,
            52.339447
          ],
          [
            4.779151,
            52.339447
          ]
        ]
      }
    }
  ]
}