{
  "type": "FeatureCollection",
  "features": [
    {
      "type": "Feature",
      "properties": {
        "id": "bosch-ebike-tour-8880df80-7baa-11f1-8ad1-a40dbc8fa83a",
        "title": "Bosch eBike Tour",
        "source": "Bosch eBike Tour-8880df80-7baa-11f1-8ad1-a40dbc8fa83a.fit"
      },
      "geometry": {
        "type": "LineString",
        "coordinates": [
          [
            4.748704,
            52.407391
          ],
          [
            4.748674,
            52.407394
          ],
          [
            4.748626,
            52.407406
          ],
          [
            4.748573,
            52.407413
          ],
          [
            4.748518,
            52.407421
          ],
          [
            4.74846,
            52.407425
          ],
          [
            4.748407,
            52.407433
          ],
          [
            4.748355,
            52.40744
          ],
          [
            4.748242,
            52.407455
          ],
          [
            4.748178,
            52.407463
          ],
          [
            4.748121,
            52.407471
          ],
          [
            4.748062,
            52.407474
          ],
          [
            4.748003,
            52.407482
          ],
          [
            4.747947,
            52.40749
          ],
          [
            4.747894,
            52.407501
          ],
          [
            4.747845,
            52.407505
          ],
          [
            4.747801,
            52.407509
          ],
          [
            4.747756,
            52.407516
          ],
          [
            4.747717,
            52.40752
          ],
          [
            4.747673,
            52.407524
          ],
          [
            4.747631,
            52.407528
          ],
          [
            4.747592,
            52.407532
          ],
          [
            4.74755,
            52.407536
          ],
          [
            4.747512,
            52.407539
          ],
          [
            4.747467,
            52.407543
          ],
          [
            4.747425,
            52.407551
          ],
          [
            4.747354,
            52.407562
          ],
          [
            4.747317,
            52.40757
          ],
          [
            4.747235,
            52.407578
          ],
          [
            4.747196,
            52.407581
          ],
          [
            4.747155,
            52.407585
          ],
          [
            4.747117,
            52.407593
          ],
          [
            4.747079,
            52.407597
          ],
          [
            4.747043,
            52.407604
          ],
          [
            4.746996,
            52.407608
          ],
          [
            4.746947,
            52.407612
          ],
          [
            4.746902,
            52.407619
          ],
          [
            4.746857,
            52.407631
          ],
          [
            4.746814,
            52.407635
          ],
          [
            4.746769,
            52.407639
          ],
          [
            4.74673,
            52.407642
          ],
          [
            4.746643,
            52.407654
          ],
          [
            4.746605,
            52.407658
          ],
          [
            4.746562,
            52.407665
          ],
          [
            4.746522,
            52.407669
          ],
          [
            4.746483,
            52.407673
          ],
          [
            4.746429,
            52.407684
          ],
          [
            4.746372,
            52.407688
          ],
          [
            4.746314,
            52.407696
          ],
          [
            4.746253,
            52.407703
          ],
          [
            4.746199,
            52.407711
          ],
          [
            4.746145,
            52.407719
          ],
          [
            4.746095,
            52.407726
          ],
          [
            4.746041,
            52.407734
          ],
          [
            4.74599,
            52.407745
          ],
          [
            4.745939,
            52.407749
          ],
          [
            4.745881,
            52.407757
          ],
          [
            4.745818,
            52.407764
          ],
          [
            4.745756,
            52.407776
          ],
          [
            4.745694,
            52.407784
          ],
          [
            4.745634,
            52.407791
          ],
          [
            4.745574,
            52.407799
          ],
          [
            4.745512,
            52.407806
          ],
          [
            4.745458,
            52.40781
          ],
          [
            4.745401,
            52.407818
          ],
          [
            4.745346,
            52.407825
          ],
          [
            4.745289,
            52.407829
          ],
          [
            4.745234,
            52.407837
          ],
          [
            4.745183,
            52.407848
          ],
          [
            4.745132,
            52.407852
          ],
          [
            4.74508,
            52.407856
          ],
          [
            4.745025,
            52.40786
          ],
          [
            4.744926,
            52.407871
          ],
          [
            4.744874,
            52.407879
          ],
          [
            4.744772,
            52.407887
          ],
          [
            4.744738,
            52.40789
          ],
          [
            4.744738,
            52.40789
          ],
          [
            4.744738,
            52.40789
          ],
          [
            4.7447,
            52.407902
          ],
          [
            4.7447,
            52.407902
          ],
          [
            4.7447,
            52.407902
          ],
          [
            4.74473,
            52.407921
          ],
          [
            4.744742,
            52.407913
          ],
          [
            4.744742,
            52.407913
          ],
          [
            4.744742,
            52.407913
          ],
          [
            4.744742,
            52.407913
          ],
          [
            4.744783,
            52.407894
          ],
          [
            4.744783,
            52.407894
          ],
          [
            4.744821,
            52.407887
          ],
          [
            4.744849,
            52.407879
          ],
          [
            4.744891,
            52.407875
          ],
          [
            4.744948,
            52.407867
          ],
          [
            4.745008,
            52.407864
          ],
          [
            4.745074,
            52.407856
          ],
          [
            4.74514,
            52.407848
          ],
          [
            4.745211,
            52.407841
          ],
          [
            4.745283,
            52.407833
          ],
          [
            4.745359,
            52.407822
          ],
          [
            4.745429,
            52.40781
          ],
          [
            4.745513,
            52.407799
          ],
          [
            4.74559,
            52.407787
          ],
          [
            4.745672,
            52.407776
          ],
          [
            4.745755,
            52.407768
          ],
          [
            4.745835,
            52.407757
          ],
          [
            4.745913,
            52.407749
          ],
          [
            4.745995,
            52.407738
          ],
          [
            4.746079,
            52.407726
          ],
          [
            4.74616,
            52.407715
          ],
          [
            4.746244,
            52.407703
          ],
          [
            4.74633,
            52.407692
          ],
          [
            4.746411,
            52.407684
          ],
          [
            4.746495,
            52.407673
          ],
          [
            4.746578,
            52.407665
          ],
          [
            4.746649,
            52.407658
          ],
          [
            4.746731,
            52.407646
          ],
          [
            4.7468,
            52.407635
          ],
          [
            4.746878,
            52.407623
          ],
          [
            4.746951,
            52.407616
          ],
          [
            4.747031,
            52.407604
          ],
          [
            4.74711,
            52.407593
          ],
          [
            4.747195,
            52.407581
          ],
          [
            4.747274,
            52.40757
          ],
          [
            4.747357,
            52.407558
          ],
          [
            4.747444,
            52.407547
          ],
          [
            4.747525,
            52.407539
          ],
          [
            4.747611,
            52.407524
          ],
          [
            4.747695,
            52.407513
          ],
          [
            4.747774,
            52.407505
          ],
          [
            4.747856,
            52.407494
          ],
          [
            4.747936,
            52.407486
          ],
          [
            4.748003,
            52.407478
          ],
          [
            4.748081,
            52.407452
          ],
          [
            4.748116,
            52.407417
          ],
          [
            4.748113,
            52.407372
          ],
          [
            4.748101,
            52.407326
          ],
          [
            4.748083,
            52.407276
          ],
          [
            4.748068,
            52.407227
          ],
          [
            4.748053,
            52.407177
          ],
          [
            4.748038,
            52.40712
          ],
          [
            4.748031,
            52.407066
          ],
          [
            4.748028,
            52.407009
          ],
          [
            4.748026,
            52.406948
          ],
          [
            4.748021,
            52.406891
          ],
          [
            4.748011,
            52.406834
          ],
          [
            4.747993,
            52.406776
          ],
          [
            4.747973,
            52.406715
          ],
          [
            4.747952,
            52.406654
          ],
          [
            4.747932,
            52.406597
          ],
          [
            4.747909,
            52.406532
          ],
          [
            4.747886,
            52.406467
          ],
          [
            4.747866,
            52.406406
          ],
          [
            4.747848,
            52.406345
          ],
          [
            4.747826,
            52.406284
          ],
          [
            4.747805,
            52.406223
          ],
          [
            4.747785,
            52.40617
          ],
          [
            4.747767,
            52.406113
          ],
          [
            4.747747,
            52.406059
          ],
          [
            4.747729,
            52.406006
          ],
          [
            4.747711,
            52.405952
          ],
          [
            4.747692,
            52.405903
          ],
          [
            4.747674,
            52.405853
          ],
          [
            4.747658,
            52.405807
          ],
          [
            4.747639,
            52.405758
          ],
          [
            4.747623,
            52.405716
          ],
          [
            4.747612,
            52.405678
          ],
          [
            4.747597,
            52.405632
          ],
          [
            4.747586,
            52.40559
          ],
          [
            4.747573,
            52.405548
          ],
          [
            4.74756,
            52.40551
          ],
          [
            4.747545,
            52.405476
          ],
          [
            4.747535,
            52.405441
          ],
          [
            4.747525,
            52.405407
          ],
          [
            4.747512,
            52.405376
          ],
          [
            4.747502,
            52.405346
          ],
          [
            4.747488,
            52.405315
          ],
          [
            4.747474,
            52.405277
          ],
          [
            4.747463,
            52.405243
          ],
          [
            4.747452,
            52.405209
          ],
          [
            4.747439,
            52.405174
          ],
          [
            4.747427,
            52.405132
          ],
          [
            4.747413,
            52.405094
          ],
          [
            4.747397,
            52.405056
          ],
          [
            4.747383,
            52.405018
          ],
          [
            4.747369,
            52.40498
          ],
          [
            4.747358,
            52.404945
          ],
          [
            4.747347,
            52.404907
          ],
          [
            4.747334,
            52.404873
          ],
          [
            4.747323,
            52.404835
          ],
          [
            4.747311,
            52.404797
          ],
          [
            4.747303,
            52.404751
          ],
          [
            4.7473,
            52.404713
          ],
          [
            4.747301,
            52.404671
          ],
          [
            4.747306,
            52.404629
          ],
          [
            4.747316,
            52.404583
          ],
          [
            4.747329,
            52.404545
          ],
          [
            4.747346,
            52.404503
          ],
          [
            4.747366,
            52.404461
          ],
          [
            4.74739,
            52.404415
          ],
          [
            4.747412,
            52.404377
          ],
          [
            4.747434,
            52.404339
          ],
          [
            4.747459,
            52.404293
          ],
          [
            4.747482,
            52.404247
          ],
          [
            4.747503,
            52.404205
          ],
          [
            4.747521,
            52.404163
          ],
          [
            4.747538,
            52.404118
          ],
          [
            4.747555,
            52.404083
          ],
          [
            4.747569,
            52.404045
          ],
          [
            4.747588,
            52.404003
          ],
          [
            4.747601,
            52.403965
          ],
          [
            4.747615,
            52.403923
          ],
          [
            4.747633,
            52.403881
          ],
          [
            4.747654,
            52.403839
          ],
          [
            4.747672,
            52.403797
          ],
          [
            4.747693,
            52.403744
          ],
          [
            4.747712,
            52.403702
          ],
          [
            4.74773,
            52.40366
          ],
          [
            4.747751,
            52.40361
          ],
          [
            4.747769,
            52.403568
          ],
          [
            4.747791,
            52.403519
          ],
          [
            4.747811,
            52.403477
          ],
          [
            4.747831,
            52.403431
          ],
          [
            4.747849,
            52.403381
          ],
          [
            4.747864,
            52.403336
          ],
          [
            4.747875,
            52.403294
          ],
          [
            4.747879,
            52.403255
          ],
          [
            4.747883,
            52.40321
          ],
          [
            4.747881,
            52.403168
          ],
          [
            4.747875,
            52.40313
          ],
          [
            4.747871,
            52.403084
          ],
          [
            4.747866,
            52.403046
          ],
          [
            4.747853,
            52.403
          ],
          [
            4.74784,
            52.402962
          ],
          [
            4.747826,
            52.40292
          ],
          [
            4.74781,
            52.402874
          ],
          [
            4.747794,
            52.402828
          ],
          [
            4.747776,
            52.402775
          ],
          [
            4.74776,
            52.402725
          ],
          [
            4.747739,
            52.402672
          ],
          [
            4.747722,
            52.402626
          ],
          [
            4.747704,
            52.402576
          ],
          [
            4.747684,
            52.402519
          ],
          [
            4.747666,
            52.40247
          ],
          [
            4.747652,
            52.402416
          ],
          [
            4.747631,
            52.402363
          ],
          [
            4.747611,
            52.402306
          ],
          [
            4.747593,
            52.402256
          ],
          [
            4.747576,
            52.402206
          ],
          [
            4.74756,
            52.402153
          ],
          [
            4.747542,
            52.4021
          ],
          [
            4.747524,
            52.402054
          ],
          [
            4.747506,
            52.402
          ],
          [
            4.747486,
            52.401955
          ],
          [
            4.747471,
            52.401905
          ],
          [
            4.747454,
            52.401852
          ],
          [
            4.747436,
            52.40181
          ],
          [
            4.747418,
            52.401756
          ],
          [
            4.747402,
            52.401703
          ],
          [
            4.747382,
            52.401646
          ],
          [
            4.747361,
            52.401596
          ],
          [
            4.747339,
            52.401546
          ],
          [
            4.74732,
            52.401497
          ],
          [
            4.747306,
            52.401447
          ],
          [
            4.747292,
            52.401402
          ]
        ]
      }
    }
  ]
}