{
  "type": "FeatureCollection",
  "features": [
    {
      "type": "Feature",
      "properties": {
        "id": "bosch-ebike-tour-a45d4300-8286-11f1-8ad1-a40dbc8fa83a",
        "title": "Bosch eBike Tour",
        "source": "Bosch eBike Tour-a45d4300-8286-11f1-8ad1-a40dbc8fa83a.fit"
      },
      "geometry": {
        "type": "LineString",
        "coordinates": [
          [
            4.779099,
            52.339439
          ],
          [
            4.779098,
            52.339439
          ],
          [
            4.779097,
            52.33942
          ],
          [
            4.779097,
            52.33942
          ],
          [
            4.779128,
            52.339554
          ],
          [
            4.779164,
            52.339603
          ],
          [
            4.77919,
            52.339615
          ],
          [
            4.779224,
            52.339638
          ],
          [
            4.779265,
            52.339657
          ],
          [
            4.77931,
            52.339676
          ],
          [
            4.77937,
            52.339695
          ],
          [
            4.779427,
            52.339729
          ],
          [
            4.779476,
            52.33976
          ],
          [
            4.779521,
            52.339798
          ],
          [
            4.779582,
            52.339836
          ],
          [
            4.779639,
            52.339886
          ],
          [
            4.779695,
            52.339932
          ],
          [
            4.779751,
            52.339973
          ],
          [
            4.779805,
            52.340027
          ],
          [
            4.779866,
            52.340076
          ],
          [
            4.779927,
            52.340126
          ],
          [
            4.779987,
            52.340172
          ],
          [
            4.780041,
            52.340221
          ],
          [
            4.780095,
            52.340271
          ],
          [
            4.780164,
            52.340321
          ],
          [
            4.780217,
            52.340378
          ],
          [
            4.780284,
            52.340424
          ],
          [
            4.780336,
            52.340477
          ],
          [
            4.780395,
            52.340527
          ],
          [
            4.78045,
            52.34058
          ],
          [
            4.780515,
            52.340626
          ],
          [
            4.780585,
            52.340668
          ],
          [
            4.780635,
            52.340706
          ],
          [
            4.78075,
            52.34074
          ],
          [
            4.780831,
            52.340733
          ],
          [
            4.780865,
            52.340691
          ],
          [
            4.780931,
            52.340591
          ],
          [
            4.780994,
            52.34053
          ],
          [
            4.781019,
            52.340542
          ],
          [
            4.781205,
            52.340477
          ],
          [
            4.781296,
            52.340443
          ],
          [
            4.781374,
            52.340405
          ],
          [
            4.781455,
            52.340366
          ],
          [
            4.781539,
            52.340328
          ],
          [
            4.781662,
            52.34026
          ],
          [
            4.781754,
            52.340214
          ],
          [
            4.781834,
            52.340172
          ],
          [
            4.781916,
            52.340134
          ],
          [
            4.781985,
            52.340099
          ],
          [
            4.78203,
            52.340076
          ],
          [
            4.782077,
            52.340057
          ],
          [
            4.782146,
            52.34005
          ],
          [
            4.782218,
            52.340073
          ],
          [
            4.78228,
            52.340107
          ],
          [
            4.78234,
            52.340149
          ],
          [
            4.782401,
            52.340195
          ],
          [
            4.782464,
            52.34024
          ],
          [
            4.782528,
            52.340286
          ],
          [
            4.782596,
            52.340332
          ],
          [
            4.782664,
            52.340382
          ],
          [
            4.782733,
            52.340431
          ],
          [
            4.782804,
            52.340477
          ],
          [
            4.782862,
            52.340527
          ],
          [
            4.78293,
            52.340569
          ],
          [
            4.783,
            52.340618
          ],
          [
            4.783067,
            52.340668
          ],
          [
            4.783129,
            52.340713
          ],
          [
            4.783193,
            52.340759
          ],
          [
            4.78326,
            52.340805
          ],
          [
            4.783333,
            52.340855
          ],
          [
            4.783405,
            52.340904
          ],
          [
            4.783467,
            52.34095
          ],
          [
            4.783535,
            52.340992
          ],
          [
            4.7836,
            52.341038
          ],
          [
            4.783667,
            52.341084
          ],
          [
            4.783733,
            52.341133
          ],
          [
            4.783804,
            52.341179
          ],
          [
            4.783869,
            52.341225
          ],
          [
            4.783933,
            52.341267
          ],
          [
            4.784005,
            52.341316
          ],
          [
            4.784074,
            52.341366
          ],
          [
            4.78414,
            52.341412
          ],
          [
            4.784207,
            52.341457
          ],
          [
            4.784266,
            52.341496
          ],
          [
            4.784334,
            52.341541
          ],
          [
            4.784397,
            52.341591
          ],
          [
            4.784461,
            52.341637
          ],
          [
            4.784529,
            52.341682
          ],
          [
            4.784595,
            52.341728
          ],
          [
            4.784665,
            52.341778
          ],
          [
            4.784731,
            52.341816
          ],
          [
            4.7848,
            52.341866
          ],
          [
            4.784868,
            52.341911
          ],
          [
            4.784936,
            52.341957
          ],
          [
            4.784998,
            52.342003
          ],
          [
            4.785063,
            52.342049
          ],
          [
            4.785132,
            52.342094
          ],
          [
            4.785199,
            52.34214
          ],
          [
            4.785266,
            52.34219
          ],
          [
            4.785332,
            52.342236
          ],
          [
            4.785392,
            52.342281
          ],
          [
            4.785457,
            52.342323
          ],
          [
            4.785522,
            52.342369
          ],
          [
            4.78559,
            52.342419
          ],
          [
            4.785658,
            52.342468
          ],
          [
            4.785724,
            52.342514
          ],
          [
            4.785789,
            52.34256
          ],
          [
            4.785853,
            52.342606
          ],
          [
            4.78592,
            52.342651
          ],
          [
            4.785988,
            52.342697
          ],
          [
            4.786055,
            52.342743
          ],
          [
            4.78612,
            52.342789
          ],
          [
            4.786185,
            52.342835
          ],
          [
            4.786251,
            52.342873
          ],
          [
            4.786321,
            52.342918
          ],
          [
            4.786385,
            52.34296
          ],
          [
            4.786444,
            52.342999
          ],
          [
            4.786512,
            52.34304
          ],
          [
            4.786581,
            52.343067
          ],
          [
            4.786661,
            52.343082
          ],
          [
            4.786648,
            52.343082
          ],
          [
            4.786828,
            52.343056
          ],
          [
            4.786909,
            52.343025
          ],
          [
            4.786991,
            52.342995
          ],
          [
            4.787078,
            52.342957
          ],
          [
            4.787167,
            52.342918
          ],
          [
            4.787254,
            52.34288
          ],
          [
            4.787339,
            52.34285
          ],
          [
            4.787427,
            52.342812
          ],
          [
            4.787513,
            52.342777
          ],
          [
            4.7876,
            52.342743
          ],
          [
            4.787681,
            52.342709
          ],
          [
            4.787768,
            52.342674
          ],
          [
            4.787854,
            52.342636
          ],
          [
            4.787937,
            52.342602
          ],
          [
            4.78802,
            52.342571
          ],
          [
            4.788108,
            52.342537
          ],
          [
            4.788192,
            52.342503
          ],
          [
            4.788275,
            52.342468
          ],
          [
            4.788358,
            52.342434
          ],
          [
            4.788442,
            52.3424
          ],
          [
            4.788519,
            52.342369
          ],
          [
            4.788598,
            52.342335
          ],
          [
            4.78866,
            52.342308
          ],
          [
            4.788753,
            52.34227
          ],
          [
            4.788823,
            52.342243
          ],
          [
            4.788892,
            52.342213
          ],
          [
            4.788963,
            52.342182
          ],
          [
            4.789035,
            52.342152
          ],
          [
            4.789101,
            52.342125
          ],
          [
            4.78917,
            52.342098
          ],
          [
            4.789233,
            52.342072
          ],
          [
            4.789297,
            52.342049
          ],
          [
            4.789382,
            52.342014
          ],
          [
            4.789457,
            52.341988
          ],
          [
            4.78953,
            52.341961
          ],
          [
            4.789597,
            52.341934
          ],
          [
            4.789667,
            52.341907
          ],
          [
            4.78974,
            52.341881
          ],
          [
            4.789819,
            52.34185
          ],
          [
            4.789902,
            52.341816
          ],
          [
            4.789987,
            52.341785
          ],
          [
            4.790073,
            52.341743
          ],
          [
            4.790157,
            52.341702
          ],
          [
            4.790239,
            52.341667
          ],
          [
            4.790329,
            52.341625
          ],
          [
            4.790413,
            52.341583
          ],
          [
            4.790492,
            52.341537
          ],
          [
            4.790572,
            52.341488
          ],
          [
            4.790645,
            52.341438
          ],
          [
            4.790724,
            52.341392
          ],
          [
            4.790798,
            52.341351
          ],
          [
            4.790866,
            52.341305
          ],
          [
            4.790911,
            52.341267
          ],
          [
            4.790936,
            52.341228
          ],
          [
            4.790933,
            52.34119
          ],
          [
            4.790929,
            52.341187
          ],
          [
            4.790923,
            52.341167
          ],
          [
            4.790916,
            52.341145
          ],
          [
            4.790907,
            52.341106
          ],
          [
            4.790907,
            52.341106
          ],
          [
            4.790907,
            52.341106
          ],
          [
            4.790907,
            52.341106
          ],
          [
            4.790915,
            52.341053
          ],
          [
            4.790925,
            52.341042
          ],
          [
            4.790934,
            52.34103
          ],
          [
            4.790947,
            52.341007
          ],
          [
            4.790957,
            52.340981
          ],
          [
            4.790969,
            52.340958
          ],
          [
            4.79099,
            52.340935
          ],
          [
            4.791016,
            52.340923
          ],
          [
            4.79108,
            52.340908
          ],
          [
            4.791128,
            52.340897
          ],
          [
            4.791169,
            52.340878
          ],
          [
            4.791169,
            52.340878
          ],
          [
            4.791169,
            52.340878
          ],
          [
            4.791169,
            52.340878
          ],
          [
            4.791169,
            52.340878
          ],
          [
            4.791169,
            52.340878
          ],
          [
            4.791265,
            52.340832
          ],
          [
            4.791291,
            52.340843
          ],
          [
            4.791323,
            52.340858
          ],
          [
            4.791354,
            52.340874
          ],
          [
            4.791383,
            52.340885
          ],
          [
            4.791413,
            52.340904
          ],
          [
            4.791435,
            52.340912
          ],
          [
            4.791435,
            52.340912
          ],
          [
            4.791435,
            52.340912
          ],
          [
            4.791435,
            52.340912
          ],
          [
            4.791473,
            52.3409
          ],
          [
            4.791483,
            52.340897
          ],
          [
            4.791483,
            52.340897
          ],
          [
            4.791483,
            52.340897
          ],
          [
            4.791483,
            52.340897
          ],
          [
            4.791483,
            52.340897
          ],
          [
            4.791505,
            52.340889
          ],
          [
            4.791517,
            52.340878
          ],
          [
            4.791536,
            52.340843
          ],
          [
            4.791563,
            52.340813
          ],
          [
            4.791606,
            52.340794
          ],
          [
            4.79168,
            52.340752
          ],
          [
            4.79172,
            52.340721
          ],
          [
            4.79176,
            52.340691
          ],
          [
            4.791802,
            52.340675
          ],
          [
            4.791802,
            52.340675
          ],
          [
            4.791841,
            52.340641
          ],
          [
            4.791862,
            52.34063
          ],
          [
            4.791896,
            52.340622
          ],
          [
            4.79195,
            52.340637
          ],
          [
            4.792016,
            52.340664
          ],
          [
            4.792077,
            52.340694
          ],
          [
            4.792145,
            52.340725
          ],
          [
            4.792185,
            52.340748
          ],
          [
            4.792249,
            52.34079
          ],
          [
            4.792305,
            52.340824
          ],
          [
            4.792348,
            52.340862
          ],
          [
            4.792393,
            52.3409
          ],
          [
            4.792444,
            52.34095
          ],
          [
            4.792504,
            52.341007
          ],
          [
            4.792553,
            52.341053
          ],
          [
            4.792617,
            52.341118
          ],
          [
            4.792671,
            52.341179
          ],
          [
            4.792722,
            52.341232
          ],
          [
            4.792772,
            52.341282
          ],
          [
            4.792824,
            52.341305
          ],
          [
            4.792914,
            52.341335
          ],
          [
            4.792965,
            52.341347
          ],
          [
            4.793004,
            52.341347
          ],
          [
            4.793046,
            52.341339
          ],
          [
            4.793046,
            52.341339
          ],
          [
            4.793046,
            52.341339
          ],
          [
            4.793046,
            52.341339
          ],
          [
            4.793068,
            52.341312
          ],
          [
            4.793089,
            52.341309
          ],
          [
            4.793123,
            52.341297
          ],
          [
            4.793154,
            52.34129
          ],
          [
            4.793202,
            52.34129
          ],
          [
            4.793244,
            52.34129
          ],
          [
            4.793279,
            52.341293
          ],
          [
            4.79332,
            52.341293
          ],
          [
            4.793363,
            52.341293
          ],
          [
            4.793398,
            52.341297
          ],
          [
            4.79342,
            52.34129
          ],
          [
            4.79342,
            52.34129
          ],
          [
            4.79342,
            52.34129
          ],
          [
            4.79346,
            52.341251
          ],
          [
            4.793524,
            52.34127
          ],
          [
            4.793531,
            52.34127
          ],
          [
            4.793531,
            52.34127
          ],
          [
            4.793577,
            52.341274
          ],
          [
            4.793591,
            52.341274
          ],
          [
            4.793605,
            52.341274
          ],
          [
            4.793605,
            52.341274
          ],
          [
            4.793654,
            52.341274
          ],
          [
            4.793654,
            52.341274
          ],
          [
            4.793654,
            52.341274
          ],
          [
            4.793685,
            52.341282
          ],
          [
            4.793685,
            52.341282
          ],
          [
            4.793685,
            52.341282
          ],
          [
            4.79372,
            52.341293
          ],
          [
            4.79372,
            52.341293
          ],
          [
            4.793728,
            52.341312
          ],
          [
            4.793728,
            52.341312
          ],
          [
            4.793741,
            52.341331
          ],
          [
            4.793742,
            52.341343
          ],
          [
            4.793727,
            52.341358
          ],
          [
            4.793705,
            52.341381
          ],
          [
            4.793692,
            52.341404
          ],
          [
            4.793702,
            52.341427
          ],
          [
            4.793718,
            52.34145
          ],
          [
            4.793737,
            52.341473
          ],
          [
            4.79375,
            52.341488
          ],
          [
            4.793768,
            52.341511
          ],
          [
            4.793784,
            52.34153
          ],
          [
            4.793799,
            52.341549
          ],
          [
            4.793803,
            52.341568
          ],
          [
            4.793803,
            52.341591
          ],
          [
            4.793788,
            52.341614
          ],
          [
            4.793774,
            52.341633
          ],
          [
            4.793755,
            52.341656
          ],
          [
            4.793738,
            52.341675
          ],
          [
            4.79372,
            52.341698
          ],
          [
            4.793701,
            52.341724
          ],
          [
            4.793694,
            52.341743
          ],
          [
            4.793701,
            52.341782
          ],
          [
            4.793719,
            52.341808
          ],
          [
            4.793741,
            52.34182
          ],
          [
            4.793766,
            52.341843
          ],
          [
            4.793815,
            52.341877
          ],
          [
            4.793861,
            52.341915
          ],
          [
            4.793919,
            52.341949
          ],
          [
            4.793964,
            52.341984
          ],
          [
            4.794016,
            52.342026
          ],
          [
            4.794065,
            52.342072
          ],
          [
            4.794114,
            52.342125
          ],
          [
            4.794153,
            52.342178
          ],
          [
            4.794187,
            52.342224
          ],
          [
            4.794229,
            52.342285
          ],
          [
            4.794268,
            52.342342
          ],
          [
            4.794302,
            52.342396
          ],
          [
            4.794336,
            52.342442
          ],
          [
            4.794376,
            52.342499
          ],
          [
            4.794418,
            52.34256
          ],
          [
            4.794454,
            52.342613
          ],
          [
            4.794497,
            52.342674
          ],
          [
            4.79453,
            52.342724
          ],
          [
            4.794565,
            52.342773
          ],
          [
            4.794605,
            52.342831
          ],
          [
            4.794658,
            52.342899
          ],
          [
            4.794701,
            52.34296
          ],
          [
            4.794745,
            52.343014
          ],
          [
            4.794786,
            52.343063
          ],
          [
            4.794818,
            52.343105
          ],
          [
            4.794864,
            52.343166
          ],
          [
            4.794911,
            52.343227
          ],
          [
            4.794959,
            52.343296
          ],
          [
            4.794998,
            52.343357
          ],
          [
            4.795037,
            52.343422
          ],
          [
            4.795061,
            52.343468
          ],
          [
            4.795094,
            52.343533
          ],
          [
            4.795123,
            52.343578
          ],
          [
            4.795157,
            52.343643
          ],
          [
            4.795194,
            52.343704
          ],
          [
            4.795224,
            52.343742
          ],
          [
            4.795242,
            52.343769
          ],
          [
            4.795242,
            52.343769
          ],
          [
            4.795242,
            52.343769
          ],
          [
            4.795258,
            52.343792
          ],
          [
            4.795273,
            52.343815
          ],
          [
            4.795281,
            52.343834
          ],
          [
            4.795295,
            52.343853
          ],
          [
            4.79531,
            52.34388
          ],
          [
            4.795335,
            52.343918
          ],
          [
            4.795365,
            52.343964
          ],
          [
            4.795394,
            52.344013
          ],
          [
            4.795432,
            52.344067
          ],
          [
            4.795462,
            52.34412
          ],
          [
            4.795485,
            52.344185
          ],
          [
            4.795503,
            52.344246
          ],
          [
            4.795513,
            52.344303
          ],
          [
            4.795522,
            52.344372
          ],
          [
            4.795532,
            52.34444
          ],
          [
            4.795537,
            52.344498
          ],
          [
            4.79555,
            52.344559
          ],
          [
            4.79557,
            52.344624
          ],
          [
            4.795594,
            52.344685
          ],
          [
            4.795628,
            52.344753
          ],
          [
            4.795665,
            52.344814
          ],
          [
            4.795706,
            52.344875
          ],
          [
            4.795727,
            52.344913
          ],
          [
            4.795766,
            52.344971
          ],
          [
            4.79581,
            52.345039
          ],
          [
            4.795846,
            52.345097
          ],
          [
            4.795887,
            52.345161
          ],
          [
            4.795913,
            52.345203
          ],
          [
            4.795941,
            52.345253
          ],
          [
            4.795973,
            52.345303
          ],
          [
            4.796022,
            52.345352
          ],
          [
            4.796047,
            52.345386
          ],
          [
            4.796034,
            52.345398
          ],
          [
            4.796022,
            52.345402
          ],
          [
            4.796007,
            52.34539
          ],
          [
            4.795996,
            52.345367
          ],
          [
            4.795975,
            52.345329
          ],
          [
            4.795949,
            52.34528
          ],
          [
            4.79592,
            52.34523
          ],
          [
            4.795886,
            52.345181
          ],
          [
            4.795841,
            52.34512
          ],
          [
            4.795792,
            52.345051
          ],
          [
            4.795748,
            52.344986
          ],
          [
            4.795715,
            52.344933
          ],
          [
            4.795688,
            52.344891
          ],
          [
            4.795646,
            52.344822
          ],
          [
            4.795615,
            52.344772
          ],
          [
            4.795582,
            52.344711
          ],
          [
            4.795559,
            52.344658
          ],
          [
            4.795538,
            52.344597
          ],
          [
            4.79552,
            52.344521
          ],
          [
            4.795521,
            52.344471
          ],
          [
            4.795509,
            52.344414
          ],
          [
            4.795499,
            52.344337
          ],
          [
            4.795486,
            52.34428
          ],
          [
            4.795477,
            52.344223
          ],
          [
            4.795462,
            52.344177
          ],
          [
            4.795437,
            52.34412
          ],
          [
            4.795408,
            52.344067
          ],
          [
            4.795369,
            52.343998
          ],
          [
            4.79532,
            52.343922
          ],
          [
            4.79528,
            52.343864
          ],
          [
            4.795239,
            52.343803
          ],
          [
            4.795206,
            52.343754
          ],
          [
            4.795167,
            52.343689
          ],
          [
            4.795138,
            52.343639
          ],
          [
            4.795111,
            52.343586
          ],
          [
            4.795076,
            52.343525
          ],
          [
            4.795037,
            52.343452
          ],
          [
            4.795004,
            52.343395
          ],
          [
            4.794977,
            52.343353
          ],
          [
            4.794951,
            52.343308
          ],
          [
            4.794925,
            52.343269
          ],
          [
            4.794898,
            52.343239
          ],
          [
            4.79486,
            52.343212
          ],
          [
            4.794803,
            52.343201
          ],
          [
            4.794738,
            52.343197
          ],
          [
            4.794662,
            52.343189
          ],
          [
            4.794595,
            52.343163
          ],
          [
            4.794547,
            52.343117
          ],
          [
            4.794509,
            52.343063
          ],
          [
            4.794473,
            52.34301
          ],
          [
            4.79444,
            52.342949
          ],
          [
            4.794405,
            52.342888
          ],
          [
            4.794364,
            52.342827
          ],
          [
            4.794324,
            52.34277
          ],
          [
            4.794282,
            52.342709
          ],
          [
            4.794242,
            52.342651
          ],
          [
            4.794216,
            52.342613
          ],
          [
            4.794178,
            52.34256
          ],
          [
            4.794136,
            52.342495
          ],
          [
            4.794101,
            52.342442
          ],
          [
            4.794059,
            52.342384
          ],
          [
            4.79402,
            52.342335
          ],
          [
            4.793953,
            52.342262
          ],
          [
            4.793901,
            52.342213
          ],
          [
            4.793838,
            52.342155
          ],
          [
            4.793782,
            52.342113
          ],
          [
            4.793707,
            52.34206
          ],
          [
            4.793631,
            52.342007
          ],
          [
            4.793557,
            52.341961
          ],
          [
            4.793479,
            52.341919
          ],
          [
            4.793391,
            52.341873
          ],
          [
            4.793309,
            52.341831
          ],
          [
            4.793228,
            52.341793
          ],
          [
            4.793156,
            52.341759
          ],
          [
            4.793088,
            52.341724
          ],
          [
            4.793036,
            52.34169
          ],
          [
            4.792986,
            52.341656
          ],
          [
            4.792915,
            52.341606
          ],
          [
            4.792848,
            52.341549
          ],
          [
            4.7928,
            52.341492
          ],
          [
            4.792745,
            52.341438
          ],
          [
            4.792677,
            52.341396
          ],
          [
            4.792616,
            52.341347
          ],
          [
            4.792571,
            52.34129
          ],
          [
            4.792522,
            52.341228
          ],
          [
            4.79248,
            52.341171
          ],
          [
            4.792442,
            52.341122
          ],
          [
            4.792395,
            52.341061
          ],
          [
            4.792353,
            52.340996
          ],
          [
            4.792318,
            52.340942
          ],
          [
            4.79228,
            52.340897
          ],
          [
            4.792228,
            52.340843
          ],
          [
            4.792163,
            52.340794
          ],
          [
            4.792093,
            52.340755
          ],
          [
            4.792013,
            52.340713
          ],
          [
            4.791935,
            52.340683
          ],
          [
            4.791862,
            52.340656
          ],
          [
            4.791794,
            52.340652
          ],
          [
            4.791742,
            52.340668
          ],
          [
            4.791694,
            52.340694
          ],
          [
            4.791661,
            52.340729
          ],
          [
            4.791616,
            52.340767
          ],
          [
            4.79156,
            52.340805
          ],
          [
            4.791509,
            52.340851
          ],
          [
            4.791456,
            52.340897
          ],
          [
            4.791404,
            52.340942
          ],
          [
            4.791346,
            52.340996
          ],
          [
            4.791288,
            52.341049
          ],
          [
            4.79124,
            52.341099
          ],
          [
            4.791195,
            52.341152
          ],
          [
            4.791142,
            52.341206
          ],
          [
            4.79108,
            52.341255
          ],
          [
            4.791007,
            52.341297
          ],
          [
            4.790928,
            52.341335
          ],
          [
            4.790849,
            52.341377
          ],
          [
            4.790773,
            52.341419
          ],
          [
            4.790697,
            52.341457
          ],
          [
            4.79062,
            52.341499
          ],
          [
            4.790547,
            52.341537
          ],
          [
            4.790485,
            52.341568
          ],
          [
            4.790398,
            52.34161
          ],
          [
            4.790322,
            52.341644
          ],
          [
            4.790232,
            52.341686
          ],
          [
            4.790153,
            52.341721
          ],
          [
            4.790068,
            52.341759
          ],
          [
            4.789989,
            52.341793
          ],
          [
            4.789896,
            52.341831
          ],
          [
            4.789824,
            52.341858
          ],
          [
            4.78974,
            52.341892
          ],
          [
            4.78966,
            52.341923
          ],
          [
            4.789567,
            52.341957
          ],
          [
            4.789478,
            52.341991
          ],
          [
            4.789389,
            52.34203
          ],
          [
            4.789305,
            52.342064
          ],
          [
            4.789218,
            52.342098
          ],
          [
            4.789142,
            52.342129
          ],
          [
            4.789055,
            52.342163
          ],
          [
            4.788973,
            52.342197
          ],
          [
            4.788883,
            52.342232
          ],
          [
            4.788805,
            52.342266
          ],
          [
            4.788719,
            52.3423
          ],
          [
            4.788634,
            52.342335
          ],
          [
            4.78855,
            52.342369
          ],
          [
            4.788477,
            52.342403
          ],
          [
            4.788392,
            52.342434
          ],
          [
            4.788293,
            52.342476
          ],
          [
            4.788203,
            52.342514
          ],
          [
            4.788121,
            52.342548
          ],
          [
            4.78805,
            52.342579
          ],
          [
            4.787979,
            52.342609
          ],
          [
            4.787903,
            52.34264
          ],
          [
            4.787814,
            52.342674
          ],
          [
            4.78773,
            52.342709
          ],
          [
            4.787643,
            52.342743
          ],
          [
            4.787562,
            52.342777
          ],
          [
            4.787481,
            52.342808
          ],
          [
            4.787397,
            52.342842
          ],
          [
            4.787321,
            52.342876
          ],
          [
            4.787241,
            52.342907
          ],
          [
            4.787147,
            52.342945
          ],
          [
            4.787059,
            52.342979
          ],
          [
            4.786973,
            52.343014
          ],
          [
            4.786874,
            52.343048
          ],
          [
            4.78679,
            52.343071
          ],
          [
            4.786693,
            52.34309
          ],
          [
            4.786696,
            52.343086
          ],
          [
            4.786521,
            52.34306
          ],
          [
            4.786446,
            52.343029
          ],
          [
            4.786376,
            52.342991
          ],
          [
            4.786319,
            52.342957
          ],
          [
            4.786238,
            52.342903
          ],
          [
            4.786163,
            52.34285
          ],
          [
            4.786099,
            52.342804
          ],
          [
            4.786019,
            52.342751
          ],
          [
            4.785933,
            52.34269
          ],
          [
            4.785865,
            52.342644
          ],
          [
            4.785788,
            52.34259
          ],
          [
            4.785719,
            52.342545
          ],
          [
            4.785641,
            52.342491
          ],
          [
            4.785581,
            52.342445
          ],
          [
            4.785506,
            52.342392
          ],
          [
            4.78543,
            52.342342
          ],
          [
            4.785351,
            52.342289
          ],
          [
            4.785263,
            52.342236
          ],
          [
            4.785189,
            52.342194
          ],
          [
            4.78513,
            52.342155
          ],
          [
            4.785053,
            52.342098
          ],
          [
            4.784966,
            52.342045
          ],
          [
            4.784908,
            52.342003
          ],
          [
            4.784847,
            52.341961
          ],
          [
            4.784787,
            52.341915
          ],
          [
            4.784708,
            52.341862
          ],
          [
            4.784648,
            52.34182
          ],
          [
            4.784572,
            52.341763
          ],
          [
            4.78451,
            52.341721
          ],
          [
            4.784426,
            52.341663
          ],
          [
            4.784377,
            52.341629
          ],
          [
            4.784306,
            52.341583
          ],
          [
            4.78425,
            52.341545
          ],
          [
            4.784179,
            52.341496
          ],
          [
            4.784095,
            52.341434
          ],
          [
            4.784014,
            52.341373
          ],
          [
            4.78395,
            52.341331
          ],
          [
            4.783883,
            52.341282
          ],
          [
            4.783807,
            52.341228
          ],
          [
            4.783743,
            52.341183
          ],
          [
            4.783689,
            52.341148
          ],
          [
            4.783635,
            52.34111
          ],
          [
            4.783572,
            52.341072
          ],
          [
            4.783489,
            52.341019
          ],
          [
            4.783411,
            52.340965
          ],
          [
            4.783332,
            52.340908
          ],
          [
            4.783276,
            52.34087
          ],
          [
            4.783206,
            52.340816
          ],
          [
            4.783128,
            52.340759
          ],
          [
            4.78308,
            52.340725
          ],
          [
            4.783004,
            52.340675
          ],
          [
            4.782936,
            52.34063
          ],
          [
            4.78286,
            52.340576
          ],
          [
            4.782791,
            52.340527
          ],
          [
            4.782723,
            52.340477
          ],
          [
            4.782656,
            52.340431
          ],
          [
            4.782593,
            52.340389
          ],
          [
            4.782545,
            52.340355
          ],
          [
            4.782479,
            52.340309
          ],
          [
            4.782417,
            52.340263
          ],
          [
            4.782344,
            52.34021
          ],
          [
            4.782257,
            52.340153
          ],
          [
            4.782189,
            52.340107
          ],
          [
            4.782123,
            52.340061
          ],
          [
            4.782054,
            52.340015
          ],
          [
            4.781984,
            52.33997
          ],
          [
            4.781923,
            52.339928
          ],
          [
            4.781859,
            52.339886
          ],
          [
            4.781815,
            52.339855
          ],
          [
            4.781754,
            52.339813
          ],
          [
            4.781686,
            52.339764
          ],
          [
            4.781624,
            52.339718
          ],
          [
            4.781557,
            52.339668
          ],
          [
            4.781477,
            52.339619
          ],
          [
            4.781393,
            52.339561
          ],
          [
            4.781329,
            52.339516
          ],
          [
            4.781271,
            52.339474
          ],
          [
            4.781197,
            52.339424
          ],
          [
            4.781133,
            52.339378
          ],
          [
            4.781062,
            52.339329
          ],
          [
            4.780989,
            52.339275
          ],
          [
            4.780917,
            52.339226
          ],
          [
            4.780853,
            52.339176
          ],
          [
            4.780798,
            52.339142
          ],
          [
            4.780738,
            52.339123
          ],
          [
            4.780634,
            52.339092
          ],
          [
            4.78058,
            52.339073
          ],
          [
            4.780505,
            52.339069
          ],
          [
            4.780438,
            52.339054
          ],
          [
            4.780375,
            52.339027
          ],
          [
            4.780318,
            52.338993
          ],
          [
            4.780264,
            52.338959
          ],
          [
            4.780205,
            52.338932
          ],
          [
            4.780134,
            52.338932
          ],
          [
            4.780055,
            52.338951
          ],
          [
            4.780003,
            52.338974
          ],
          [
            4.779926,
            52.339016
          ],
          [
            4.779862,
            52.33905
          ],
          [
            4.779816,
            52.339081
          ],
          [
            4.779731,
            52.339092
          ],
          [
            4.779662,
            52.339085
          ],
          [
            4.779585,
            52.339081
          ],
          [
            4.779517,
            52.339092
          ],
          [
            4.779466,
            52.339107
          ],
          [
            4.779365,
            52.339142
          ],
          [
            4.779292,
            52.339172
          ],
          [
            4.77921,
            52.339211
          ],
          [
            4.779126,
            52.339241
          ],
          [
            4.779069,
            52.33926
          ],
          [
            4.778995,
            52.33926
          ],
          [
            4.778932,
            52.339245
          ],
          [
            4.778886,
            52.339214
          ],
          [
            4.778844,
            52.339176
          ],
          [
            4.778828,
            52.339134
          ],
          [
            4.778806,
            52.339092
          ],
          [
            4.77877,
            52.339043
          ],
          [
            4.778738,
            52.338997
          ],
          [
            4.778695,
            52.338955
          ],
          [
            4.778645,
            52.338905
          ],
          [
            4.778604,
            52.338863
          ],
          [
            4.778563,
            52.338829
          ],
          [
            4.778517,
            52.338795
          ],
          [
            4.778466,
            52.338768
          ],
          [
            4.778399,
            52.338741
          ],
          [
            4.778323,
            52.33873
          ],
          [
            4.778259,
            52.33873
          ],
          [
            4.778191,
            52.338749
          ],
          [
            4.778126,
            52.338772
          ],
          [
            4.778066,
            52.338795
          ],
          [
            4.778013,
            52.338821
          ],
          [
            4.777966,
            52.338844
          ],
          [
            4.777926,
            52.33886
          ],
          [
            4.777886,
            52.338875
          ],
          [
            4.777852,
            52.33889
          ],
          [
            4.777852,
            52.33889
          ],
          [
            4.777852,
            52.33889
          ],
          [
            4.777852,
            52.33889
          ],
          [
            4.777803,
            52.338924
          ],
          [
            4.777783,
            52.338932
          ],
          [
            4.777767,
            52.338947
          ],
          [
            4.777776,
            52.338955
          ],
          [
            4.777781,
            52.338982
          ],
          [
            4.777781,
            52.338982
          ],
          [
            4.777781,
            52.338982
          ],
          [
            4.777778,
            52.338985
          ],
          [
            4.777778,
            52.338985
          ],
          [
            4.777778,
            52.338985
          ],
          [
            4.777775,
            52.338993
          ],
          [
            4.777792,
            52.338997
          ],
          [
            4.777792,
            52.338997
          ],
          [
            4.777828,
            52.339027
          ],
          [
            4.777838,
            52.339039
          ],
          [
            4.777851,
            52.33905
          ],
          [
            4.777874,
            52.339069
          ],
          [
            4.777906,
            52.339092
          ],
          [
            4.777932,
            52.339115
          ],
          [
            4.777969,
            52.339142
          ],
          [
            4.777997,
            52.339161
          ],
          [
            4.778018,
            52.339184
          ],
          [
            4.778028,
            52.339203
          ],
          [
            4.778013,
            52.339214
          ],
          [
            4.777978,
            52.339233
          ],
          [
            4.777933,
            52.339249
          ],
          [
            4.7779,
            52.339256
          ],
          [
            4.777824,
            52.339275
          ],
          [
            4.77777,
            52.339294
          ],
          [
            4.777757,
            52.339321
          ],
          [
            4.777746,
            52.339352
          ],
          [
            4.777751,
            52.339382
          ],
          [
            4.777781,
            52.339417
          ],
          [
            4.777823,
            52.339455
          ],
          [
            4.777884,
            52.339489
          ],
          [
            4.777951,
            52.339508
          ],
          [
            4.778037,
            52.339523
          ],
          [
            4.778122,
            52.339519
          ],
          [
            4.778199,
            52.3395
          ],
          [
            4.778277,
            52.33947
          ],
          [
            4.778347,
            52.339436
          ],
          [
            4.778417,
            52.339394
          ],
          [
            4.778489,
            52.339355
          ],
          [
            4.778563,
            52.339317
          ],
          [
            4.778647,
            52.339287
          ],
          [
            4.778737,
            52.339272
          ],
          [
            4.778813,
            52.339272
          ],
          [
            4.778889,
            52.339287
          ],
          [
            4.77894,
            52.33931
          ],
          [
            4.778968,
            52.339333
          ],
          [
            4.778964,
            52.339355
          ],
          [
            4.778948,
            52.339382
          ],
          [
            4.778943,
            52.339401
          ],
          [
            4.778959,
            52.339413
          ],
          [
            4.778986,
            52.339443
          ],
          [
            4.779014,
            52.339466
          ],
          [
            4.77903,
            52.339481
          ],
          [
            4.779029,
            52.339493
          ],
          [
            4.779029,
            52.339493
          ],
          [
            4.779008,
            52.339497
          ],
          [
            4.779008,
            52.339497
          ],
          [
            4.779008,
            52.339497
          ],
          [
            4.779237,
            52.339405
          ]
        ]
      }
    }
  ]
}